,Unnamed: 0,AreaName,Price ($),lat,lng,Address,City,Postal Code,FSA
107,107,Rouge,688500,43.805416,-79.186546,7 ROUGE RIVER DR,Toronto,M1B 6J4,M1B
126,126,Malvern,377500,43.795006,-79.239113,#207 - 1775 MARKHAM RD,Toronto,M1B 2W2,M1B
134,134,Malvern,475000,43.813889,-79.221359,29 GLANVIL CRES,Toronto,M1B 4R9,M1B
137,137,Malvern,139900,43.805328,-79.22023,#405 - 99 BLACKWELL AVE,Toronto,M1B 3R5,M1B
159,159,Malvern,125000,43.805328,-79.22023,#310 - 99 BLACKWELL AVE,Toronto,M1B 3R5,M1B
163,163,Malvern,339000,43.795254,-79.239372,#105 - 1795 MARKHAM RD,Toronto,M1B 2Z7,M1B
238,238,Malvern,539900,43.802864,-79.214462,3 Burkwood Cres,Toronto,M1B 1L7,M1B
247,247,Malvern,518000,43.813629,-79.221588,28 Glanvil Cres,Toronto,M1B 4R8,M1B
249,249,Malvern,830000,43.82024,-79.202942,15 Kengate Dr,Toronto,M1B 5E6,M1B
251,251,Malvern,234900,43.807106,-79.227829,#67 - 42 Pinery Tr,Toronto,M1B 6K2,M1B
267,267,Malvern,249990,43.791725,-79.23687,#17G - 6 Rosebank Dr,Toronto,M1B,M1B
278,278,Malvern,318000,43.805099,-79.21196,#18 - 170 Wickson Tr,Toronto,M1B 1M4,M1B
362,362,Malvern,499000,43.79504,-79.234375,5688 SHEPPARD AVE E,Toronto,M1B 6E1,M1B
456,456,Malvern,365000,43.795147,-79.238808,#104 - 1785 MARKHAM RD,Toronto,M1B 2W2,M1B
459,459,Malvern,529900,43.791267,-79.234779,#1207 - 29 ROSEBANK DR,Toronto,M1B 5Y7,M1B
468,468,Malvern,228000,43.791725,-79.23687,#3 D - 6 ROSEBANK DR,Toronto,M1B,M1B
667,667,Malvern,149900,43.805328,-79.22023,#Ph206 - 99 Blackwell Ave,Toronto,M1B 3R5,M1B
716,716,Rouge,298000,43.802887,-79.169403,#808 - 10 Dean Park Rd,Toronto,M1B 3H1,M1B
838,838,Malvern,189000,43.794353,-79.237694,#706 - 5580 SHEPPARD AVE,Toronto,M1B 2L3,M1B
846,846,Malvern,599888,43.806599,-79.20974,49 JOHN TABOR TR,Toronto,M1B 2P5,M1B
852,852,Malvern,469000,43.792038,-79.234344,#510 - 19 ROSEBANK DR,Toronto,M1B 5Z1,M1B
1027,1027,Malvern,478000,43.792263,-79.237587,#406 - 1585 MARKHAM RD,Toronto,M1B 2W1,M1B
1029,1029,Malvern,249900,43.791836,-79.237404,#9 G - 8 ROSEBANK DR,Toronto,M1B 5Z3,M1B
1180,1180,Malvern,558888,43.814308,-79.215759,1 ROVINELLI RD,Toronto,M1B 4L6,M1B
1289,1289,Rouge,689000,43.805416,-79.186546,7 ROUGE RIVER DR,Toronto,M1B 6J4,M1B
123,123,Highland Creek,859000,43.7897,-79.176453,3528 ELLESMERE RD,Toronto,M1C 3Z2,M1C
131,131,Highland Creek,2497000,43.782387,-79.181709,4 HAIDA CRT,Toronto,M1C,M1C
139,139,Highland Creek,869000,43.786201,-79.178551,61 BOBMAR RD,Toronto,M1C 1C8,M1C
172,172,Highland Creek,999000,43.785759,-79.182869,42 CONLINS RD,Toronto,M1C 1C3,M1C
296,296,Highland Creek,725000,43.79467,-79.175468,694 Morrish Rd,Toronto,M1C 1G3,M1C
466,466,Port Union,699900,43.777721,-79.137276,31 VESSEL CRES,Toronto,M1C 5K7,M1C
526,526,Highland Creek,700000,43.795937,-79.179733,175 Calverley Tr,Toronto,M1C 3Y4,M1C
544,544,Highland Creek,1065900,43.791302,-79.158119,#Block1 - 6443 KINGSTON RD,Toronto,M1C 1L2,M1C
545,545,Highland Creek,1040900,43.791302,-79.158119,#Block - 6443 KINGSTON RD,Toronto,M1C 1L2,M1C
751,751,Rouge,899900,43.794567,-79.139496,#22 - 67 KIRKDENE DR,Toronto,M1C 2V6,M1C
987,987,Highland Creek,2350000,43.797825,-79.169319,133 ZAPH AVE,Toronto,M1C 1M9,M1C
1006,1006,Port Union,89900,43.789452,-79.14077,297 PORT UNION RD,Toronto,M1C 2L3,M1C
1032,1032,Highland Creek,939000,43.79401,-79.158142,4046 ELLESMERE RD,Toronto,M1C 1J2,M1C
1156,1156,Highland Creek,640000,43.795174,-79.180603,85 HALFMOON SQ,Toronto,M1C 3V2,M1C
1272,1272,Rouge,729000,43.796291,-79.137764,102 BEAVERBROOK CRT,Toronto,M1C 3A9,M1C
143,143,West Hill,730000,43.767239,-79.180832,66 PIPERBROOK CRES,Toronto,M1E 5G9,M1E
152,152,West Hill,1198000,43.766975,-79.178986,115 A HOMESTEAD RD,Toronto,M1E 3S1,M1E
259,259,West Hill,1779999,43.763065,-79.196571,8 ADAMS DR,Toronto,M1E 1X2,M1E
270,270,Morningside,429900,43.78614,-79.211952,#08 - 341 Military Tr,Toronto,M1E 4E4,M1E
273,273,Morningside,699900,43.788639,-79.207932,430 Military Tr,Toronto,M1E 4E7,M1E
427,427,West Hill,1238000,43.766975,-79.178986,115 B HOMESTEAD RD,Toronto,M1E 3S1,M1E
433,433,Guildwood,715000,43.743652,-79.20015,229 CATALINA DR,Toronto,M1E 1B8,M1E
441,441,West Hill,599900,43.757496,-79.192497,97 GALLOWAY RD,Toronto,M1E 1W8,M1E
470,470,West Hill,399000,43.775135,-79.187401,36 AMIENS RD,Toronto,M1E 3S7,M1E
474,474,West Hill,669900,43.760811,-79.18306,4 DUBARRY AVE,Toronto,M1E 3C5,M1E
725,725,West Hill,80000,43.765911,-79.19754,##201 - 4062 Lawrence Ave,Toronto,M1E 2R6,M1E
728,728,Morningside,729999,43.789196,-79.218353,30 Gillbank Cres,Toronto,M1E 4H9,M1E
745,745,West Hill,2880000,43.758629,-79.197571,4151 KINGSTON RD,Toronto,M1E 2M3,M1E
754,754,West Hill,425000,43.764301,-79.198959,139 OVERTURE RD E,Toronto,M1E 2W5,M1E
758,758,West Hill,199900,43.76638,-79.197601,#214 - 4064 LAWRENCE AVE,Toronto,M1E 4V6,M1E
779,779,West Hill,1488000,43.773514,-79.178856,46 Orchard Park Dr,Toronto,M1E 3T7,M1E
813,813,West Hill,618000,43.761448,-79.184669,25 WAGNER DR,Toronto,M1E 2Z5,M1E
859,859,West Hill,272900,43.768715,-79.188751,#110 - 4434 KINGSTON RD,Toronto,M1E 2N7,M1E
909,909,West Hill,849800,43.762257,-79.177025,44 HOMESTEAD RD,Toronto,M1E 3R9,M1E
1025,1025,Morningside,414000,43.788795,-79.20681,#71 - 441 MILITARY TR,Toronto,M1E 4E8,M1E
1065,1065,West Hill,788000,43.772305,-79.193016,3 Pickford Rd,Toronto,M1E 3A7,M1E
1068,1068,West Hill,749800,43.772583,-79.193367,8A Pickford Rd,Toronto,M1E 3A6,M1E
1103,1103,Morningside,399900,43.78614,-79.211952,#08 - 341 Military Tr,Toronto,M1E 4E4,M1E
1119,1119,West Hill,254000,43.768364,-79.182182,#415 - 121 Ling Rd,Toronto,M1E 4Y2,M1E
1125,1125,Morningside,349900,43.786888,-79.205353,#197 - 10 Livonia Pl,Toronto,M1E 4W6,M1E
1131,1131,West Hill,379000,43.75787,-79.200203,#12 - 33 Celeste Dr,Toronto,M1E 2V1,M1E
1133,1133,West Hill,599900,43.76432,-79.187912,30 DANZIG ST,Toronto,M1E 2K9,M1E
1222,1222,West Hill,239888,43.775337,-79.179039,"#21,22 - 4630 Kingston Rd",Toronto,M1E 4Z4,M1E
1231,1231,West Hill,459900,43.763622,-79.197525,166 Celeste Dr,Toronto,M1E 2V8,M1E
93,93,Woburn,599000,43.765667,-79.219574,8 BARNES CRES,Toronto,M1G 1Z9,M1G
171,171,Woburn,615000,43.757694,-79.222122,7 VAN ALLAN RD,Toronto,M1G 1C1,M1G
230,230,Woburn,649000,43.779556,-79.225761,1 Pegasus Tr,Toronto,M1G 3N3,M1G
969,969,Woburn,599900,43.771046,-79.209915,959 BRIMORTON DR,Toronto,M1G 2V1,M1G
1112,1112,Woburn,679000,43.779228,-79.22168,33 PORTICO DR,Toronto,M1G 3R5,M1G
1232,1232,Woburn,799900,43.775688,-79.205589,4 PLOVER RD,Toronto,M1G 3L9,M1G
1239,1239,Woburn,799000,43.782238,-79.225121,126 Pegasus Tr,Toronto,M1G 3P3,M1G
109,109,Woburn,338800,43.773685,-79.249619,#709 - 68 GRANGEWAY AVE,Toronto,M1H 0A1,M1H
122,122,Woburn,385000,43.780956,-79.249779,#1604 - 88 CORPORATE DR,Toronto,M1H 3G6,M1H
165,165,Ben Jungle,795000,43.761955,-79.23864,43 BENLIGHT CRES,Toronto,M1H 1P5,M1H
222,222,Woburn,325000,43.78167,-79.247215,#2210 - 36 LEE CENTRE DR,Toronto,M1H 3J7,M1H
271,271,Woburn,349000,43.773827,-79.250023,#2202 - 88 Grangeway Ave,Toronto,M1H 0A2,M1H
351,351,Woburn,349000,43.773827,-79.250023,#2202 - 88 Grangeway Ave,Toronto,M1H 0A2,M1H
473,473,Woburn,155000,43.780998,-79.235863,#Uph02 - 885 PROGRESS AVE,Toronto,M1H 2X7,M1H
518,518,Woburn,264900,43.780956,-79.249779,#1710 - 88 CORPORATE DR,Toronto,M1H 3G6,M1H
599,599,Woburn,275000,43.780956,-79.249779,#2819 - 88 Corporate Dr,Toronto,M1H 3G6,M1H
711,711,Woburn,394900,43.780956,-79.249779,#1404 - 88 Corporate Dr,Toronto,M1H 3G6,M1H
845,845,Woburn,288000,43.773827,-79.250023,#2710 - 88 GRANGEWAY AVE,Toronto,M1H 0A2,M1H
1224,1224,Woburn,299888,43.773685,-79.249619,#202 - 68 Grangeway Ave,Toronto,M1H 0A1,M1H
105,105,Eglinton East,699000,43.739819,-79.248024,17 STRODE DR,Toronto,M1J 1L8,M1J
255,255,Bendale,728888,43.754463,-79.243851,18 Dignam Crt,Toronto,M1J 2C5,M1J
305,305,Eglinton East,185000,43.740406,-79.237946,#411 - 121 Trudelle St,Toronto,M1J 3K4,M1J
363,363,Bendale,589800,43.751591,-79.247688,45 BARRYMORE RD,Toronto,M1J 1W4,M1J
384,384,Eglinton East,629900,43.742371,-79.245285,1315 DANFORTH RD,Toronto,M1J 1G2,M1J
494,494,Eglinton East,699800,43.742512,-79.244614,12 PRINGDALE GARDEN CIRC,Toronto,M1J 1G5,M1J
550,550,Scarborough Village,188900,43.744812,-79.214561,#906 - 3380 EGLINTON AVE E,Toronto,M1J 3L6,M1J
798,798,Eglinton East,259000,43.735638,-79.246964,1071 DANFORTH RD,Toronto,M1J 2C7,M1J
823,823,Eglinton East,95000,43.735638,-79.246964,#2 - 1071 DANFORTH RD,Toronto,M1J 2C7,M1J
1021,1021,Scarborough Village,208000,43.744812,-79.214561,#1802 - 3380 EGLINTON AVE,Toronto,M1J 3L6,M1J
1071,1071,Scarborough Village,784900,43.748245,-79.21685,48 Dunelm St,Toronto,M1J 3G1,M1J
1108,1108,Eglinton East,579900,43.744301,-79.235939,14 Adler St,Toronto,M1J 2M8,M1J
1116,1116,South Cedarbrae,649000,43.75074,-79.223907,1 Strandhill Rd,Toronto,M1J 3A8,M1J
1152,1152,Eglinton East,249900,43.737576,-79.238251,#306 - 330 MCCOWAN RD,Toronto,M1J 3N3,M1J
1179,1179,Woburn,599900,43.744694,-79.227638,15 FARMBROOK RD,Toronto,M1J 2S3,M1J
1206,1206,Eglinton East,629900,43.742146,-79.247414,33 GRAYLEE AVE,Toronto,M1J 1M7,M1J
1260,1260,Bendale,799900,43.750801,-79.24028,34 BENDALE BLVD N,Toronto,M1J 2B1,M1J
104,104,Ionview,717000,43.735332,-79.275482,14 RICHOME CRT,Toronto,M1K 2Y1,M1K
168,168,Toronto,30000,43.741619,-79.261101,1051 MIDLAND AVE,Toronto,M1K 4G8,M1K
275,275,Kennedy Park,649900,43.727692,-79.269615,14 Miniot Circ,Toronto,M1K 2K2,M1K
356,356,Kennedy Park,647000,43.723759,-79.270348,17 MARTORINO DR,Toronto,M1K 2J2,M1K
515,515,Ionview,385000,43.741142,-79.271408,#21 - 901 KENNEDY RD,Toronto,M1K 2E9,M1K
532,532,Ionview,950000,43.737572,-79.2705,170 BERTRAND AVE,Toronto,M1K 2T2,M1K
549,549,Scarborough Junction,166500,43.72599,-79.265015,#332 - 665 KENNEDY RD,Toronto,M1K 2B8,M1K
553,553,Clairlea - Birchmount,699900,43.711819,-79.265274,73 NORTH WOODROW BLVD,Toronto,M1K 1W6,M1K
663,663,Scarborough Junction,995000,43.709301,-79.266144,525 Danforth Rd,Toronto,M1K 1C8,M1K
673,673,Kennedy Park,619000,43.723442,-79.273499,48 Roebuck Dr,Toronto,M1K 2H5,M1K
700,700,Kennedy Park,789000,43.735638,-79.250687,#Main - 2657 EGLINTON AVE E,Toronto,M1K 2S3,M1K
748,748,Ionview,699000,43.738369,-79.273857,99 IONVIEW RD,Toronto,M1K 2Z8,M1K
836,836,Kennedy Park,780000,43.72179,-79.256012,777 DANFORTH RD,Toronto,M1K 1G9,M1K
868,868,Toronto,69900,43.741722,-79.261139,1055 MIDLAND AVE,Toronto,M1K 4G8,M1K
978,978,Scarborough Junction,995000,43.709301,-79.266144,525 DANFORTH RD,Toronto,M1K 1C8,M1K
990,990,Scarborough Junction,159500,43.72599,-79.265015,#309 - 665 KENNEDY RD,Toronto,M1K 2B8,M1K
1016,1016,Bendale,575000,43.747921,-79.254951,35 PENZANCE DR,Toronto,M1K 4Z4,M1K
1030,1030,Scarborough Junction,25000,43.729729,-79.266891,725 KENNEDY RD,Toronto,M1K 2B7,M1K
1063,1063,Ionview,649900,43.734638,-79.274521,34 Richome Crt,Toronto,M1K 2Y1,M1K
1090,1090,Ionview,224900,43.73008,-79.273392,#902 - 2245 Eglinton Ave,Toronto,M1K 2N3,M1K
1101,1101,Kennedy Park,600000,43.723419,-79.258003,157 Linden Ave,Toronto,M1K 3J1,M1K
1115,1115,Toronto,699900,43.737328,-79.263283,14 Fitzgibbon Ave,Toronto,M1K 3Z8,M1K
1127,1127,Kennedy Park,579900,43.727516,-79.253731,5 Commonwealth Ave,Toronto,M1K 3M2,M1K
1293,1293,Eglinton East,599000,43.742043,-79.250938,131 CITADEL DR,Toronto,M1K 4S8,M1K
113,113,Golden Mile,359000,43.716156,-79.281998,#221 - 60 MENDELSSOHN ST,Toronto,M1L 0G9,M1L
141,141,Clairlea,1279900,43.702293,-79.291161,46 B MAYBOURNE AVE,Toronto,M1L 2V9,M1L
241,241,Clairlea,1199000,43.711281,-79.283325,113 Moreau Tr,Toronto,M1L 4T9,M1L
469,469,Clairlea - Birchmount,634900,43.716999,-79.277588,67 PIDGEON ST,Toronto,M1L 0C9,M1L
557,557,Wexford - Maryvale,849990,43.725372,-79.299263,Unit 19 4780 EGLINTON AVE,Toronto,M1L 2L1,M1L
947,947,Golden Mile,609900,43.72538,-79.299232,#1 - 2792 EGLINTON AVE E,Toronto,M1L 2L1,M1L
1195,1195,Oakridge,295800,43.694603,-79.273277,#212 - 3520 Danforth Ave,Toronto,M1L 1E6,M1L
1240,1240,Oakridge,849000,43.691143,-79.281982,19 Mansion Ave,Toronto,M1L 1A5,M1L
1243,1243,Oakridge,849000,43.691143,-79.281982,19 Mansion Ave,Toronto,M1L 1A5,M1L
559,559,Scarborough Village,199900,43.744297,-79.209541,#134 - 50 Scarborough Golf Clu Rd,Toronto,M1M 3T5,M1M
771,771,Scarborough Village,3750000,43.741859,-79.213867,3474 KINGSTON RD,Toronto,M1M 1R9,M1M
1215,1215,Cliffcrest,639000,43.723507,-79.238617,76 WILLAMERE DR,Toronto,M1M 1W8,M1M
1226,1226,Cliffcrest,306000,43.725578,-79.23761,#265 - 60 ANN O&#39;REILLY RD,Toronto,M1M 1X4,M1M
1227,1227,Cliffcrest,423000,43.725578,-79.23761,#1361 - 60 ANN O&#39;REILLY RD,Toronto,M1M 1X4,M1M
231,231,Birch Cliff,1089900,43.684292,-79.27916,14 Elmview Dr,Toronto,M1N 2W4,M1N
240,240,Birch Cliff,599900,43.704281,-79.257225,52 Malta St,Toronto,M1N 2L4,M1N
443,443,Birch Cliff,869000,43.686226,-79.269264,34 WHITE BIRCH RD,Toronto,M1N 3A6,M1N
666,666,Birch Cliff,839900,43.703812,-79.256386,146 Kennedy Rd,Toronto,M1N 3P2,M1N
140,140,Bendale,299900,43.772957,-79.261116,#Th 77 - 83 BOROUGH DR,Toronto,M1P 5E5,M1P
151,151,Bendale,268500,43.774338,-79.252594,#1807 - 61 TOWN CENTRE CRT,Toronto,M1P 5C6,M1P
166,166,Dorset Park,269000,43.75235,-79.265923,#514 - 1470 MIDLAND AVE,Toronto,M1P 4Z4,M1P
167,167,Bendale,435000,43.772877,-79.25396,#1910 - 190 BOROUGH DR,Toronto,M1P 0B5,M1P
176,176,Bendale,799000,43.761456,-79.250458,31 MELDAZY DR,Toronto,M1P 4G1,M1P
245,245,Bendale,549900,43.755604,-79.260536,92 Rushley Dr,Toronto,M1P 3S5,M1P
304,304,Dorset Park,241900,43.750229,-79.268051,#511 - 301 Prudential Dr,Toronto,M1P 4V3,M1P
310,310,Dorset Park,639900,43.756271,-79.282959,5 Vankirk Rd,Toronto,M1P 1M8,M1P
311,311,McGregor Park,625000,43.742405,-79.281387,10 Flora Dr,Toronto,M1P 1A1,M1P
358,358,Dorset Park,190000,43.749035,-79.266685,#501 - 101 Prudential Dr,Toronto,M1P 4S5,M1P
374,374,Bendale,805000,43.758404,-79.257812,37 Stephenfrank Rd,Toronto,M1P 3W2,M1P
472,472,Bendale,305990,43.771385,-79.260765,#2205 - 115 OMNI DR,Toronto,M1P 5B4,M1P
486,486,Bendale,293000,43.773403,-79.254951,#1903 - 25 TOWN CENTRE CRT,Toronto,M1P 0A9,M1P
519,519,Dorset Park,172000,43.769417,-79.28241,#406 - 2 GLAMORGAN AVE,Toronto,M1P 2M8,M1P
525,525,Dorset Park,399900,43.742672,-79.282539,#2 - 1185 Birchmount Rd,Toronto,M1P 2C1,M1P
527,527,Bendale,699900,43.761173,-79.264542,55 MUNSON CRES,Toronto,M1P 3M9,M1P
543,543,Bendale,38000,43.773312,-79.258728,#102 - 60 BRIAN HARRISON WAY,Toronto,M1P 5J5,M1P
546,546,Bendale,274900,43.773312,-79.258728,#1608 - 60 BRIAN HARRISON WAY,Toronto,M1P 5J5,M1P
551,551,Bendale,289900,43.773312,-79.258728,#3802 - 60 BRIAN HARRISON WAY,Toronto,M1P 5J5,M1P
580,580,Bendale,358000,43.773312,-79.258728,#1804 - 60 BRIAN HARRISON WAY,Toronto,M1P 5J5,M1P
582,582,Bendale,273000,43.773582,-79.258919,#605 - 50 BRIAN HARRISON WAY,Toronto,M1P 5J4,M1P
616,616,Dorset Park,599000,43.752731,-79.277641,209 Ellendale Dr,Toronto,M1P 1P5,M1P
618,618,Dorset Park,579000,43.755791,-79.28788,1465A Birchmount Rd,Toronto,M1P 2G4,M1P
629,629,Bendale,799900,43.758427,-79.259102,39 Lyon Heights Rd,Toronto,M1P 3V7,M1P
662,662,Dorset Park,599900,43.76022,-79.285583,75 Shropshire Dr,Toronto,M1P 1Y8,M1P
699,699,Bendale,273900,43.773582,-79.258919,#1910 - 50 BRIAN HARRISON WAY,Toronto,M1P 5J4,M1P
786,786,Dorset Park,239000,43.764439,-79.288757,#839 - 18 Mondeo Dr,Toronto,M1P 5C7,M1P
801,801,Bendale,263900,43.772751,-79.260788,#701 - 83 BOROUGH DR,Toronto,M1P 5E4,M1P
816,816,Dorset Park,50000,43.75869,-79.288948,1515 Birchmount Rd,Toronto,M1P 2G7,M1P
839,839,Bendale,284900,43.773403,-79.254951,#707 - 25 TOWN CENTRE CRT,Toronto,M1P 0A9,M1P
918,918,Bendale,848800,43.770111,-79.251701,36 STANWELL DR,Toronto,M1P 4H5,M1P
921,921,Bendale,288000,43.773689,-79.255424,#805 - 70 TOWN CENTRE CRT,Toronto,M1P 0B2,M1P
931,931,Dorset Park,199900,43.749035,-79.266685,#1608 - 101 PRUDENTIAL DR,Toronto,M1P 4S5,M1P
970,970,Dorset Park,599900,43.76022,-79.285583,75 SHROPSHIRE DR,Toronto,M1P 1Y8,M1P
984,984,Dorset Park,80000,43.751286,-79.265739,# 201 - 4062 LAWRENCE AVE E,Toronto,M1P 4W5,M1P
1050,1050,Dorset Park,579000,43.755791,-79.28788,1465 A BIRCHMOUNT RD,Toronto,M1P 2G4,M1P
1132,1132,Dorset Park,190000,43.749599,-79.266762,#1010 - 100 PRUDENTIAL DR,Toronto,M1P 4V4,M1P
1175,1175,Bendale,397500,43.773251,-79.255272,#3410 - 50 TOWN CENTRE CRT,Toronto,M1P 0A9,M1P
1176,1176,Dorset Park,769000,43.756241,-79.284714,141 CANLISH RD,Toronto,M1P 1T1,M1P
1211,1211,Bendale,293000,43.773251,-79.255272,#1803 - 50 TOWN CENTRE CRT,Toronto,M1P 0A9,M1P
1234,1234,Bendale,599000,43.768238,-79.258598,37 DOERR RD,Toronto,M1P 4M7,M1P
309,309,Wexford,799900,43.750195,-79.292679,5 Compton Dr,Toronto,M1R 4A5,M1R
517,517,Wexford,375000,43.733746,-79.305702,#202 - 1665 VICTORIA PARK AVE,Toronto,M1R 5E5,M1R
617,617,Wexford - Maryvale,799000,43.763725,-79.311943,1571 Pharmacy Ave,Toronto,M1R 2K6,M1R
721,721,Wexford - Maryvale,618000,43.767246,-79.306763,5 Armitage Dr,Toronto,M1R 4X9,M1R
872,872,Wexford - Maryvale,1399000,43.740005,-79.295784,66 WAYNE AVE,Toronto,M1R 1Y5,M1R
991,991,Wexford - Maryvale,799000,43.763725,-79.311943,1571 PHARMACY AVE,Toronto,M1R 2K6,M1R
1040,1040,Wexford - Maryvale,749000,43.756016,-79.295982,266 TOWER DR,Toronto,M1R 3R7,M1R
1056,1056,Wexford,699000,43.747566,-79.290649,11 ELLINGTON DR,Toronto,M1R 3X6,M1R
1130,1130,Wexford,699000,43.755329,-79.302849,3 PRINCEMERE CRES,Toronto,M1R 3J8,M1R
1178,1178,Wexford,659000,43.756546,-79.301353,15 TARDREE PL,Toronto,M1R 3X3,M1R
92,92,Agincourt,939000,43.789047,-79.284752,68 AGINCOURT DR,Toronto,M1S 1M6,M1S
155,155,White Haven,749900,43.790119,-79.244278,24 A MASSIE ST,Toronto,M1S 3Z6,M1S
178,178,White Haven,879900,43.789085,-79.251717,7 GLENSTROKE DR,Toronto,M1S 2Z8,M1S
220,220,Agincourt,168000,43.785206,-79.277573,#B6 - 4227 SHEPPARD AVE E,Toronto,M1S 5H5,M1S
334,334,Agincourt,325800,43.778103,-79.281586,#711 - 125 VILLAGE GREEN SQ,Toronto,M1S 0G5,M1S
348,348,White Haven,308000,43.789639,-79.253616,#801 - 4727 SHEPPARD AVE E,Toronto,M1S 5B3,M1S
454,454,Agincourt,235000,43.781467,-79.278893,#3 - 50 WEYBRIGHT CRT,Toronto,M1S 5A8,M1S
531,531,Agincourt,880000,43.782043,-79.285095,21 COLLINGWOOD ST,Toronto,M1S 1A4,M1S
554,554,Agincourt,229000,43.783657,-79.284416,#1103 - 4091 SHEPPARD AVE E,Toronto,M1S 3H2,M1S
575,575,Agincourt,339000,43.778614,-79.281258,#1302 - 151 VILLAGE GREEN SQ,Toronto,M1S 0K5,M1S
726,726,Agincourt,449000,43.799244,-79.282295,#11 - 90 Crockamhill Dr,Toronto,M1S 3H1,M1S
787,787,Agincourt,239700,43.779205,-79.281517,#819 - 181 Village Green Sq,Toronto,M1S 0K5,M1S
817,817,Agincourt,259000,43.807091,-79.265533,#903 - 2627 MCCOWAN RD,Toronto,M1S 5T1,M1S
873,873,Agincourt,69900,43.788841,-79.262466,4571 SHEPPARD AVE E,Toronto,M1S 1V2,M1S
874,874,Agincourt,1658000,43.784622,-79.27005,24 MURRAY AVE,Toronto,M1S 2A2,M1S
940,940,White Haven,599000,43.790421,-79.252586,36 GLENSTROKE DR,Toronto,M1S 2Z9,M1S
941,941,Agincourt,449000,43.799244,-79.282295,#11 - 90 CROCKAMHILL DR,Toronto,M1S 3H1,M1S
1049,1049,Agincourt,279000,43.781467,-79.278893,#12 - 50 WEYBRIGHT CRT,Toronto,M1S 5A8,M1S
1168,1168,Agincourt,68000,43.785206,-79.277573,#B1 - 4227 SHEPPARD AVE,Toronto,M1S 5H5,M1S
1225,1225,Agincourt,459900,43.778576,-79.281662,153 Village Green Way,Toronto,M1S 0K5,M1S
1295,1295,White Haven,814900,43.790401,-79.244568,32 A MASSIE ST,Toronto,M1S 3Z6,M1S
248,248,Tam O'Shanter,500000,43.783947,-79.298721,36 Bonis Ave,Toronto,M1T 2V1,M1T
288,288,Tam O'Shanter - Sullivan,788000,43.772118,-79.309311,20 Shrewsbury Sq,Toronto,M1T 1L2,M1T
300,300,Tam O'Shanter,749800,43.785709,-79.293724,#805 - 168 Bonis Ave,Toronto,M1T 3V6,M1T
516,516,Tam O'Shanter,458000,43.78149,-79.294304,#121 - 3765 SHEPPARD AVE E,Toronto,M1T 3R7,M1T
780,780,L'Amoreaux,1198000,43.793007,-79.300484,22 Harfleur Rd,Toronto,M1T 2X5,M1T
1082,1082,Tam O'Shanter,699900,43.776493,-79.293304,21 Earlton Rd,Toronto,M1T 2R4,M1T
1144,1144,Tam O'Shanter,459800,43.786381,-79.291534,#110 - 188 BONIS AVE,Toronto,M1T 3W3,M1T
1154,1154,L'Amoreaux,849000,43.794651,-79.302414,105 RAINIER SQ,Toronto,M1T 3A1,M1T
1264,1264,Tam O'Shanter,388000,43.786736,-79.291008,#808 - 228 BONIS AVE,Toronto,M1T 3W4,M1T
1296,1296,Tam O'Shanter - Sullivan,309000,43.776638,-79.323143,#506 - 2721 VICTORIA PARK AVE,Toronto,M1T 3N6,M1T
164,164,Milliken,299000,43.806938,-79.290916,#D12 - 63 SILVER STAR BLVD,Toronto,M1V 5E5,M1V
252,252,Agincourt,629900,43.814487,-79.269928,4 Big Red Ave,Toronto,M1V 1N7,M1V
291,291,Milliken,329000,43.822525,-79.276451,#807 - 330 Alton Towers Circ,Toronto,M1V 5H3,M1V
335,335,Milliken,329900,43.824017,-79.2771,#312 - 300 ALTON TOWERS CIRC,Toronto,M1V 4X9,M1V
446,446,Armdale,449000,43.829632,-79.254021,#17 - 501 PASSMORE AVE,Toronto,M1V 5G4,M1V
450,450,Milliken,459000,43.810703,-79.302322,#737 - 1881 MCNICOLL AVE,Toronto,M1V 5M2,M1V
485,485,Toronto,329900,43.824078,-79.273773,#104 - 80 ALTON TOWERS CIRC,Toronto,M1V 5E8,M1V
520,520,L'Amoreaux,799000,43.807236,-79.303368,25 Fort Dearborn Dr,Toronto,M1V 3A6,M1V
528,528,Agincourt,649900,43.810509,-79.286644,135 Alexmuir Blvd,Toronto,M1V 1H6,M1V
529,529,Milliken,1029900,43.819481,-79.274834,20 ALANBULL SQ,Toronto,M1V 4M5,M1V
552,552,Milliken,319000,43.822525,-79.276451,#Ph109 - 330 ALTON TOWERS CIRC,Toronto,M1V 5H3,M1V
585,585,Toronto,318000,43.826328,-79.273155,#704 - 150 ALTON TOWERS CIRC,Toronto,M1V 4X7,M1V
606,606,Milliken,317000,43.822525,-79.276451,#1206 - 330 Alton Towers Circ,Toronto,M1V 5H3,M1V
825,825,Agincourt,639000,43.806854,-79.28157,25 NEWDAWN CRES,Toronto,M1V 1J8,M1V
996,996,Milliken,699000,43.811516,-79.280769,9 DANJOHN CRES,Toronto,M1V 3N2,M1V
1010,1010,Milliken,619000,43.819019,-79.280113,37 PHALEN CRES,Toronto,M1V 1Y5,M1V
1023,1023,Port Royal,70000,43.81366,-79.29142,3833 MIDLAND AVE,Toronto,M1V 5L6,M1V
1034,1034,Toronto,729900,43.825722,-79.272591,4 HILLFARM DR,Toronto,M1V 3C6,M1V
1041,1041,Port Royal,350000,43.81366,-79.29142,#2 - 3833 MIDLAND AVE,Toronto,M1V 5L6,M1V
1053,1053,Milliken,1178000,43.824245,-79.291046,52 HIGHBRIDGE PL,Toronto,M1V 4R8,M1V
1106,1106,Milliken,699000,43.811516,-79.280769,9 Danjohn Cres,Toronto,M1V 3N2,M1V
1124,1124,Toronto,698000,43.822731,-79.266121,111 Shady Hollow Dr,Toronto,M1V 2L9,M1V
1213,1213,Toronto,729000,43.827942,-79.273911,64 SEAMIST CRES,Toronto,M1V 3K3,M1V
1263,1263,Port Royal,839000,43.817585,-79.289879,31 BECCA HALL TR,Toronto,M1V 2T7,M1V
1284,1284,Milliken,499000,43.819195,-79.295441,#110 - 3838 MIDLAND AVE,Toronto,M1V 5K5,M1V
98,98,Tam O'Shanter,533900,43.7897,-79.30526,#2 - 671 HUNTINGWOOD DR,Toronto,M1W 1H6,M1W
124,124,Steeles,479000,43.815434,-79.325745,#1133 - 25 BAMBURGH CIRC,Toronto,M1W 3W2,M1W
130,130,L'Amoreaux,749888,43.792309,-79.327568,119 CORINTHIAN BLVD,Toronto,M1W 1B7,M1W
201,201,Bridlewood,279800,43.796768,-79.315636,#122 - 5225 FINCH AVE E,Toronto,M1W,M1W
206,206,Steeles,508888,43.815434,-79.325745,#233 - 25 BAMBURGH CIRC,Toronto,M1W 3W2,M1W
260,260,Milliken,279800,43.797787,-79.313347,#1007 - 2050 Bridletowne Circ,Toronto,M1W 2V5,M1W
274,274,L'Amoreaux,688000,43.801937,-79.321388,17 Hildenboro Sq,Toronto,M1W 1Y2,M1W
332,332,Bridlewood,479999,43.793938,-79.318443,#50 - 100 BRIDLETOWNE CIRC,Toronto,M1W 3Z8,M1W
530,530,Bridlewood,1158880,43.801292,-79.328476,54 DEERBROOK TR,Toronto,M1W 1V4,M1W
577,577,Bridlewood,318000,43.798969,-79.320328,#1108 - 3131 BRIDLETOWNE CIRC,Toronto,M1W 2S9,M1W
612,612,L'Amoreaux,545000,43.810116,-79.313377,#8 - 29 Fundy Bay Blvd,Toronto,M1W 3A1,M1W
692,692,Milliken,868000,43.806877,-79.311211,50 STALEY TERR,Toronto,M1W 2E7,M1W
747,747,Bridlewood,49000,43.796768,-79.315643,5745 FINCH AVE E,Toronto,M1W,M1W
755,755,Bridlewood,658000,43.796352,-79.323875,74 HUNTINGDALE BLVD,Toronto,M1W 1T1,M1W
783,783,Bridlewood,199900,43.798306,-79.314674,#1004 - 100 Echo Point Pt,Toronto,M1W 2V2,M1W
862,862,Tam O'Shanter,499900,43.7897,-79.30526,#17 - 671 HUNTINGWOOD DR,Toronto,M1W 1H6,M1W
959,959,Milliken,588000,43.801727,-79.302101,129 SILVER SPRINGS BLVD,Toronto,M1W 3L3,M1W
961,961,L'Amoreaux,545000,43.810116,-79.313377,#8 - 29 FUNDY BAY BLVD,Toronto,M1W 3A1,M1W
1042,1042,Steeles,519900,43.814705,-79.325653,#117 - 75 BAMBURGH CIRC,Toronto,M1W 3W1,M1W
1055,1055,Steeles,275900,43.815434,-79.325745,#534 - 25 BAMBURGH CIRC,Toronto,M1W 3W2,M1W
1109,1109,Milliken,779888,43.806644,-79.311386,48 Staley Terr,Toronto,M1W 2G3,M1W
1117,1117,Bridlewood,241900,43.79488,-79.313713,#906 - 10 Stonehill Crt,Toronto,M1W 2X8,M1W
1167,1167,Steeles,388000,43.815434,-79.325745,#1135 - 25 BAMBURGH CIRC,Toronto,M1W 3W2,M1W
1214,1214,Milliken,499000,43.802181,-79.312622,#42 - 81 BROOKMILL BLVD,Toronto,M1W 2L5,M1W
207,207,Armdale,366735,43.825054,-79.246819,#40 - 30 IRONSIDE CRES,Toronto,M1X 1G4,M1X
301,301,Hillcrest Village,390000,43.802334,-79.353668,#68 - 15 Pebble Byway Way,Toronto,M2H 3J5,M2H
336,336,Hillcrest Village,390000,43.802334,-79.353668,#68 - 15 PEBBLE BYWAY WAY,Toronto,M2H 3J5,M2H
475,475,Hillcrest Village,1499000,43.803513,-79.351654,18 SHADBERRY DR,Toronto,M2H 3C8,M2H
565,565,Hillcrest Village,394800,43.802334,-79.353668,#66 - 15 PEBBLE BYWAY WAY,Toronto,M2H 3J5,M2H
1150,1150,Don Valley Village,679900,43.795135,-79.353607,401 85 Skymark Drive,Toronto,M2H 3S6,M2H
1228,1228,Hillcrest Village,383000,43.801662,-79.353928,#117 - 3740 DON MILLS RD,Toronto,M2H 3J2,M2H
1247,1247,Don Valley Village,679900,43.795135,-79.353607,401 85 Skymark Drive,Toronto,M2H 3S6,M2H
99,99,Henry Farm,309900,43.774895,-79.345955,#108 - 70 FOREST MANOR RD,Toronto,M2J 1G2,M2J
127,127,Don Valley Village,672000,43.788429,-79.355347,102 RUSTY CREST WAY,Toronto,M2J 2Y4,M2J
170,170,Henry Farm,369888,43.774895,-79.345955,#407 - 70 FOREST MANOR RD,Toronto,M2J 1G2,M2J
302,302,Henry Farm,294900,43.774746,-79.336929,#2912 - 275 Yorkland Rd,Toronto,M2J 1S3,M2J
303,303,Bayview Village,529000,43.788269,-79.368301,6 Woody Vineway Way,Toronto,M2J,M2J
344,344,Don Valley Village,398000,43.793056,-79.35228,#601 - 1555 FINCH AVE E,Toronto,M2J 4X9,M2J
482,482,Don Valley Village,319000,43.791103,-79.357162,#812 - 177 LINUS RD,Toronto,M2J 4S5,M2J
562,562,Henry Farm,359900,43.774895,-79.345955,#1705 - 70 FOREST MANOR RD,Toronto,M2J 1G2,M2J
578,578,Henry Farm,496000,43.773529,-79.347641,#21 - 102 GEORGE HENRY BLVD,Toronto,M2J 1E7,M2J
601,601,Don Valley Village,1299000,43.785778,-79.365456,53 Cobblestone Dr,Toronto,M2J 2X6,M2J
765,765,Henry Farm,339000,43.774895,-79.345955,#208 - 70 FOREST MANOR RD,Toronto,M2J 1G2,M2J
768,768,Don Valley Village,325000,43.791103,-79.357162,#406 - 177 LINUS RD,Toronto,M2J 4S5,M2J
788,788,Don Valley Village,899900,43.793076,-79.350105,683 Seneca Hill Dr,Toronto,M2J 2W7,M2J
844,844,Henry Farm,299999,43.774895,-79.345955,#319 - 70 FOREST MANOR RD,Toronto,M2J 1G2,M2J
1000,1000,Pleasant View,379900,43.792374,-79.336693,#102 - 165 CHEROKEE BLVD,Toronto,M2J 4T7,M2J
1037,1037,Henry Farm,498000,43.774895,-79.345955,#2508 - 70 FOREST MANOR RD,Toronto,M2J 1G2,M2J
1074,1074,Don Valley Village,315000,43.791817,-79.355553,#2201 - 3300 Don Mills Rd,Toronto,M2J 4X7,M2J
132,132,Bayview Village,314900,43.769611,-79.368416,#3107 - 33 SINGER CRT,Toronto,M2K 0B4,M2K
307,307,Bayview Village,320000,43.768475,-79.381607,#301 - 650 SHEPPARD AVE E,Toronto,M2K 1B7,M2K
440,440,Bayview Village,298200,43.765289,-79.382339,#1107 - 3 REAN DR,Toronto,M2K 3C2,M2K
451,451,Bayview Village,309990,43.765186,-79.38472,#409 - 17 BARBERRY PL,Toronto,M2K,M2K
495,495,Bayview Village,358800,43.766094,-79.385582,#513 - 17 KENASTON GDNS,Toronto,M2K 1G7,M2K
596,596,Bayview Village,489000,43.765575,-79.386047,#1709 - 18 Kenaston Gdns,Toronto,M2K 3C7,M2K
602,602,Bayview Village,359000,43.76498,-79.383522,#1806 - 1 Rean Dr,Toronto,M2K 3C1,M2K
614,614,Bayview Village,1888000,43.781353,-79.388954,45 Canary Cres,Toronto,M2K 1Z1,M2K
660,660,Bayview Village,55000,43.768501,-79.380798,662 SHEPPARD AVE E,Toronto,M2K 1B7,M2K
712,712,Bayview Village,1600,43.766094,-79.385582,211 - 17 KENASTON Gardens,Toronto,M2K 1G7,M2K
746,746,Bayview Village,329000,43.767746,-79.370918,#706 - 121 MCMAHON DR,Toronto,M2K 1C2,M2K
757,757,Bayview Village,329000,43.769569,-79.369514,#1207 - 19 SINGER CRT,Toronto,M2K 1C5,M2K
759,759,Bayview Village,349900,43.769569,-79.369514,#219 - 19 SINGER CRT,Toronto,M2K 1C5,M2K
762,762,Bayview Village,699900,43.769741,-79.369698,#Th05 - 25 SINGER CRT,Toronto,M2K 1C5,M2K
851,851,Bayview Village,338800,43.767746,-79.370918,#1010 - 121 MCMAHON DR,Toronto,M2K 1C2,M2K
880,880,Bayview Village,289999,43.766068,-79.382774,#1513 - 8 REAN DR,Toronto,M2K 3B9,M2K
949,949,Bayview Village,459900,43.76498,-79.383522,#1308 - 1 REAN DR,Toronto,M2K 3C1,M2K
955,955,Bayview Village,1050000,43.767426,-79.37751,49 CARACAS RD,Toronto,M2K 1A8,M2K
965,965,Bayview Village,435000,43.769611,-79.368416,#2302 - 33 SINGER CRT,Toronto,M2K 0B4,M2K
999,999,Bayview Village,1888000,43.781353,-79.388954,45 CANARY CRES,Toronto,M2K 1Z1,M2K
1022,1022,Bayview Village,368800,43.76498,-79.383522,#2012 - 1 REAN DR,Toronto,M2K 3C1,M2K
1077,1077,Bayview Village,5388000,43.774094,-79.38665,29 Citation Dr,Toronto,M2K 1S5,M2K
1203,1203,Bayview Village,349500,43.769611,-79.368416,#1501 - 33 SINGER CRT,Toronto,M2K 0B4,M2K
1207,1207,Bayview Village,309900,43.769611,-79.368416,#3107 - 33 SINGER CRT,Toronto,M2K 0B4,M2K
1280,1280,Bayview Village,367000,43.769569,-79.369514,#1218 - 19 SINGER CRT,Toronto,M2K 1C5,M2K
118,118,St. Andrew - Windfields,2388000,43.763935,-79.370956,57 HOPPERTON DR,Toronto,M2L 2S7,M2L
674,674,St. Andrew - Windfields,1995000,43.75679,-79.368561,20 Mellowood Dr,Toronto,M2L 2E3,M2L
785,785,Bridle Path,14395000,43.741295,-79.377724,35 Country Lane,Toronto,M2L 1E1,M2L
807,807,St. Andrew - Windfields,7395000,43.754295,-79.387703,12 FIFESHIRE RD,Toronto,M2L 2G4,M2L
1155,1155,St. Andrew - Windfields,4500000,43.763638,-79.379562,96 NORTHDALE RD,Toronto,M2L 2L9,M2L
91,91,Newtonbrook,348000,43.783112,-79.415199,#1209 - 5765 YONGE ST,Toronto,M2M 4H9,M2M
96,96,Newtonbrook,1690000,43.780804,-79.419121,41 HENDON AVE,Toronto,M2M 1A4,M2M
120,120,Newtonbrook,1689000,43.783783,-79.401764,202 PEMBERTON AVE,Toronto,M2M 1Y8,M2M
142,142,Newtonbrook,375800,43.783081,-79.416824,#1107 - 5740 YONGE ST,Toronto,M2M 3T6,M2M
149,149,Newtonbrook,828000,43.803524,-79.377838,77 MINTWOOD DR,Toronto,M2M 3A7,M2M
196,196,Newtonbrook,562000,43.78067,-79.418343,#2519 - 25 GREENVIEW AVE,Toronto,M2M 0A5,M2M
204,204,Newtonbrook,514900,43.78067,-79.418343,#819 - 25 GREENVIEW AVE,Toronto,M2M 0A5,M2M
269,269,Newtonbrook,1480000,43.788563,-79.426552,182 Patricia Ave,Toronto,M2M 1J5,M2M
365,365,Newtonbrook,1880000,43.793953,-79.409225,977 Lillian St,Toronto,M2M 3E8,M2M
431,431,Bayview Woods - Steeles,1750000,43.802509,-79.390968,23 TARBERT RD,Toronto,M2M 3S8,M2M
691,691,Newtonbrook,1880000,43.793953,-79.409225,977 LILLIAN ST,Toronto,M2M 3E8,M2M
703,703,Newtonbrook,1950000,43.801323,-79.403679,205 Steeles Ave,Toronto,M2M 3Y6,M2M
749,749,Newtonbrook,1500000,43.779987,-79.418968,18 GREENVIEW AVE,Toronto,M2M 1R1,M2M
840,840,Newtonbrook,199000,43.780952,-79.415672,5637 YONGE ST,Toronto,M2M 3T2,M2M
854,854,Newtonbrook,329000,43.781662,-79.414391,#802 - 7 BISHOP AVE,Toronto,M2M 4J4,M2M
871,871,Newtonbrook,299000,43.795685,-79.422287,#K-09 - 6464 YONGE ST,Toronto,M2M 3X4,M2M
929,929,Newtonbrook,399000,43.781662,-79.414391,#910 - 7 BISHOP AVE,Toronto,M2M 4J4,M2M
1018,1018,Newtonbrook,1798000,43.795513,-79.407936,148 NEWTON DR,Toronto,M2M 2N3,M2M
1048,1048,Newtonbrook,419800,43.781689,-79.413429,#308 - 8 PEMBERTON AVE,Toronto,M2M 4K8,M2M
1062,1062,Newtonbrook,1798000,43.795513,-79.407936,148 Newton Dr,Toronto,M2M 2N3,M2M
1099,1099,Newtonbrook,278000,43.783081,-79.416824,#1003 - 5740 Yonge St,Toronto,M2M 3T6,M2M
1113,1113,Newtonbrook,2498000,43.794178,-79.417198,26 Madawaska Ave,Toronto,M2M 2P9,M2M
1118,1118,Newtonbrook,259900,43.780598,-79.413246,#103 - 29 Pemberton Ave,Toronto,M2M 4L5,M2M
1164,1164,Newtonbrook,374500,43.784409,-79.416061,#907 - 5791 YONGE ST,Toronto,M2M 0A8,M2M
1181,1181,Newtonbrook,3149000,43.797127,-79.404976,30 LLOYDMINSTER CRES,Toronto,M2M 2R8,M2M
1182,1182,Newtonbrook,1788000,43.790619,-79.413734,27 TOBRUK CRES,Toronto,M2M 3B4,M2M
90,90,Willowdale,482888,43.770878,-79.411964,#1706 - 238 DORIS AVE,Toronto,M2N 6W1,M2N
108,108,Willowdale,468000,43.760101,-79.408844,#905 - 31 BALES AVE,Toronto,M2N 7L6,M2N
111,111,Willowdale,478000,43.765579,-79.41259,#2109 - 4978 YONGE ST,Toronto,M2N 7G8,M2N
135,135,Willowdale,545000,43.757408,-79.406853,#1125 - 5 EVERSON DR,Toronto,M2N 7C3,M2N
150,150,Willowdale,359000,43.775902,-79.413261,#2606 - 10 NORTHTOWN WAY,Toronto,M2N 7L4,M2N
156,156,Willowdale,455000,43.769829,-79.413467,#1707 - 5168 YONGE ST,Toronto,M2N 0G1,M2N
157,157,Willowdale,519500,43.776451,-79.414017,#1829 - 500 DORIS AVE,Toronto,M2N 0C1,M2N
185,185,Lansing,675000,43.760303,-79.411621,#2503 - 9 BOGERT AVE,Toronto,M2N 0H3,M2N
188,188,Willowdale,2150000,43.761501,-79.409882,#Ph18 - 5 SHEPPARD AVE E,Toronto,M2N 0C8,M2N
190,190,Willowdale,428800,43.775146,-79.412666,#808 - 880 GRANDVIEW WAY,Toronto,M2N 7A2,M2N
198,198,Lansing,629900,43.760303,-79.411621,#3208 - 9 BOGERT AVE,Toronto,M2N 0H3,M2N
208,208,Willowdale,559000,43.769207,-79.412132,#2510 - 33 EMPRESS AVE,Toronto,M2N 6Y7,M2N
209,209,Willowdale,475000,43.769665,-79.41378,#2301 - 5162 YONGE ST,Toronto,M2N 0E9,M2N
210,210,Willowdale,419800,43.777054,-79.41378,#709 - 28 BYNG AVE,Toronto,M2N 7H4,M2N
211,211,Willowdale,425000,43.778439,-79.416069,#310 - 5508 YONGE ST,Toronto,M2N 7L2,M2N
236,236,Willowdale,3588000,43.77668,-79.401146,12 Waring Crt,Toronto,M2N 4G6,M2N
277,277,Willowdale,1498000,43.774139,-79.427925,26 Yorkview Dr,Toronto,M2N 2S1,M2N
287,287,Willowdale,1998000,43.767403,-79.421387,119 Park Home Ave,Toronto,M2N 1W7,M2N
325,325,Willowdale,698000,43.764442,-79.408936,#603 - 65 SPRING GARDEN AVE,Toronto,M2N 6H9,M2N
337,337,Willowdale,529000,43.756294,-79.406532,#120 - 80 HARRISON GARDEN BLVD,Toronto,M2N 7E2,M2N
338,338,Willowdale,548800,43.756294,-79.406532,#1026 - 80 HARRISON GARDEN BLVD,Toronto,M2N 7E2,M2N
339,339,Willowdale,599900,43.757233,-79.404686,#1023 - 100 HARRISON GARDEN BLVD,Toronto,M2N 2T2,M2N
340,340,Willowdale,459990,43.756668,-79.407768,#Ph02 - 51 HARRISON GARDEN BLVD,Toronto,M2N 7G4,M2N
349,349,Willowdale,568000,43.760136,-79.40789,#1905 - 17 Anndale Dr,Toronto,M2N 2W7,M2N
361,361,Lansing,558888,43.762424,-79.412827,#1002 - 33 ELMHURST AVE,Toronto,M2N 6G8,M2N
428,428,Willowdale,348800,43.761196,-79.408951,#900 - 33 SHEPPARD AVE,Toronto,M2N 7K1,M2N
434,434,Willowdale,2450000,43.765537,-79.405388,130 SPRING GARDEN AVE,Toronto,M2N 3G5,M2N
449,449,Willowdale,399880,43.757996,-79.409592,#Uph03 - 1 AVONDALE AVE,Toronto,M2N 7J1,M2N
461,461,Willowdale,478000,43.765842,-79.410057,#1918 - 35 HOLLYWOOD AVE,Toronto,M2N 0A9,M2N
484,484,Willowdale,445000,43.770878,-79.411964,#209 - 238 DORIS AVE,Toronto,M2N 6W1,M2N
491,491,Willowdale,565000,43.769665,-79.41378,#812 - 5162 YONGE ST,Toronto,M2N 0E9,M2N
504,504,Willowdale,318000,43.766571,-79.392365,#809 - 1 Hycrest Ave,Toronto,M2N 5G1,M2N
507,507,Willowdale,789500,43.776798,-79.413834,21 BYNG AVE,Toronto,M2N 7H4,M2N
513,513,Willowdale,392888,43.764893,-79.410446,#503 - 18 SPRING GARDEN AVE,Toronto,M2N 7M2,M2N
514,514,Willowdale,338000,43.757355,-79.409355,#Lph05 - 18 HARRISON GARDEN BLVD,Toronto,M2N 7K6,M2N
574,574,Willowdale,399000,43.773746,-79.415512,#1808 - 68 CANTERBURY PL N,Toronto,M2N 1Y7,M2N
579,579,Willowdale,408000,43.757233,-79.404686,#326 - 100 HARRISON GARDEN BLVD,Toronto,M2N 2T2,M2N
583,583,Willowdale,540000,43.7561,-79.406914,#1012 - 78 HARRISON GARDEN BLVD,Toronto,M2N 7E2,M2N
587,587,Willowdale,629000,43.768574,-79.389618,#520 - 399 SPRING GARDEN AVE,Toronto,M2N 3H6,M2N
597,597,Willowdale,2998800,43.777824,-79.394302,118 Estelle Ave,Toronto,M2N 5H5,M2N
598,598,Willowdale,302000,43.779659,-79.414589,#1803 - 22 Olive Ave,Toronto,M2N 7G6,M2N
600,600,Willowdale,409000,43.769257,-79.411339,#909 - 35 Empress Ave,Toronto,M2N 6T3,M2N
604,604,Willowdale,399900,43.776451,-79.414017,#2630 - 500 Doris Ave,Toronto,M2N 0C1,M2N
608,608,Willowdale,299900,43.761154,-79.408836,#912 - 23 Sheppard Ave,Toronto,M2N 0C8,M2N
626,626,Willowdale,618000,43.769665,-79.41378,#3206 - 5162 Yonge St,Toronto,M2N 0E9,M2N
635,635,Willowdale,465000,43.769665,-79.41378,#1001 - 5162 Yonge St,Toronto,M2N 0E9,M2N
686,686,Willowdale,359000,43.779987,-79.412735,#201 - 35 Finch Ave,Toronto,M2N 6Z8,M2N
698,698,Willowdale,359900,43.756294,-79.406532,#1415 - 80 HARRISON GARDEN BLVD,Toronto,M2N 7E2,M2N
740,740,Lansing,9000,43.760517,-79.411743,11 BOGERT AVE,Toronto,M2N 0H3,M2N
744,744,Willowdale,317000,43.774834,-79.413307,#1016 - 15 NORTHTOWN WAY,Toronto,M2N 7A2,M2N
772,772,Willowdale,530000,43.778126,-79.425117,#B28 - 108 FINCH AVE W,Toronto,M2N 2H7,M2N
778,778,Willowdale,515000,43.776424,-79.41581,#Ph 12 - 5444 Yonge St,Toronto,M2N 6J4,M2N
789,789,Willowdale,459900,43.765537,-79.413155,#2016 - 155 Beecroft Rd,Toronto,M2N 7C5,M2N
805,805,Lansing,625000,43.760517,-79.411743,#3108 - 11 BOGERT AVE,Toronto,M2N 0H3,M2N
821,821,Willowdale,315000,43.778786,-79.417908,#109 - 509 BEECROFT RD,Toronto,M2N 7H2,M2N
853,853,Willowdale,585000,43.769665,-79.41378,#1005 - 5162 YONGE ST,Toronto,M2N 0E9,M2N
855,855,Willowdale,393800,43.763969,-79.407013,#2308 - 88 SHEPPARD AVE E,Toronto,M2N 0G9,M2N
870,870,Willowdale,1568000,43.77507,-79.390251,405 KINGSDALE AVE,Toronto,M2N 3X8,M2N
877,877,Willowdale,579000,43.763882,-79.410576,#1807 - 30 GREENFIELD AVE,Toronto,M2N 6N3,M2N
879,879,Willowdale,399888,43.760464,-79.410248,#1304 - 2 ANNDALE DR,Toronto,M2N 0G5,M2N
911,911,Willowdale,365900,43.775902,-79.413261,#2414 - 10 NORTHTOWN WAY,Toronto,M2N 7L4,M2N
925,925,Willowdale,498800,43.774658,-79.412415,#508 - 88 GRANDVIEW WAY,Toronto,M2N 6V6,M2N
958,958,Willowdale,399999,43.757408,-79.406853,#938 - 5 EVERSON DR,Toronto,M2N 7C3,M2N
974,974,Willowdale,588000,43.760464,-79.410248,#911 - 2 ANNDALE DR,Toronto,M2N 0G5,M2N
976,976,Willowdale,369900,43.756668,-79.407768,#809 - 51 HARRISON GARDEN BLVD,Toronto,M2N 7G4,M2N
979,979,Willowdale,496000,43.770878,-79.411964,#1209 - 238 DORIS AVE,Toronto,M2N 6W1,M2N
995,995,Willowdale,439000,43.765579,-79.41259,#2505 - 4978 YONGE ST,Toronto,M2N 7G8,M2N
1024,1024,Willowdale,3448000,43.778057,-79.394241,122 ESTELLE AVE,Toronto,M2N 5H5,M2N
1038,1038,Willowdale,448000,43.75882,-79.408684,#707 - 28 AVONDALE AVE,Toronto,M2N 0K2,M2N
1057,1057,Willowdale,488000,43.777355,-79.41275,#Uph 1 - 60 BYNG AVE,Toronto,M2N 7K3,M2N
1067,1067,Willowdale,3788000,43.774734,-79.405685,138 Mckee Ave,Toronto,M2N 4C5,M2N
1076,1076,Willowdale,289000,43.765453,-79.414017,#2606 - 153 Beecroft Rd,Toronto,M2N 7C5,M2N
1084,1084,Willowdale,359900,43.7626,-79.393799,#201 W - 20 Fashion Roseway Dr,Toronto,M2N 6B6,M2N
1086,1086,Willowdale,418000,43.768181,-79.390923,#411 - 21 Clairtrell Rd,Toronto,M2N 5J6,M2N
1102,1102,Willowdale,469888,43.756294,-79.406532,#1619 - 80 Harrison Garden Blvd,Toronto,M2N 7E2,M2N
1114,1114,Willowdale,499900,43.776028,-79.412056,#1718 - 18 Sommerset Way,Toronto,M2N,M2N
1123,1123,Willowdale,346000,43.776028,-79.412056,#1712 - 18 Sommerset Way,Toronto,M2N,M2N
1165,1165,Willowdale,428800,43.769981,-79.411751,#602 - 28 EMPRESS AVE,Toronto,M2N 6Z7,M2N
1193,1193,Willowdale,559000,43.757988,-79.403625,#833 - 120 HARRISON GARDEN BLVD,Toronto,M2N 0H1,M2N
1201,1201,Willowdale,325000,43.767403,-79.410599,#601 - 188 DORIS AVE,Toronto,M2N 3T5,M2N
1209,1209,Willowdale,839000,43.776329,-79.412376,#1207 - 28 SOMMERSET WAY,Toronto,M2N 6X5,M2N
1246,1246,Willowdale,285000,43.779793,-79.413956,#1806 - 26 OLIVE AVE,Toronto,M2N 7G7,M2N
1265,1265,Willowdale,398800,43.765598,-79.410942,#2203 - 23 HOLLYWOOD AVE,Toronto,M2N 7L8,M2N
1290,1290,Willowdale,384900,43.757996,-79.409592,#906 - 1 AVONDALE AVE,Toronto,M2N 7J1,M2N
1297,1297,Willowdale,296000,43.773094,-79.415596,#1803 - 30 CANTERBURY PL,Toronto,M2N 1X8,M2N
511,511,York Mills,443888,43.749531,-79.407188,#919 - 18 William Carson  Crescent,Toronto,M2P 2A9,M2P
628,628,St. Andrew - Windfields,4499900,43.749847,-79.386124,216 Owen Blvd,Toronto,M2P 1G7,M2P
128,128,Newtonbrook,395000,43.792667,-79.443939,#310 - 777 STEELES AVE W,Toronto,M2R 3Y4,M2R
429,429,Newtonbrook,529000,43.780006,-79.450439,15 COACH LITEWAY WAY,Toronto,M2R 3J8,M2R
439,439,Willowdale,999000,43.775955,-79.433769,216 B FINCH AVE,Toronto,M2R 1M5,M2R
849,849,Newtonbrook,468888,43.784462,-79.445152,23 CANDY COURT WAY,Toronto,M2R 2Y7,M2R
863,863,Newtonbrook,392990,43.780464,-79.447006,#2706 - 80 ANTIBES DR,Toronto,M2R 3N1,M2R
1052,1052,Willowdale,2390000,43.765755,-79.433098,278 BETTY ANN DR N,Toronto,M2R 1A8,M2R
1073,1073,Newtonbrook,458800,43.77272,-79.452095,#807 - 10 Torresdale Ave,Toronto,M2R 3V8,M2R
1151,1151,Newtonbrook,699000,43.790558,-79.442062,108 ELISE TERR,Toronto,M2R 2X1,M2R
1205,1205,Willowdale,1100000,43.769489,-79.432037,53 COBDEN ST,Toronto,M2R 1S4,M2R
1217,1217,Willowdale,1388000,43.776905,-79.436813,11 MELTON GROVE ST,Toronto,M2R 2G8,M2R
1288,1288,Thornhill,109900,43.792583,-79.444809,787 STEELS AVE W,Toronto,M2R 3W9,M2R
323,323,Parkwoods - Donalda,248800,43.752785,-79.332695,#614 - 18 VALLEY WOODS RD,Toronto,M3A 0A1,M3A
661,661,Parkwoods - Donalda,275000,43.762363,-79.320976,#1002 - 1338 York Mills Rd,Toronto,M3A 3M3,M3A
710,710,Parkwoods - Donalda,338000,43.752785,-79.332695,#513 - 18 VALLEY WOODS RD,Toronto,M3A 0A1,M3A
138,138,Don Mills,675000,43.748825,-79.347603,#31 - 1396 DON MILLS RD,Toronto,M3B 3N1,M3B
177,177,Don Mills,499900,43.739239,-79.344574,#113 - 1200 DON MILLS RD,Toronto,M3B 3N9,M3B
272,272,Windfields,3388000,43.737522,-79.358696,16 Larkfield Dr,Toronto,M3B 2H1,M3B
347,347,Toronto,589900,43.761299,-79.351776,#502 -50- 255 DUNCAN MILLS RD,Toronto,M3B 3H9,M3B
354,354,Windfields,3488000,43.749664,-79.373573,28 COSMIC DR,Toronto,M3B 3G2,M3B
810,810,Windfields,9998880,43.745796,-79.377312,37 MISTY CRES,Toronto,M3B 1T2,M3B
867,867,Don Mills,488000,43.739239,-79.344574,#412 - 1200 DON MILLS RD,Toronto,M3B 3N9,M3B
1172,1172,Windfields,3998000,43.73727,-79.361427,1 TANVALLEY CRT,Toronto,M3B 1C5,M3B
268,268,Flemingdon Park,299000,43.711529,-79.322899,#1506 - 60 Pavane Link Way,Toronto,M3C 1A1,M3C
293,293,Don Mills,868880,43.730297,-79.336617,35 B Green Belt Dr,Toronto,M3C 1L8,M3C
343,343,Flemingdon Park,248500,43.711658,-79.324539,#909 - 5 VICORA LINKWAY WAY,Toronto,M3C 1A2,M3C
345,345,Flemingdon Park,314900,43.711529,-79.322899,#1110 - 60 PAVANE LINK WAY,Toronto,M3C 1A1,M3C
555,555,Wynford-Concorde,798050,43.723839,-79.337303,#503 -50- 18 WYNFORD DR,Toronto,M3C 3S2,M3C
818,818,Flemingdon Park,299000,43.711529,-79.322899,#1506 - 60 Pavane Link Way,Toronto,M3C 1A1,M3C
843,843,Don Mills,359000,43.732933,-79.346291,#510 - 85 THE DONWAY W,Toronto,M3C,M3C
956,956,Wynford-Concorde,580500,43.723839,-79.337303,#619 -62- 18 WYNFORD DR,Toronto,M3C 3S2,M3C
1072,1072,Flemingdon Park,214000,43.710075,-79.331192,#2001 - 10 Sunny Glenway Dr,Toronto,M3C 2Z3,M3C
179,179,Wilson Heights,999000,43.754162,-79.440613,30 ALEXIS BLVD,Toronto,M3H 2P4,M3H
234,234,Bathurst Manor,999000,43.760948,-79.444893,3 Acton Ave,Toronto,M3H 4G6,M3H
298,298,Wilson Heights,529900,43.734478,-79.446472,#824 - 525 Wilson Ave,Toronto,M3H 1V1,M3H
438,438,Wilson Heights,284000,43.749321,-79.437149,#513 - 4200 BATHURST ST,Toronto,M3H 6C7,M3H
455,455,Bathurst Manor,1098888,43.765511,-79.458313,297 MAXWELL ST,Toronto,M3H 4V8,M3H
499,499,Wilson Heights,529900,43.734478,-79.446472,#824 - 525 WILSON AVE,Toronto,M3H 1V1,M3H
584,584,Bathurst Manor,409900,43.75106,-79.460693,#911 - 1030 SHEPPARD AVE W,Toronto,M3H 6C1,M3H
695,695,Wilson Heights,549900,43.734035,-79.447968,#E109 - 555 WILSON AVE W,Toronto,M3H 0C6,M3H
696,696,Wilson Heights,549900,43.734035,-79.447968,#E109 - 555 WILSON AVE W,Toronto,M3H 0C6,M3H
760,760,Wilson Heights,1788000,43.748413,-79.456345,264 REINER RD,Toronto,M3H 2M4,M3H
937,937,Bathurst Manor,999999,43.754963,-79.45652,248 CODSELL AVE,Toronto,M3H 3X1,M3H
972,972,Toronto,149900,43.747116,-79.436508,4134 BATHURST ST,Toronto,M3H 3P4,M3H
1089,1089,Bathurst Manor,315000,43.755169,-79.441742,#502 - 650 Sheppard Ave,Toronto,M3H 2S5,M3H
1157,1157,Bathurst Manor,1340000,43.762512,-79.462944,65 BARKSDALE AVE,Toronto,M3H 5P1,M3H
117,117,Jane and Finch,255000,43.764374,-79.49456,#412 - 19 FOUR WINDS DR,Toronto,M3J 2S9,M3J
184,184,Downsview,519900,43.750595,-79.464058,#911 - 1060 SHEPPARD AVE W,Toronto,M3J 0G7,M3J
276,276,York University Heights,239000,43.762249,-79.500114,#709 - 455 Sentinel Rd,Toronto,M3J 2T6,M3J
593,593,York University Heights,335000,43.750637,-79.465103,#610 - 1070 SHEPPARD AVE W,Toronto,M3J 0G7,M3J
690,690,York University Heights,946000,43.749916,-79.503555,12 FULWELL CRES,Toronto,M3J 1Y3,M3J
724,724,York University Heights,469900,43.766647,-79.502373,#4 - 375 Cook Rd,Toronto,M3J 3T6,M3J
1033,1033,York University Heights,319900,43.762249,-79.500114,#404 - 455 SENTINEL RD,Toronto,M3J 2T6,M3J
1043,1043,York University Heights,550000,43.755066,-79.483932,#10 - 100 ST REGIS CRES S,Toronto,M3J 1Y8,M3J
1149,1149,Toronto,318000,43.75103,-79.465858,#Lph07 - 55 DE BOERS DR,Toronto,M3J 0G5,M3J
1245,1245,Jane and Finch,335000,43.764374,-79.49456,#608 - 19 FOUR WINDS DR,Toronto,M3J 2S9,M3J
254,254,Downsview,758800,43.731644,-79.462372,700 Wilson Ave,Toronto,M3K 1E1,M3K
688,688,Wilson Heights,60000,43.731609,-79.458794,3616 DUFFERIN ST,Toronto,M3K 1N7,M3K
689,689,Downsview,834900,43.733833,-79.461113,23 KATHERINE RD,Toronto,M3K 1J2,M3K
89,89,Downsview,159907,43.737915,-79.51136,#506 - 2645 JANE ST,Toronto,M3L 1R9,M3L
147,147,Jane and Finch,629000,43.744606,-79.503181,52 WATNEY CRES,Toronto,M3L 2E1,M3L
355,355,Downsview,499900,43.726799,-79.522179,82 JOSEPH GRIFFITH LANE,Toronto,M3L 0E1,M3L
671,671,Downsview,512900,43.726418,-79.523224,133 Torbarrie Rd,Toronto,M3L 1G8,M3L
799,799,Downsview,169000,43.737915,-79.51136,#141 - 2645 JANE ST,Toronto,M3L 1R9,M3L
802,802,Downsview,534900,43.727352,-79.511032,67 NEAMES CRES,Toronto,M3L 1K8,M3L
920,920,Downsview,560000,43.726364,-79.512314,19 NEAMES CRES,Toronto,M3L 1K8,M3L
1291,1291,Jane and Finch,129900,43.74036,-79.512222,2721 JANE ST,Toronto,M3L 1S3,M3L
173,173,Downsview,399000,43.726418,-79.479942,#615 - 15 JAMES FINLAY WAY,Toronto,M3M 0B3,M3M
221,221,Downsview,379999,43.727539,-79.482857,#110 - 2772 KEELE ST,Toronto,M3M 0A3,M3M
442,442,Downsview,235000,43.722858,-79.498878,1375 WILSON AVE,Toronto,M3M 1H8,M3M
483,483,Downsview,199900,43.72578,-79.480759,602 2737 Keele Street,Toronto,M3M 2E9,M3M
815,815,Downsview,162500,43.72578,-79.480759,#413 - 2737 KEELE ST,Toronto,M3M 2E9,M3M
837,837,Downsview,219000,43.72578,-79.480759,#610 - 2737 KEELE ST,Toronto,M3M 2E9,M3M
842,842,Jane and Finch,1158000,43.744011,-79.491524,#4819 - 5 SHEPPARD AVE,Toronto,M3M 3J8,M3M
1078,1078,Downsview,729900,43.731739,-79.491005,115 Calvington Dr,Toronto,M3M 2M3,M3M
447,447,Jane and Finch,609000,43.754471,-79.522911,37 BLANEY CRES,Toronto,M3N 1L3,M3N
683,683,Jane and Finch,668800,43.751919,-79.522057,238 Firgrove Cres,Toronto,M3N 1K8,M3N
860,860,Jane and Finch,49900,43.75193,-79.516251,#2 - 2857 JANE ST,Toronto,M3N 2W9,M3N
861,861,Jane and Finch,509000,43.743279,-79.521927,130 LAURA RD,Toronto,M3N 2A1,M3N
1019,1019,Black Creek,599000,43.760731,-79.525566,76 WHEATSHEAF CRES,Toronto,M3N 1P6,M3N
1148,1148,Jane and Finch,599000,43.742985,-79.523102,23 SNOWOOD CRT,Toronto,M3N 1E7,M3N
564,564,Parkwoods - Donalda,79000,43.742146,-79.314606,#2 - 1448 LAWRENCE AVE E,Toronto,M4A 2S8,M4A
588,588,Toronto,449900,43.723991,-79.30246,#256 - 1496 VICTORIA PARK AVE,Toronto,M4A 2M6,M4A
701,701,Parkwoods - Donalda,179900,43.742146,-79.314606,#10 - 1448 LAWRENCE AVE E,Toronto,M4A 2S8,M4A
187,187,Woodbine Gardens,219000,43.698101,-79.299431,#406 - 4 PARK VISTA DR,Toronto,M4B 3M8,M4B
299,299,O'Connor - Parkview,599000,43.708248,-79.302658,20 Warvet Cres,Toronto,M4B 1P3,M4B
547,547,Clairlea - Birchmount,730000,43.709938,-79.296143,1163 VICTORIA PARK AVE N,Toronto,M4B 2K5,M4B
1210,1210,Woodbine Gardens,639900,43.700798,-79.297798,79 CHAPMAN AVE,Toronto,M4B 1C6,M4B
58,58,East Danforth,459900,43.685455,-79.313133,#907 - 2055 DANFORTH AVE,Toronto,M4C 1J8,M4C
94,94,Old East York,719000,43.689983,-79.307259,19 GATWICK AVE,Toronto,M4C 1W2,M4C
100,100,Woodbine - Lumsden,1150000,43.691368,-79.311615,117 KING EDWARD AVE,Toronto,M4C 5J7,M4C
102,102,Old East York,265000,43.696163,-79.292953,#2511 - 5 MASSEY SQ,Toronto,M4C 5M9,M4C
115,115,Old East York,649900,43.693779,-79.322388,75 HOLBORNE AVE,Toronto,M4C 2R2,M4C
136,136,Old East York,164900,43.696163,-79.292953,#1406 - 5 MASSEY SQ,Toronto,M4C 5M9,M4C
175,175,Old East York,184000,43.69614,-79.294983,#3012 - 1 MASSEY SQ,Toronto,M4C 5L5,M4C
294,294,Old East York,539900,43.695007,-79.299088,28 Goodwood Park Cres,Toronto,M4C 2G5,M4C
426,426,East Danforth,569900,43.681171,-79.317039,6 ROSEHEATH AVE,Toronto,M4C 3P2,M4C
453,453,Old East York,239900,43.696827,-79.293411,#504 - 3 MASSEY SQ,Toronto,M4C 5L5,M4C
630,630,The Danforth,649000,43.684208,-79.307358,123 Oakcrest Ave,Toronto,M4C 1B8,M4C
657,657,Danforth Village,595000,43.691051,-79.291878,16 ELDON AVE,Toronto,M4C 5G1,M4C
718,718,Old East York,159000,43.69614,-79.294983,#219 - 1 Massey Sq,Toronto,M4C 5L5,M4C
767,767,Old East York,235000,43.69614,-79.294983,#1604 - 1 MASSEY SQ,Toronto,M4C 5L5,M4C
770,770,Old East York,299150,43.696674,-79.329353,1026 COXWELL AVE,Toronto,M4C 3G5,M4C
782,782,Old East York,415000,43.692848,-79.292099,77 Dentonia Park Ave,Toronto,M4C 1X1,M4C
803,803,Woodbine Heights,1350000,43.694092,-79.320419,105 HOLBORNE AVE,Toronto,M4C 2R3,M4C
889,889,The Danforth,649000,43.684208,-79.307358,123 OAKCREST AVE,Toronto,M4C 1B8,M4C
892,892,Woodbine - Lumsden,170000,43.687359,-79.306374,2360 DANFORTH AVE,Toronto,M4C 1K7,M4C
917,917,Old East York,849000,43.693871,-79.303078,160 BARRINGTON AVE,Toronto,M4C 4Z2,M4C
939,939,Woodbine Heights,899000,43.685608,-79.313934,2048 DANFORTH AVE,Toronto,M4C 1J6,M4C
945,945,Danforth Village,479900,43.690968,-79.292603,5 WEYMOUTH AVE,Toronto,M4C 1R6,M4C
1009,1009,East Danforth,699900,43.682163,-79.322914,659 COXWELL AVE,Toronto,M4C 5S3,M4C
1126,1126,Woodbine - Lumsden,748800,43.689453,-79.31115,62 King Edward Ave,Toronto,M4C 5J6,M4C
1139,1139,Old East York,699000,43.692997,-79.291451,95 DENTONIA PARK AVE E,Toronto,M4C 1X1,M4C
1177,1177,Old East York,169900,43.696163,-79.292953,#707 - 5 MASSEY SQ,Toronto,M4C 5M9,M4C
13,13,Upper Beaches,700000,43.680573,-79.291595,2 HANNAFORD ST,Toronto,M4E 3G7,M4E
35,35,The Beach,1548000,43.678608,-79.288513,281 WILLOW AVE,Toronto,M4E 3K6,M4E
82,82,The Beach,1200000,43.672386,-79.291595,35 DUART PARK RD,Toronto,M4E 1J3,M4E
390,390,Upper Beaches,549900,43.685768,-79.291336,2373 GERRARD ST E,Toronto,M4E 2E7,M4E
423,423,The Beach,350000,43.670822,-79.297592,2052 QUEEN ST E,Toronto,M4E 1C9,M4E
656,656,Upper Beaches,598800,43.684193,-79.285645,496 Victoria Park Ave,Toronto,M4E 3T4,M4E
922,922,The Beach,1984095,43.674515,-79.281937,95 NEVILLE PARK BLVD,Toronto,M4E 3P7,M4E
1064,1064,The Beach,1989000,43.675526,-79.300285,264 Lee Ave,Toronto,M4E 2P5,M4E
1104,1104,Upper Beaches,699000,43.685303,-79.301056,52 Norwood Terr,Toronto,M4E 2H1,M4E
1267,1267,Beach Hill,999000,43.681137,-79.310356,1956 GERRARD ST E,Toronto,M4E 2B1,M4E
478,478,Leaside,1299900,43.711868,-79.3722,673 EGLINTON AVE E,Toronto,M4G 2K3,M4G
835,835,Leaside,2399000,43.709038,-79.364014,205 RANDOLPH RD,Toronto,M4G 3S6,M4G
858,858,Leaside,1847000,43.718571,-79.375565,#Th 17 - 21 BURKEBROOK PL,Toronto,M4G 4K8,M4G
605,605,Thorncliffe Park,190000,43.705597,-79.345993,#119 - 45 Overlea Blvd,Toronto,M4H 1C3,M4H
286,286,Pape Village,699000,43.68848,-79.347557,187 Gowan Ave,Toronto,M4J 2K7,M4J
1212,1212,Old East York,499000,43.687382,-79.339363,108 MARLOW AVE,Toronto,M4J 3V1,M4J
16,16,Riverdale,1650000,43.671024,-79.347015,616 LOGAN AVE,Toronto,M4K 1C8,M4K
289,289,Old East York,850000,43.691109,-79.35553,1254 Broadview Ave,Toronto,M4K 2T4,M4K
353,353,Playter Estates,849000,43.678246,-79.359482,83 Cambridge Ave,Toronto,M4K 2L2,M4K
888,888,Riverdale,799000,43.676186,-79.343529,613 PAPE AVE,Toronto,M4K 3R9,M4K
895,895,Riverdale,549900,43.677757,-79.351578,402 DANFORTH AVE,Toronto,M4K 1P3,M4K
907,907,Riverdale,1285000,43.669533,-79.349068,89 RIVERDALE AVE,Toronto,M4K 1C2,M4K
971,971,Riverdale,849900,43.6828,-79.347855,217 BROWNING AVE,Toronto,M4K 1X1,M4K
1092,1092,Broadview North,949000,43.684555,-79.35183,1082 Logan Ave,Toronto,M4K 3G4,M4K
1218,1218,Riverdale,1650000,43.671024,-79.347015,616 LOGAN AVE,Toronto,M4K 1C8,M4K
28,28,Beach Hill,699000,43.674515,-79.319717,317 COXWELL AVE,Toronto,M4L 3B5,M4L
64,64,Leslieville,765000,43.666988,-79.327621,110 HILTZ AVE,Toronto,M4L 2N5,M4L
357,357,Leslieville,779900,43.669174,-79.317986,#Th7 - 96-104 Coxwell Ave,Toronto,M4L 3B2,M4L
359,359,Leslieville,1588888,43.664227,-79.326431,1348 QUEEN ST E,Toronto,M4L 1C5,M4L
385,385,The Beach,1099500,43.669735,-79.302055,#207 - 1960 QUEEN ST E,Toronto,M4L 1H8,M4L
653,653,The Beach Triangle,699900,43.672482,-79.309364,193 KINGSTON RD,Toronto,M4L 1T4,M4L
668,668,Leslieville,649000,43.673748,-79.327194,70 Glenside Ave,Toronto,M4L 2T5,M4L
676,676,The Beach,625000,43.674232,-79.307144,#105 - 60 Haslett Ave,Toronto,M4L 3R2,M4L
792,792,Leslieville,999000,43.674004,-79.32235,337 ASHDALE AVE,Toronto,M4L 2Z1,M4L
883,883,The Beach,849000,43.670216,-79.306679,109 DIXON AVE,Toronto,M4L 1N8,M4L
902,902,Leslieville,499000,43.66893,-79.319023,116 RHODES AVE,Toronto,M4L 3A1,M4L
1080,1080,The Beach,634900,43.668041,-79.308586,#313 - 1797 Queen St,Toronto,M4L 3Y3,M4L
1137,1137,Leslieville,1399000,43.672878,-79.320213,1602 ** GERRARD ST,Toronto,M4L 2A5,M4L
1141,1141,Leslieville,699900,43.673805,-79.329041,351 GREENWOOD AVE,Toronto,M4L 2R6,M4L
1190,1190,Leslieville,5995000,43.662285,-79.327087,858 EASTERN AVE,Toronto,M4L 1A1,M4L
36,36,Riverdale,379900,43.657913,-79.350067,#611 - 90 BROADVIEW AVE,Toronto,M4M 3H3,M4M
37,37,Leslieville,849000,43.670635,-79.336945,135 GALT AVE,Toronto,M4M 2Z4,M4M
40,40,Leslieville,1098000,43.66621,-79.333565,1447 DUNDAS ST E,Toronto,M4M 1S7,M4M
400,400,Riverside,1250000,43.66016,-79.351418,9 KINTYRE AVE,Toronto,M4M 1M2,M4M
678,678,Leslieville,747400,43.667385,-79.334412,#6 - 175 Jones Ave,Toronto,M4M 3A2,M4M
795,795,Riverside,1250000,43.66016,-79.351418,9 A KINTYRE AVE,Toronto,M4M 1M2,M4M
1007,1007,Riverdale,779000,43.665936,-79.350891,630 GERRARD ST E,Toronto,M4M 1Y3,M4M
1120,1120,Leslieville,1420000,43.667385,-79.334412,#14 - 175 Jones Ave,Toronto,M4M 3A2,M4M
1199,1199,Leslieville,299990,43.665165,-79.341537,#221 - 1190 DUNDAS ST E,Toronto,M4M 2T1,M4M
57,57,Midtown Toronto,1249000,43.72776,-79.389961,236 LAWRENCE AVE E,Toronto,M4N 1T2,M4N
84,84,Midtown Toronto,999990,43.723293,-79.380356,#11 - 50 HARGRAVE LANE,Toronto,M4N 0A4,M4N
87,87,Midtown Toronto,1299000,43.722866,-79.380157,#15 - 40 HARGRAVE LANE,Toronto,M4N 0A4,M4N
900,900,North Toronto,2088000,43.729858,-79.402557,12 ROSLIN AVE,Toronto,M4N 1Y9,M4N
1012,1012,Toronto,2980000,43.727787,-79.381371,#Ph 9 A - 1 CHEDINGTON PL,Toronto,M4N 3R5,M4N
30,30,Midtown Toronto,60000,43.711712,-79.399101,2481 A YONGE ST,Toronto,M4P 2H6,M4P
315,315,Midtown Toronto,339999,43.709068,-79.393547,#203 - 170 ROEHAMPTON AVE,Toronto,M4P 1P9,M4P
373,373,Midtown Toronto,799900,43.707485,-79.39328,#1111 - 123 Eglinton Ave,Toronto,M4P 1J2,M4P
634,634,Midtown Toronto,399000,43.708298,-79.39209,#Ph202 - 212 Eglinton Ave,Toronto,M4P 0A3,M4P
642,642,Sherwood Park,489900,43.709553,-79.39827,#205 - 7 Broadway Ave,Toronto,M4P 1T7,M4P
705,705,Midtown Toronto,635000,43.708324,-79.392746,#605 - 188 EGLINTON AVE E,Toronto,M4P 2X7,M4P
1183,1183,Sherwood Park,444500,43.710804,-79.394417,#1104 - 88 BROADWAY AVE,Toronto,M4P 0A5,M4P
316,316,Midtown Toronto,449000,43.699955,-79.387505,#207 - 245 DAVISVILLE AVE,Toronto,M4S 3H4,M4S
408,408,Midtown Toronto,424900,43.706425,-79.39222,#1002 - 83 REDPATH AVE,Toronto,M4S 2J7,M4S
413,413,Davisville,968000,43.705597,-79.397453,#5105 - 2191 YONGE ST,Toronto,M4S 3H8,M4S
794,794,Davisville,399000,43.705597,-79.397453,#3612 - 2191 YONGE ST,Toronto,M4S 3H8,M4S
1158,1158,Midtown Toronto,619800,43.701252,-79.395897,#710 - 23 GLEBE RD,Toronto,M4S 1N7,M4S
1259,1259,Midtown Toronto,450880,43.696835,-79.393997,#1102 - 68 MERTON ST,Toronto,M4S 0A7,M4S
637,637,Midtown Toronto,449000,43.696033,-79.395668,#2507 - 1815 Yonge St,Toronto,M4T 2A4,M4T
650,650,Midtown Toronto,498000,43.687923,-79.38916,#902 - 20 AVOCA AVE,Toronto,M4T 2B8,M4T
1013,1013,Midtown Toronto,510000,43.682873,-79.391518,#503 - 1177 YONGE ST,Toronto,M4T 3A8,M4T
83,83,Midtown Toronto,491900,43.677021,-79.406387,#502 - 377 MADISON AVE,Toronto,M4V 3E1,M4V
205,205,Midtown Toronto,2275990,43.685131,-79.410217,#1 - 288 ST CLAIR AVE W,Toronto,M4V 1S3,M4V
264,264,Midtown Toronto,1080000,43.676369,-79.405739,#Ph614 - 380 Macpherson Ave,Toronto,M4V 3E4,M4V
611,611,Midtown Toronto,319000,43.689022,-79.402077,#804 - 581 Avenue Rd,Toronto,M4V 2K4,M4V
677,677,Midtown Toronto,409900,43.685623,-79.409592,#715 - 6 Parkwood Ave,Toronto,M4V 2W9,M4V
827,827,Midtown Toronto,2175000,43.685131,-79.410416,1 292 St. Clair Avenue,Toronto,M4V 1S3,M4V
899,899,Midtown Toronto,549900,43.686676,-79.399445,#922 - 111 ST CLAIR AVE W,Toronto,M4V 1N5,M4V
936,936,Midtown Toronto,629000,43.689011,-79.400002,#2 - 105 HEATH ST W,Toronto,M4V 1T5,M4V
79,79,Midtown Toronto,3288000,43.677563,-79.380089,27 SCARTH RD,Toronto,M4W 2S5,M4W
492,492,Midtown Toronto,485800,43.672985,-79.387032,808 825 Church Street,Toronto,M4W 3Z4,M4W
733,733,Midtown Toronto,499000,43.675289,-79.389023,#901 - 980 YONGE ST,Toronto,M4W 2H2,M4W
893,893,Midtown Toronto,899900,43.672985,-79.387032,#1707 - 825 CHURCH ST,Toronto,M4W 3Z4,M4W
73,73,Downtown,497000,43.667915,-79.375679,#703 - 500 SHERBOURNE ST,Toronto,M4X 1L1,M4X
284,284,Downtown,385000,43.667915,-79.375679,#2504 - 500 Sherbourne St,Toronto,M4X 1L1,M4X
732,732,Downtown,375000,43.667915,-79.375679,#702 - 500 SHERBOURNE ST,Toronto,M4X 1L1,M4X
864,864,Downtown,347900,43.666142,-79.370033,#502 - 15 LA ROSE AVE,Toronto,M4X 1N6,M4X
1170,1170,Downtown,576000,43.666821,-79.37336,#107 - 171 BLEECKER ST,Toronto,M4X 1L9,M4X
1197,1197,Downtown,398000,43.667915,-79.375679,#1111 - 500 SHERBOURNE ST,Toronto,M4X 1L1,M4X
26,26,Downtown,498000,43.665749,-79.385513,#1109 - 5 ST JOSEPH ST,Toronto,M4Y 0B6,M4Y
44,44,Downtown,375000,43.663963,-79.383064,#1511 - 25 MAITLAND ST,Toronto,M4Y 2W1,M4Y
59,59,Downtown,468800,43.669151,-79.387375,#1402 - 21 BALMUTO ST,Toronto,M4Y 1W4,M4Y
66,66,Downtown,399000,43.664845,-79.385933,#304 - 24 WELLESLEY ST,Toronto,M4Y 2X6,M4Y
71,71,Downtown,798880,43.669643,-79.380608,#4804 - 101 CHARLES ST E,Toronto,M4Y 0A9,M4Y
75,75,Downtown,315000,43.664265,-79.37545,#501 - 40 HOMEWOOD AVE,Toronto,M4Y 2K2,M4Y
77,77,Downtown,389000,43.669609,-79.384773,#1002 - 35 HAYDEN ST,Toronto,M4Y 3C3,M4Y
218,218,Downtown,422000,43.668777,-79.383995,#4505 - 45 CHARLES ST E,Toronto,M4Y 1S2,M4Y
261,261,Downtown,714900,43.661793,-79.384506,#3304 - 21 Grenville St,Toronto,M4Y 0B9,M4Y
306,306,Downtown,559800,43.669643,-79.380608,#2702 - 101 Charles St,Toronto,M4Y 0A9,M4Y
377,377,Downtown,410000,43.66592,-79.386963,#2204 - 44 ST JOSEPH ST,Toronto,M4Y 1K1,M4Y
417,417,Downtown,475000,43.667709,-79.386383,# 2407 - 75 ST NICHOLAS ST,Toronto,M4Y 0A5,M4Y
425,425,Downtown,729000,43.669609,-79.384773,#518 - 35 HAYDEN ST,Toronto,M4Y 3C3,M4Y
489,489,Downtown,412900,43.668777,-79.383995,#3705 - 45 CHARLES ST E,Toronto,M4Y 1S2,M4Y
496,496,Downtown,422000,43.668777,-79.383995,#3108 - 45 CHARLES ST E,Toronto,M4Y 1S2,M4Y
658,658,Downtown,588000,43.665749,-79.385513,#605 - 5 ST JOSEPH ST,Toronto,M4Y 0B6,M4Y
679,679,Downtown,357000,43.666752,-79.376236,#3706 - 120 HOMEWOOD AVE,Toronto,M4Y 2J3,M4Y
717,717,Downtown,734800,43.669643,-79.380608,#2801 - 101 Charles St,Toronto,M4Y 0A9,M4Y
720,720,Downtown,774800,43.669643,-79.380608,#4404 - 101 Charles St,Toronto,M4Y 0A9,M4Y
826,826,Downtown,569000,43.666752,-79.376236,#3007 - 120 HOMEWOOD AVE,Toronto,M4Y 2J3,M4Y
901,901,Downtown,699900,43.665749,-79.385513,#1907 - 5 ST JOSEPH ST,Toronto,M4Y 0B6,M4Y
903,903,Downtown,465000,43.667709,-79.386383,#311 - 75 ST NICHOLAS ST,Toronto,M4Y 0A5,M4Y
942,942,Downtown,619000,43.661793,-79.384506,#4909 - 21 GRENVILLE ST,Toronto,M4Y 0B9,M4Y
1003,1003,Downtown,415000,43.670547,-79.380585,#807 - 28 TED ROGERS WAY,Toronto,M4Y 2J4,M4Y
1005,1005,Downtown,725000,43.662407,-79.385941,#3306 - 37 GROSVENOR ST,Toronto,M4Y 3G5,M4Y
1036,1036,Church and Wellesley,749500,43.668777,-79.383995,#4201 - 45 CHARLES ST E,Toronto,M4Y 1S2,M4Y
1066,1066,Downtown,849000,43.666695,-79.387115,42 IRWIN AVE,Toronto,M4Y 1L2,M4Y
1136,1136,Downtown,378000,43.669609,-79.384773,#1607 - 35 HAYDEN ST,Toronto,M4Y 3C3,M4Y
1266,1266,Downtown,625000,43.669151,-79.387375,#1601 - 21 BALMUTO ST,Toronto,M4Y 1W4,M4Y
1286,1286,Downtown,449000,43.669594,-79.380577,#2905 - 101 CHARLES ST E,Toronto,M4Y 0A9,M4Y
3,3,Old Town,254900,43.653126,-79.369339,#807 - 311 RICHMOND ST E,Toronto,M5A 1P2,M5A
5,5,Downtown,999999,43.654991,-79.363922,161 PARLIAMENT ST,Toronto,M5A 2Z2,M5A
6,6,Downtown,329900,43.660149,-79.360886,#1304 - 170 SUMACH ST,Toronto,M5A 2B9,M5A
11,11,Downtown,3749000,43.659191,-79.36776,396 -400 DUNDAS ST,Toronto,M5A 2A5,M5A
42,42,Downtown,485000,43.644783,-79.362793,#403 - 15 MERCHANTS WHARF,Toronto,M5A 1B6,M5A
50,50,Downtown,339900,43.660149,-79.360886,#304 - 170 SUMACH ST E,Toronto,M5A 2B9,M5A
53,53,Downtown,389000,43.655956,-79.37291,#604 - 220 GEORGE ST,Toronto,M5A 2M9,M5A
70,70,Downtown,675000,43.650082,-79.357971,#417 - 70 DISTILLERY LANE,Toronto,M5A 0E3,M5A
74,74,Downtown,435000,43.649055,-79.370361,#328 - 109 FRONT ST E,Toronto,M5A 4P8,M5A
80,80,Downtown,438000,43.657104,-79.374214,#3805 - 181 DUNDAS ST E,Toronto,M5A 1Z4,M5A
223,223,Downtown,769000,43.650555,-79.357384,#2902 - 390 CHERRY ST,Toronto,M5A 0E2,M5A
224,224,Downtown,649000,43.652454,-79.363731,#1306 - 318 KING ST E,Toronto,M5A 1K6,M5A
237,237,Downtown,363900,43.660629,-79.364532,46 Cole St,Toronto,M5A 0A3,M5A
256,256,Downtown,699900,43.657341,-79.362579,383 Shuter St,Toronto,M5A 1X3,M5A
393,393,Downtown,1380000,43.662857,-79.376274,#Ph 6 - 130 CARLTON ST,Toronto,M5A 4K3,M5A
397,397,Downtown,169000,43.662125,-79.366859,401 PARLIAMENT AVE,Toronto,M5A 3A1,M5A
399,399,Downtown,385000,43.659824,-79.362724,#2308 - 225 SACKVILLE ST,Toronto,M5A 0B9,M5A
407,407,Downtown,469900,43.659824,-79.362724,#604 - 225 SACKVILLE ST,Toronto,M5A 0B9,M5A
502,502,Old Town,380000,43.65406,-79.369118,#1309 - 320 RICHMOND ST E,Toronto,M5A 2R3,M5A
885,885,Downtown,344900,43.660149,-79.360886,#601 - 170 SUMACH ST,Toronto,M5A 2B9,M5A
891,891,Downtown,589900,43.652222,-79.370872,#1105 - 105 GEORGE ST,Toronto,M5A 0L4,M5A
914,914,Downtown,458000,43.659824,-79.362724,#1909 - 225 SACKVILLE ST,Toronto,M5A 0B9,M5A
933,933,Downtown,401500,43.644783,-79.362793,#243 - 15 MERCHANTS WHARF,Toronto,M5A 1B6,M5A
950,950,Downtown,2350000,43.663265,-79.371582,179 CARLTON ST,Toronto,M5A 2K3,M5A
1011,1011,Downtown,389900,43.660152,-79.364891,#1906 - 25 COLE ST,Toronto,M5A 2C4,M5A
1094,1094,Downtown,449000,43.660149,-79.360886,#2507 - 170 Sumach St,Toronto,M5A 2B9,M5A
1095,1095,Downtown,439000,43.659824,-79.362724,#903 - 225 Sackville St,Toronto,M5A 0B9,M5A
1140,1140,Old Town,309900,43.653194,-79.368637,#554 - 313 RICHMOND ST E,Toronto,M5A 4S8,M5A
1200,1200,Downtown,399000,43.652817,-79.367737,#1207 - 400 ADELAIDE ST E,Toronto,M5A 1N4,M5A
1233,1233,Downtown,899000,43.660767,-79.365654,17 OAK ST,Toronto,M5A 0A2,M5A
1248,1248,Downtown,339000,43.657074,-79.355232,#1206 - 51 TROLLEY CRES,Toronto,M5A 0E9,M5A
1,1,Downtown,398900,43.656807,-79.375092,#3604 - 159 DUNDAS ST E,Toronto,M5B 0A9,M5B
31,31,Downtown,634900,43.661385,-79.380608,#1808 - 45 CARLTON ST,Toronto,M5B 2H9,M5B
655,655,Downtown,89900,43.659237,-79.382904,#35 - 384 YONGE ST,Toronto,M5B 1S9,M5B
736,736,Downtown,375000,43.65765,-79.376762,#863 - 155 DALHOUSIE ST,Toronto,M5B 2R2,M5B
831,831,Downtown,375000,43.65765,-79.376762,#863 - 155 DALHOUSIE STREET,Toronto,M5B 2R2,M5B
884,884,Downtown,375000,43.65765,-79.376762,# 863 - 155 DALHOUSIE ST,Toronto,M5B 2R2,M5B
1058,1058,Downtown,369900,43.655098,-79.375763,#2202 - 64 SHUTER ST,Toronto,M5B 1B1,M5B
1159,1159,Downtown,279000,43.656807,-79.375092,#508 - 159 DUNDAS ST E,Toronto,M5B 0A9,M5B
4,4,Downtown,449900,43.651878,-79.375999,#2505 - 50 LOMBARD ST,Toronto,M5C 2X4,M5C
387,387,Downtown,350000,43.652531,-79.373039,#901 - 120 LOMBARD ST,Toronto,M5C 3H5,M5C
29,29,Downtown,568800,43.648029,-79.374069,#305 - 55 FRONT ST E,Toronto,M5E 0A7,M5E
43,43,Downtown,979900,43.642273,-79.372704,#423 - 29 QUEENS QUAY E,Toronto,M5E 1L7,M5E
65,65,Downtown,599999,43.649246,-79.375755,#502 - 22 LEADER LANE,Toronto,M5E 0B2,M5E
72,72,Downtown,524900,43.648029,-79.374069,#808 - 55 FRONT ST E,Toronto,M5E 0A7,M5E
186,186,Downtown,1149000,43.642273,-79.372704,#808 - 29 QUEENS QUAY E,Toronto,M5E 1L7,M5E
197,197,Downtown,389000,43.644455,-79.376534,#2905 - 18 YONGE ST,Toronto,M5E 1Z8,M5E
281,281,Downtown,1349000,43.641346,-79.372421,#815 - 39 Queens Quay Way,Toronto,M5E 0A4,M5E
322,322,Downtown,899000,43.64613,-79.375778,#3805 - 8 THE ESPLANADE AVE,Toronto,M5E 0A6,M5E
342,342,Downtown,1349000,43.641346,-79.372421,#815 - 39 QUEENS QUAY WAY E,Toronto,M5E 0A4,M5E
386,386,Downtown,539900,43.642872,-79.376221,#411 - 12 YONGE ST,Toronto,M5E 1Z9,M5E
401,401,Downtown,568888,43.641346,-79.372421,#1019 - 39 QUEENS QUAY E,Toronto,M5E 0A4,M5E
410,410,Downtown,480000,43.645695,-79.376144,#2003 - 1 THE ESPLANADE,Toronto,M5E 0A8,M5E
419,419,Downtown,464900,43.641346,-79.372421,#1031 - 39 QUEENS QUAY E,Toronto,M5E 0A4,M5E
510,510,Central Waterfront,1588000,43.641346,-79.372421,#1202 - 39 QUEENS QUAY E,Toronto,M5E 0A4,M5E
623,623,Central Waterfront,595900,43.642273,-79.372704,#321 - 29 Queens Quay,Toronto,M5E 1L7,M5E
675,675,Central Waterfront,572900,43.641346,-79.372421,#1020 - 39 Queens Quay,Toronto,M5E 0A4,M5E
697,697,Downtown,421995,43.64613,-79.375778,#4308 - 8 THE ESPLANADE AVE,Toronto,M5E 0A6,M5E
1046,1046,Downtown,489000,43.643227,-79.37619,#3310 - 16 YONGE ST,Toronto,M5E 2A1,M5E
1129,1129,Downtown,518000,43.648029,-79.374069,#815 - 55 Front St,Toronto,M5E 0A7,M5E
17,17,Downtown,499900,43.654587,-79.386658,#502 - 55 CENTRE AVE,Toronto,M5G 2H5,M5G
20,20,Downtown,59000,43.657394,-79.383034,#1 - 27 ELM ST,Toronto,M5G 1H1,M5G
38,38,Downtown,459000,43.655113,-79.384804,#802 - 111 ELIZABETH ST,Toronto,M5G 1P7,M5G
39,39,Downtown,412500,43.658798,-79.384392,#607 - 44 GERRARD ST W,Toronto,M5G 2K2,M5G
67,67,Downtown,509000,43.653973,-79.388565,#1910 - 426 UNIVERSITY AVE,Toronto,M5G 1S9,M5G
95,95,Toronto,849900,43.653225,-79.383186,618 O&#39;CONNOR DR,Toronto,M5G 1P5,M5G
378,378,Downtown,599900,43.659328,-79.382675,#3103 - 386 YONGE ST,Toronto,M5G 2K2,M5G
383,383,Downtown,1288000,43.659328,-79.382675,#4910 - 386 YONGE ST,Toronto,M5G 2K2,M5G
412,412,Downtown,658000,43.656731,-79.383461,#2401 - 633 BAY ST,Toronto,M5G 1C9,M5G
490,490,Downtown,1108800,43.659534,-79.382828,#6016 - 388 YONGE ST,Toronto,M5G 2K2,M5G
897,897,Downtown,549000,43.659328,-79.382675,#1413 - 386 YONGE ST,Toronto,M5G 2K2,M5G
904,904,Downtown,52500,43.655846,-79.389366,522 UNIVERSITY AVE,Toronto,M5G,M5G
927,927,Toronto,799000,43.653225,-79.383186,618 O&#39;CONNOR DR,Toronto,M5G 1P5,M5G
1015,1015,Downtown,445900,43.659328,-79.382675,#1222 - 386 YONGE ST,Toronto,M5G 2K2,M5G
1134,1134,Downtown,499900,43.656731,-79.383461,#1705 - 633 BAY ST,Toronto,M5G 1C9,M5G
1161,1161,Downtown,335000,43.654587,-79.386658,#2005 - 55 Centre Ave,Toronto,M5G 2H5,M5G
1251,1251,Downtown,960000,43.659328,-79.382675,#2810 - 386 YONGE ST,Toronto,M5G 2K2,M5G
1274,1274,Downtown,489000,43.659328,-79.382675,#1016 - 386 YONGE ST,Toronto,M5G 2K2,M5G
10,10,Downtown,149713,43.65094,-79.381958,#0103 - 67 RICHMOND ST W,Toronto,M5H 1Z5,M5H
21,21,Downtown,99000,43.647537,-79.386871,214 KING ST W,Toronto,M5H 3S6,M5H
203,203,Downtown,458900,43.650372,-79.382347,#609 - 70 TEMPERANCE ST,Toronto,M5H 3V5,M5H
501,501,Downtown,495000,43.650372,-79.382347,#2709 - 70 TEMPERANCE ST,Toronto,M5H 3V5,M5H
1098,1098,Downtown,498880,43.650372,-79.382347,#1801 - 70 Temperance St,Toronto,M5H 3V5,M5H
1162,1162,Downtown,608800,43.650372,-79.382347,#1511 - 70 TEMPERANCE ST,Toronto,M5H 3V5,M5H
1166,1166,Downtown,448800,43.650372,-79.382347,#1007 - 70 TEMPERANCE ST,Toronto,M5H 3V5,M5H
33,33,Downtown,519900,43.642509,-79.377365,#1304 - 33 BAY ST,Toronto,M5J 2Z3,M5J
51,51,Downtown,559900,43.641788,-79.381874,#905 - 14 YORK ST,Toronto,M5J 0B1,M5J
183,183,Downtown,1329900,43.642578,-79.3769,#5002 - 16 HARBOUR ST,Toronto,M5J 2Y4,M5J
202,202,Downtown,549000,43.641632,-79.38205,#507 - 12 YORK ST,Toronto,M5J 2T8,M5J
250,250,Downtown,430000,43.642509,-79.377365,#4002 - 33 Bay St,Toronto,M5J 2Z3,M5J
503,503,Downtown,600000,43.641632,-79.38205,#4202 - 12 YORK ST,Toronto,M5J 2T8,M5J
731,731,Downtown,1688000,43.642578,-79.3769,#5201 - 16 HARBOUR ST,Toronto,M5J 2Y4,M5J
774,774,Downtown,708000,43.641788,-79.381874,#6605 - 14 YORK ST,Toronto,M5J 0B1,M5J
983,983,Entertainment District,589900,43.641491,-79.382607,#715 - 19 GRAND TRUNK CRES,Toronto,M5J 3A3,M5J
1186,1186,Downtown,45000,43.639725,-79.383247,#4 - 228 Queens Quay,Toronto,M5J 2Y6,M5J
1196,1196,Downtown,499990,43.641788,-79.381874,#2306 - 14 YORK ST,Toronto,M5J 0B1,M5J
1198,1198,Entertainment District,629900,43.642269,-79.382805,#1710 - 30 GRAND TRUNK CRES,Toronto,M5J 3A4,M5J
1252,1252,Downtown,1299000,43.642578,-79.3769,#4202 - 16 HARBOUR ST,Toronto,M5J 2Y4,M5J
1258,1258,Downtown,898000,43.640163,-79.378647,#2814 - 55 HARBOUR SQ,Toronto,M5J 2L4,M5J
114,114,Nortown,2429000,43.726009,-79.429718,631 ST GERMAIN AVE,Toronto,M5M 1X8,M5M
182,182,Nortown,2495000,43.724655,-79.424278,517 CRANBROOKE AVE,Toronto,M5M 1N9,M5M
452,452,Nortown,2248800,43.72076,-79.425728,487 GLENGARRY AVE,Toronto,M5M 1E9,M5M
576,576,Bedford Park,575000,43.725037,-79.415611,#509 - 40 SYLVAN VALLEY WAY,Toronto,M5M 4M4,M5M
738,738,Nortown,2650000,43.734093,-79.42907,154 DUNBLAINE AVE,Toronto,M5M 2S3,M5M
804,804,Nortown,3098000,43.732269,-79.428207,96 BANNOCKBURN AVE,Toronto,M5M 2N1,M5M
834,834,Nortown,429000,43.739883,-79.424202,#908 - 271 RIDLEY BLVD,Toronto,M5M 4N7,M5M
951,951,Nortown,1488000,43.721424,-79.42041,364 LAWRENCE AVE W,Toronto,M5M 1B7,M5M
1138,1138,Nortown,1888000,43.724827,-79.423271,505 CRANBROOKE AVE,Toronto,M5M 1N6,M5M
1188,1188,Cricket Club,2995000,43.735512,-79.412315,37 FELBRIGG AVE,Toronto,M5M 2L8,M5M
924,924,Midtown Toronto,2869000,43.713642,-79.418823,186 STRATHALLAN BLVD,Toronto,M5N 1T1,M5N
1100,1100,Midtown Toronto,2988888,43.716148,-79.428299,101 Shelborne Ave,Toronto,M5N 1Z3,M5N
9,9,Midtown Toronto,549000,43.687836,-79.413376,#506 - 60 MONTCLAIR AVE,Toronto,M5P 1P7,M5P
262,262,Midtown Toronto,419000,43.703773,-79.399658,#1501 - 60 Berwick Ave,Toronto,M5P 1H1,M5P
282,282,Midtown Toronto,789000,43.688499,-79.414642,#308 - 350 Lonsdale Rd,Toronto,M5P 1R6,M5P
734,734,Midtown Toronto,5250000,43.700211,-79.423698,16 ROSEMARY LANE,Toronto,M5P 3E8,M5P
881,881,Midtown Toronto,499900,43.703773,-79.399658,#910 - 60 BERWICK AVE,Toronto,M5P 1H1,M5P
0,0,Midtown Toronto,549000,43.672318,-79.388817,#307 - 21 SCOLLARD ST,Toronto,M5R 1G1,M5R
22,22,Midtown Toronto,3800000,43.672955,-79.398491,66 TRANBY AVE,Toronto,M5R 1N5,M5R
46,46,Midtown Toronto,1595000,43.671139,-79.395653,#602 - 4 LOWTHER AVE,Toronto,M5R 1C6,M5R
195,195,Midtown Toronto,738000,43.673172,-79.389687,#1303 - 32 DAVENPORT RD,Toronto,M5R 0B5,M5R
318,318,Midtown Toronto,599900,43.670319,-79.394432,#301 - 155 YORKVILLE AVE,Toronto,M5R 1C4,M5R
411,411,Midtown Toronto,498000,43.675331,-79.397125,#209 - 170 AVENUE RD,Toronto,M5R 2H8,M5R
561,561,Midtown Toronto,399000,43.670319,-79.394432,#418 - 155 YORKVILLE AVE,Toronto,M5R 1C4,M5R
773,773,Midtown Toronto,469000,43.673172,-79.389687,#308 - 32 DAVENPORT RD,Toronto,M5R 0B5,M5R
894,894,Midtown Toronto,469900,43.670319,-79.394432,#1706 - 155 YORKVILLE AVE,Toronto,M5R 1C4,M5R
946,946,Midtown Toronto,1299000,43.671864,-79.393814,#2 B - 36 HAZELTON AVE,Toronto,M5R 2E2,M5R
1250,1250,Midtown Toronto,1510000,43.671139,-79.395653,#602 - 4 LOWTHER AVE,Toronto,M5R 1C6,M5R
1287,1287,Midtown Toronto,384900,43.672554,-79.389572,#604 - 40 Scollard St,Toronto,M5R 3S1,M5R
18,18,Downtown,1519000,43.666897,-79.389038,#4001 - 65 ST MARY ST,Toronto,M5S 0A6,M5S
47,47,Downtown,749000,43.665546,-79.387245,#3310 - 1001 BAY ST,Toronto,M5S 3A6,M5S
54,54,Downtown,329000,43.665546,-79.387245,#316 - 1001 BAY ST,Toronto,M5S 3A6,M5S
364,364,Downtown,499999,43.667976,-79.38855,#1501 - 1121 BAY ST,Toronto,M5S 3L9,M5S
730,730,Downtown,924900,43.666897,-79.389038,#1704 - 65 ST MARY ST,Toronto,M5S 0A6,M5S
886,886,Midtown Toronto,7899000,43.669788,-79.391121,#608 - 10 BELLAIR ST,Toronto,M5S 3L7,M5S
1285,1285,Downtown,399666,43.665405,-79.387917,#2511 - 1000  Bay St Street,Toronto,M5S 0C5,M5S
63,63,Downtown,278500,43.652489,-79.389626,#618 - 80 ST PATRICK ST,Toronto,M5T 1V1,M5T
263,263,Downtown,479999,43.652451,-79.388931,#514 - 210 Simcoe St,Toronto,M5T 0A9,M5T
415,415,Grange Park,325000,43.653053,-79.390884,#423 - 89 MCCAUL ST,Toronto,M5T 2W7,M5T
651,651,Downtown,849900,43.650604,-79.390419,11 ST PATRICKS SQ,Toronto,M5T 1W8,M5T
652,652,Downtown,380000,43.657272,-79.40509,378 COLLEGE ST,Toronto,M5T 1S6,M5T
898,898,Downtown,699000,43.650394,-79.392609,#B326 - 18 BEVERLEY ST,Toronto,M5T 3L2,M5T
1135,1135,Downtown,329900,43.654148,-79.390533,#1105 - 152 ST PATRICK ST,Toronto,M5T 2W5,M5T
1255,1255,Trinity - Bellwoods,1988888,43.64777,-79.404457,198 BATHURST ST,Toronto,M5T 2R8,M5T
1256,1256,Downtown,449900,43.65234,-79.398193,#706 - 270 SPADINA AVE,Toronto,M5T 3A5,M5T
1275,1275,Downtown,389900,43.65234,-79.398193,#608 - 270 SPADINA AVE,Toronto,M5T 3A5,M5T
2,2,Niagara,309900,43.63715,-79.400604,#1211 - 15 BRUYERES MEWS,Toronto,M5V 0G8,M5V
19,19,Downtown,438000,43.638477,-79.397987,#3202 - 75 QUEENS WHARF RD,Toronto,M5V 0J8,M5V
23,23,Niagara,394900,43.638512,-79.400894,#307 - 169 FORT YORK BLVD,Toronto,M5V 0C8,M5V
27,27,Downtown,629900,43.645985,-79.389938,#1902 - 8 MERCER ST,Toronto,M5V 0C4,M5V
32,32,Downtown,535800,43.640224,-79.39595,#1049 - 10 CAPREOL CRT,Toronto,M5V 4A3,M5V
41,41,Downtown,669000,43.638866,-79.398438,#4006 - 85 QUEENS WHARF RD,Toronto,M5V 1A9,M5V
45,45,Niagara,375000,43.637432,-79.401039,#523 - 20 BRUYERES MEWS,Toronto,M5V 0G8,M5V
48,48,Downtown,329000,43.640816,-79.395538,#501 - 25 CAPREOL CRT,Toronto,M5V 3Z7,M5V
49,49,Downtown,589900,43.647224,-79.391098,#2812 - 21 WIDMER ST,Toronto,M5V 0B8,M5V
52,52,Downtown,469900,43.641422,-79.39959,#605 - 550 FRONT ST W,Toronto,M5V 3N5,M5V
60,60,Niagara,329900,43.63673,-79.400505,#606 - 600 FLEET ST,Toronto,M5V 1B7,M5V
62,62,Downtown,429900,43.639889,-79.390404,#710 - 5 MARINER TERR,Toronto,M5V 3V6,M5V
68,68,Downtown,498000,43.645985,-79.389938,#2401 - 8 MERCER ST,Toronto,M5V 0C4,M5V
69,69,Niagara,379800,43.635681,-79.398674,#218 - 650 QUEENS QUAY,Toronto,M5V 3N2,M5V
76,76,Downtown,439900,43.640526,-79.397102,#636 - 15 ICEBOAT TERR,Toronto,M5V 4A5,M5V
78,78,Downtown,429900,43.643486,-79.392303,#615 - 352 FRONT ST W,Toronto,M5V 0K3,M5V
192,192,Downtown,345000,43.643486,-79.392303,#315 - 352 FRONT ST W,Toronto,M5V 0K3,M5V
199,199,Niagara,559000,43.636345,-79.404808,#1604 - 215 FORT YORK BLVD,Toronto,M5V 4A2,M5V
214,214,Niagara,479000,43.63641,-79.402,#913 - 21 GRAND MAGAZINE ST,Toronto,M5V 1B5,M5V
216,216,Downtown,479999,43.644852,-79.399101,#526 - 560 KING ST W,Toronto,M5V 1M3,M5V
219,219,Downtown,412000,43.643486,-79.392303,#2311 - 352 FRONT ST W,Toronto,M5V 0K3,M5V
265,265,Downtown,334900,43.643486,-79.392303,#912 - 352 Front St,Toronto,M5V 0K3,M5V
283,283,Niagara,449900,43.633461,-79.399681,#169 - 28 Stadium Rd,Toronto,M5V 3P4,M5V
314,314,Downtown,419900,43.638477,-79.397987,#1703 - 75 QUEENS WHARF RD E,Toronto,M5V 0J8,M5V
352,352,Niagara,553000,43.638512,-79.400894,#302 - 169 Fort York Blvd,Toronto,M5V 0C8,M5V
375,375,Niagara,475000,43.636345,-79.404808,#502 - 215 Fort York Blvd,Toronto,M5V 4A2,M5V
379,379,Downtown,714900,43.647224,-79.391098,#1711 - 21 WIDMER ST,Toronto,M5V 0B8,M5V
380,380,Niagara,371999,43.637432,-79.401039,#630 - 20 BRUYERES MEWS,Toronto,M5V 0G8,M5V
388,388,Downtown,329000,43.645985,-79.389938,#703 - 8 MERCER ST,Toronto,M5V 0C4,M5V
389,389,Downtown,367500,43.645069,-79.390862,#601 - 270 WELLINGTON ST W,Toronto,M5V 3P5,M5V
394,394,Downtown,406000,43.645985,-79.389938,#2504 - 8 MERCER ST,Toronto,M5V 0C4,M5V
395,395,Downtown,479000,43.645573,-79.398994,#708 - 10 MORRISON ST,Toronto,M5V 2T8,M5V
396,396,Niagara,479000,43.637432,-79.401039,#629 - 20 BRUYERES MEWS,Toronto,M5V 0G8,M5V
405,405,Niagara,545000,43.636963,-79.404671,#1470 - 209 FORT YORK BLVD,Toronto,M5V 4A1,M5V
406,406,Niagara,1924000,43.641808,-79.403,#520 /52- 62/64 NIAGARA ST,Toronto,M5V 1C5,M5V
416,416,Niagara,319900,43.63665,-79.405701,#618 - 219 FORT YORK BLVD,Toronto,M5V 1A9,M5V
418,418,Niagara,664900,43.643116,-79.405334,#406 - 78 TECUMSETH ST,Toronto,M5V 2R8,M5V
420,420,Downtown,549900,43.638866,-79.398438,#4212 - 85 QUEENS WHARF RD,Toronto,M5V 1A9,M5V
421,421,Niagara,489900,43.636963,-79.404671,#278 - 209 FORT YORK BLVD,Toronto,M5V 4A1,M5V
422,422,Downtown,419900,43.647663,-79.390419,#1811 - 295 ADELAIDE ST W,Toronto,M5V 0L4,M5V
498,498,Downtown,556000,43.647514,-79.3927,#1706 - 101 PETER ST,Toronto,M5V 0G6,M5V
607,607,Niagara,287900,43.636963,-79.404671,#172 - 209 Fort York Blvd,Toronto,M5V 4A1,M5V
620,620,Downtown,512000,43.644173,-79.38942,#808 - 300 Front St,Toronto,M5V 0E9,M5V
621,621,Niagara,329900,43.634632,-79.40139,#433 - 90 Stadium Rd,Toronto,M5V 3W5,M5V
624,624,Niagara,410000,43.637035,-79.402863,#744 - 38 Grand Magazine St,Toronto,M5V 0B2,M5V
631,631,Downtown,474900,43.640224,-79.39595,#755 - 10 Capreol Crt,Toronto,M5V 4A3,M5V
638,638,Downtown,427500,43.638477,-79.397987,#2605 - 75 QUEENS WHARF RD,Toronto,M5V 0J8,M5V
643,643,Niagara,309000,43.63715,-79.400604,#1105 - 15 BRUYERES MEWS,Toronto,M5V 0G8,M5V
646,646,Downtown,399000,43.640259,-79.381729,#2504 - 208 QUEENS QUAY W,Toronto,M5V 3L9,M5V
647,647,Fashion District,339990,43.642097,-79.401573,#611 - 38 NIAGARA ST,Toronto,M5V 3X1,M5V
649,649,Downtown,353000,43.647514,-79.3927,#3205 - 101 PETER ST,Toronto,M5V 0G6,M5V
682,682,Niagara,435000,43.63641,-79.402,#411 - 21 Grand Magazine St,Toronto,M5V 1B5,M5V
684,684,Downtown,800000,43.639683,-79.39212,#1909 - 35 Mariner Terr,Toronto,M5V 3V9,M5V
793,793,Downtown,379800,43.637386,-79.398201,#2903 - 38 DAN LECKIE WAY,Toronto,M5V 2V6,M5V
819,819,Downtown,489000,43.647663,-79.390419,#1706 - 295 ADELAIDE ST W,Toronto,M5V 0L4,M5V
822,822,Downtown,350000,43.640224,-79.39595,#1603 - 10 CAPREOL CRT,Toronto,M5V 4A3,M5V
832,832,Downtown,515000,43.644173,-79.38942,#1813 - 300 FRONT ST W,Toronto,M5V 0E9,M5V
882,882,Downtown,389990,43.647663,-79.390419,#405 - 295 ADELAIDE ST W,Toronto,M5V 0L4,M5V
905,905,Downtown,424900,43.642567,-79.393463,#3309 - 397 FRONT ST W,Toronto,M5V 3S1,M5V
906,906,Downtown,339900,43.647167,-79.397346,#601 - 32 CAMDEN ST,Toronto,M5V 1V1,M5V
915,915,Downtown,625800,43.646248,-79.394531,#1205 - 25 OXLEY ST,Toronto,M5V 2J5,M5V
916,916,Downtown,489900,43.637062,-79.396721,#1027 - 550 QUEENS QUAY,Toronto,M5V 2V6,M5V
930,930,Downtown,569000,43.647224,-79.391098,#2304 - 21 WIDMER ST,Toronto,M5V 0B8,M5V
932,932,Downtown,369888,43.638866,-79.398438,#523 - 85 QUEENS WHARF RD,Toronto,M5V 1A9,M5V
938,938,Downtown,399000,43.642654,-79.393059,#1509 - 381 FRONT ST W,Toronto,M5V 3R8,M5V
944,944,Downtown,558000,43.644173,-79.38942,#3503 - 300 FRONT ST W,Toronto,M5V 0E9,M5V
948,948,Downtown,506000,43.638477,-79.397987,#618 - 75 QUEENS WHARF RD,Toronto,M5V 0J8,M5V
980,980,Downtown,474900,43.640224,-79.39595,#755 - 10 CAPREOL CRT,Toronto,M5V 4A3,M5V
992,992,Niagara,329900,43.63665,-79.405701,#2306 - 219 FORT YORK BLVD,Toronto,M5V 1A9,M5V
993,993,Niagara,345000,43.643291,-79.404724,#903 - 725 KING ST,Toronto,M5V 2W9,M5V
994,994,Downtown,399900,43.639343,-79.399841,#2111 - 170 FORT YORK BLVD,Toronto,M5V 0E6,M5V
997,997,Downtown,1900000,43.6404,-79.392075,#Ph02 - 10 NAVY WHARF CRT,Toronto,M5V 3V2,M5V
998,998,Downtown,384900,43.642654,-79.393059,#901 - 381 FRONT ST W,Toronto,M5V 3R8,M5V
1096,1096,Downtown,575000,43.647224,-79.391098,#4206 - 21 Widmer St,Toronto,M5V 0B8,M5V
1097,1097,Downtown,710000,43.645821,-79.394623,#1211 - 438 King St,Toronto,M5V 1K3,M5V
1128,1128,Downtown,299999,43.640259,-79.381729,#2301 - 208 Queens Quay,Toronto,M5V 3L9,M5V
1163,1163,Downtown,299900,43.641075,-79.393974,#329 - 4K SPADINA AVE,Toronto,M5V 3Y9,M5V
1189,1189,Downtown,374900,43.637386,-79.398201,#716 - 38 DAN LECKIE WAY,Toronto,M5V 2V6,M5V
1191,1191,Niagara,429900,43.636963,-79.404671,#1073 - 209 FORT YORK BLVD,Toronto,M5V 4A1,M5V
1253,1253,Downtown,498000,43.649082,-79.392082,#3506 - 318 RICHMOND ST W,Toronto,M5V 0B4,M5V
1254,1254,Niagara,494999,43.636345,-79.404808,#108 - 215 FORT YORK BLVD,Toronto,M5V 4A2,M5V
1278,1278,Downtown,615000,43.644852,-79.399101,#305 - 560 KING ST,Toronto,M5V 1M3,M5V
1292,1292,Niagara,749900,43.636234,-79.403122,#2002 - 628 Fleet St,Toronto,M5V 1A8,M5V
346,346,Lawrence Heights,328888,43.714592,-79.452911,#1817 - 800 LAWRENCE AVE W,Toronto,M6A 0B1,M6A
567,567,Englemount - Lawrence,448000,43.721115,-79.430847,#806 - 2 COVINGTON RD,Toronto,M6A 3E2,M6A
570,570,Englemount - Lawrence,959000,43.720905,-79.430969,#Ph205 - 8 COVINGTON RD,Toronto,M6A 3E5,M6A
592,592,Lawrence Heights,359900,43.714592,-79.452911,#318 - 800 LAWRENCE AVE W,Toronto,M6A 0B1,M6A
796,796,Nortown,199000,43.728687,-79.431671,3499 BATHURST ST,Toronto,M6A 2C5,M6A
830,830,Englemount - Lawrence,2399000,43.725357,-79.443275,151 REGINA AVE,Toronto,M6A 1R9,M6A
1192,1192,Lawrence Heights,484888,43.714592,-79.452911,#714 - 800 LAWRENCE AVE,Toronto,M6A 0B1,M6A
1221,1221,Nortown,2500,43.727039,-79.431366,3415 Bathurst St,Toronto,M6A 2C1,M6A
144,144,Midtown Toronto,349900,43.704834,-79.439888,#1501 - 360 RIDELLE AVE,Toronto,M6B 1K1,M6B
435,435,Briar Hill,549000,43.702183,-79.444046,14 DANESBURY AVE,Toronto,M6B 3K7,M6B
448,448,Glen Park,192900,43.705845,-79.466965,#1105 - 50 LOTHERTON PKWY,Toronto,M6B 2G7,M6B
457,457,Glen Park,207777,43.707066,-79.466217,#105 - 200 LOTHERTON PTWY,Toronto,M6B 2G6,M6B
769,769,Glen Park,367777,43.707157,-79.467438,165 LOTHERTON PTWY,Toronto,M6B 2G6,M6B
977,977,Midtown Toronto,1348000,43.711784,-79.43515,90 GLEN PARK AVE,Toronto,M6B 2C3,M6B
1045,1045,Glen Park,175000,43.705845,-79.466965,#204 - 50 LOTHERTON PTWY,Toronto,M6B 2G7,M6B
1153,1153,Briar Hill - Belgravia,739000,43.70676,-79.443169,354 /356 MARLEE AVE,Toronto,M6B 3H8,M6B
370,370,Midtown Toronto,529000,43.68705,-79.433083,185 ATLAS AVE,Toronto,M6C 3P6,M6C
715,715,Midtown Toronto,529000,43.683132,-79.419281,#1603 - 530 ST CLAIR AVE,Toronto,M6C 1A2,M6C
766,766,Midtown Toronto,799999,43.687363,-79.436615,120 CEDRIC AVE,Toronto,M6C 3X8,M6C
797,797,Midtown Toronto,765000,43.690857,-79.438042,238 CEDRIC AVE,Toronto,M6C 3Y1,M6C
1299,1299,Midtown Toronto,749000,43.690628,-79.433762,237 Winnett Ave,Toronto,M6C 3L8,M6C
125,125,Oakwood Village,659000,43.691177,-79.444824,554 LAUDER AVE,Toronto,M6E 3J4,M6E
133,133,Midtown Toronto,10000,43.693039,-79.440842,507 OAKWOOD AVE,Toronto,M6E 2W9,M6E
229,229,Fairbank,799000,43.690666,-79.46199,32B Keith Ave,Toronto,M6E 2C6,M6E
239,239,Toronto,559000,43.682991,-79.459412,220 Gilbert Ave,Toronto,M6E 4W5,M6E
369,369,Oakwood Village,1459000,43.680222,-79.440544,206 LAUDER AVE,Toronto,M6E 3H4,M6E
619,619,Earlscourt,99000,43.677418,-79.444275,1201 St Clair Ave,Toronto,M6E 1B5,M6E
729,729,Belgravia,2798800,43.696499,-79.447227,1728 Eglinton Ave,Toronto,M6E 2H5,M6E
775,775,Earlscourt,399888,43.678635,-79.444672,#502 - 26 NORTON AVE,Toronto,M6E 1E2,M6E
790,790,Belgravia,2798800,43.696499,-79.447227,1728 Eglinton Ave,Toronto,M6E 2H5,M6E
824,824,Earlscourt,1190000,43.679775,-79.448845,90 EARLSCOURT AVE,Toronto,M6E 4A9,M6E
954,954,Earlscourt,99000,43.677418,-79.444275,1201 ST CLAIR AVE W,Toronto,M6E 1B5,M6E
1143,1143,Earlscourt,372000,43.678635,-79.444672,#1010 - 26 NORTON AVE,Toronto,M6E 1E2,M6E
381,381,Little Italy,188000,43.658806,-79.422653,379 HARBORD ST,Toronto,M6G 1H8,M6G
613,613,Little Italy,69000,43.655296,-79.414032,596 College St,Toronto,M6G 1B4,M6G
639,639,Midtown Toronto,149900,43.664047,-79.416756,680 BLOOR ST W,Toronto,M6G 1L2,M6G
719,719,Bracondale Hill,810000,43.675793,-79.430817,38 Winona Dr,Toronto,M6G 3S6,M6G
988,988,Midtown Toronto,7800000,43.677525,-79.418228,82 WYCHWOOD PARK,Toronto,M6G 2V5,M6G
55,55,Regal Heights,1099000,43.676453,-79.432472,56 ALBERTA AVE,Toronto,M6H 2R6,M6H
319,319,Wallace Emerson,315000,43.665203,-79.447601,#411 - 812 LANSDOWNE AVE,Toronto,M6H 4K5,M6H
391,391,Davenport,618900,43.670906,-79.449074,#62 - 55 FOUNDRY AVE,Toronto,M6H 4K7,M6H
398,398,Wallace Emerson,1075000,43.661148,-79.441711,66 EMERSON AVE,Toronto,M6H 3S9,M6H
414,414,Dufferin Grove,1900000,43.654331,-79.427017,476 DOVERCOURT RD,Toronto,M6H 2W4,M6H
512,512,Earlscourt,518888,43.674404,-79.454514,#3 - 108 CALEDONIA PARK RD,Toronto,M6H 4A8,M6H
636,636,Dufferin Grove,1599000,43.654137,-79.424477,872 College St,Toronto,M6H 1A3,M6H
640,640,Dufferin Grove,1079000,43.65834,-79.425323,161 Concord Ave,Toronto,M6H 2P2,M6H
669,669,Davenport,699000,43.673634,-79.431572,71 Somerset Ave,Toronto,M6H 2R3,M6H
975,975,Davenport,699000,43.673634,-79.431572,71 SOMERSET AVE,Toronto,M6H 2R3,M6H
986,986,Regal Heights,1300000,43.675892,-79.441948,1593 DUFFERIN ST,Toronto,M6H 3L5,M6H
1121,1121,Wallace Emerson,899900,43.659885,-79.440331,370 Margueretta St,Toronto,M6H 3S5,M6H
1269,1269,Wallace Emerson,64900,43.659683,-79.437279,1174 BLOOR ST W,Toronto,M6H 1N1,M6H
285,285,Little Portugal,418000,43.642593,-79.425537,#610 - 1169 Queen St,Toronto,M6J 1J4,M6J
350,350,Little Portugal,929000,43.649033,-79.427734,169 Beaconsfield Ave,Toronto,M6J 3J7,M6J
382,382,Little Portugal,1495000,43.645592,-79.428123,97 GLADSTONE AVE,Toronto,M6J 3L1,M6J
404,404,Little Portugal,949000,43.649033,-79.427734,169 BEACONSFIELD AVE,Toronto,M6J 3J7,M6J
424,424,Little Portugal,379000,43.642963,-79.428223,#1805 - 11 PEEL AVE,Toronto,M6J 1M3,M6J
609,609,Little Portugal,338000,43.641697,-79.423431,#1617 - 36 Lisgar St,Toronto,M6J 0A9,M6J
632,632,Little Portugal,309900,43.641697,-79.423431,#1811W - 36 Lisgar St,Toronto,M6J 0A9,M6J
714,714,Little Portugal,309900,43.641697,-79.423431,#1811W - 36 Lisgar St,Toronto,M6J 0A9,M6J
887,887,Trinity - Bellwoods,2990000,43.650017,-79.406174,81 MARKHAM ST,Toronto,M6J 2G4,M6J
896,896,Trinity - Bellwoods,885000,43.647091,-79.407379,5 EUCLID PL,Toronto,M6J 1J8,M6J
928,928,Little Portugal,429000,43.642391,-79.424736,#1005 - 68 ABELL ST,Toronto,M6J 0B1,M6J
1001,1001,Trinity - Bellwoods,149900,43.649124,-79.420975,220 OSSINGTON AVE,Toronto,M6J 2Z9,M6J
1111,1111,Little Portugal,30000,43.642391,-79.424736,68 Abell St,Toronto,M6J 0B1,M6J
1257,1257,Little Portugal,355000,43.641697,-79.423431,#1007 - 36 LISGAR ST,Toronto,M6J 0A9,M6J
1268,1268,Niagara,1998897,43.645416,-79.408264,737 RICHMOND Street West,Toronto,M6J 1C4,M6J
1271,1271,West Queen West,149000,43.645443,-79.41169,893 QUEEN ST W,Toronto,M6J 1G5,M6J
1276,1276,Little Italy,849000,43.652946,-79.41256,248 CLAREMONT ST,Toronto,M6J 2N1,M6J
7,7,Toronto,245000,43.640335,-79.424477,#1619 - 38 JOE SHUSTER WAY,Toronto,M6K 0A5,M6K
14,14,Toronto,229000,43.640335,-79.424477,#320 - 38 JOE SHUSTER WAY,Toronto,M6K 0A5,M6K
24,24,Toronto,364000,43.640335,-79.424477,#1726 - 38 JOE SHUSTER WAY,Toronto,M6K 0A5,M6K
34,34,Toronto,299900,43.640209,-79.423943,1115 20 JOE SHUSTER Way,Toronto,M6K 0A4,M6K
56,56,Niagara,559000,43.641579,-79.415901,#1043 - 1030 KING ST W,Toronto,M6K 0B4,M6K
61,61,Niagara,377399,43.641579,-79.415901,#235 - 1030 KING ST W,Toronto,M6K 0B4,M6K
212,212,Niagara,549000,43.641579,-79.415901,#352 - 1030 KING ST W,Toronto,M6K 0B4,M6K
540,540,Liberty Village,335000,43.638573,-79.41375,#606 - 59 EAST LIBERTY ST,Toronto,M6K 3R1,M6K
541,541,Liberty Village,329000,43.638607,-79.411858,#1812 - 51 EAST LIBERTY ST,Toronto,M6K 3P8,M6K
542,542,Liberty Village,488800,43.638306,-79.414787,#1003 - 75 EAST LIBERTY ST,Toronto,M6K 0A2,M6K
560,560,Liberty Village,319000,43.638607,-79.411858,#303 - 51 EAST LIBERTY ST,Toronto,M6K 3P8,M6K
571,571,Liberty Village,519500,43.638607,-79.411858,#209 - 51 EAST LIBERTY ST,Toronto,M6K 3P8,M6K
573,573,Parkdale,1050000,43.635376,-79.440872,Ph 4603 -2045 LAKE SHORE BLVD,Toronto,M6K 3C1,M6K
681,681,Niagara,409900,43.637386,-79.418587,#405 - 5 HANNA AVE,Toronto,M6K 0B3,M6K
735,735,Toronto,239900,43.640335,-79.424477,#1317 - 38 JOE SHUSTER WAY,Toronto,M6K 0A5,M6K
791,791,Little Portugal,145000,43.649624,-79.433273,1543 DUNDAS ST W,Toronto,M6K 1T6,M6K
890,890,Parkdale,329900,43.642883,-79.430664,#410 - 24 NOBLE ST,Toronto,M6K 2C8,M6K
919,919,Niagara,405000,43.641735,-79.41449,#602 - 1000 KING ST W,Toronto,M6K 3N1,M6K
934,934,Niagara,399900,43.641579,-79.415901,#623 - 1030 KING ST W,Toronto,M6K 0B4,M6K
1017,1017,Toronto,399000,43.640209,-79.423943,#912 - 20 JOE SHUSTER WAY,Toronto,M6K 0A4,M6K
1035,1035,Niagara,259900,43.641579,-79.415901,#401 - 1030 KING ST W,Toronto,M6K 0B4,M6K
1051,1051,Liberty Village,449900,43.638054,-79.414818,#918 - 65 EAST LIBERTY ST,Toronto,M6K 0A2,M6K
1110,1110,Niagara,449000,43.640865,-79.414619,#726 - 1 Shaw St,Toronto,M6K 0A1,M6K
1185,1185,Parkdale,1098000,43.635262,-79.426628,11 THORBURN AVE,Toronto,M6K 1C4,M6K
1202,1202,Liberty Village,389000,43.638775,-79.41626,#1315 - 150 EAST LIBERTY ST,Toronto,M6K 3R5,M6K
1262,1262,Parkdale,1599000,43.635567,-79.441315,2312 LAKE SHORE BLVD W,Toronto,M6K,M6K
232,232,Maple Leaf,499900,43.720539,-79.48439,144 Rory Rd,Toronto,M6L 3G4,M6L
828,828,Amesbury,99000,43.705917,-79.488579,#3 - 1575 LAWRENCE AVE,Toronto,M6L 1C3,M6L
1242,1242,Rustic,750000,43.714989,-79.503326,45 Beckett Ave,Toronto,M6L 2B3,M6L
169,169,Brookhaven - Amesbury,449900,43.698521,-79.497978,69 STEWART SMITH DR,Toronto,M6M 2T7,M6M
279,279,Silverthorn,629000,43.690617,-79.46476,553 Blackthorn Ave,Toronto,M6M 3C7,M6M
360,360,Mount Dennis,480000,43.690044,-79.494453,39 Victoria Blvd,Toronto,M6M 2B9,M6M
366,366,Mount Dennis,350000,43.692898,-79.506203,#104 - 56 SIDNEY BELSEY CRES,Toronto,M6M 5H9,M6M
368,368,Beechborough - Greenbrook,699000,43.696888,-79.476875,7 GREENBROOK DR,Toronto,M6M 2J9,M6M
467,467,Silverthorn,589000,43.692989,-79.474442,2071 KEELE ST,Toronto,M6M 3Y8,M6M
563,563,Brookhaven,206900,43.697231,-79.490097,#501 - 10 MARTHA EATON WAY,Toronto,M6M 4C2,M6M
595,595,Brookhaven,184900,43.697231,-79.490097,#706 - 10 Martha Eaton Way,Toronto,M6M 4C2,M6M
665,665,Silverthorn,649000,43.693424,-79.471298,91 Lonborough Ave,Toronto,M6M 1X7,M6M
722,722,Brookhaven,189900,43.697231,-79.490097,#201 - 10 Martha Eaton Way,Toronto,M6M 4C2,M6M
912,912,Brookhaven - Amesbury,3450000,43.705173,-79.473534,36 MILFORD AVE,Toronto,M6M 2V8,M6M
957,957,Silverthorn,599000,43.69495,-79.468224,7 COLFAX ST,Toronto,M6M 3K4,M6M
1026,1026,Brookhaven - Amesbury,580000,43.698372,-79.49884,8 A TEDDER ST,Toronto,M6M 4W7,M6M
1160,1160,Brookhaven - Amesbury,749000,43.696663,-79.494972,116 Via Cassia Dr,Toronto,M6M 5L3,M6M
1208,1208,Silverthorn,649000,43.688412,-79.467247,468 SILVERTHORN AVE,Toronto,M6M 3H8,M6M
25,25,Harwood,758888,43.670788,-79.476288,2170 ST CLAIR AVE W,Toronto,M6N 5C1,M6N
85,85,Silverthorn,825000,43.680763,-79.469574,41 HILLARY AVE,Toronto,M6N 2C1,M6N
148,148,Rockcliffe - Smythe,599000,43.667286,-79.49749,69 BERNICE CRES,Toronto,M6N 1W7,M6N
233,233,Harwood,419900,43.678665,-79.478302,75 Cayuga Ave,Toronto,M6N 2G4,M6N
235,235,Lambton,639000,43.670361,-79.501076,71 Delemere Ave,Toronto,M6N 1Z8,M6N
244,244,Harwood,869000,43.676849,-79.482109,52B Hilldale Rd,Toronto,M6N 3Y2,M6N
367,367,Silverthorn,624880,43.681507,-79.465294,190 CHAMBERS AVE,Toronto,M6N 3M6,M6N
432,432,Harwood,40000,43.67535,-79.478867,#02 - 155 MCCORMACK ST,Toronto,M6N 1X8,M6N
458,458,Mount Dennis,549000,43.685081,-79.485382,1021 WESTON RD,Toronto,M6N 3R9,M6N
784,784,Silverthorn,649900,43.680458,-79.46653,676 Old Weston Rd,Toronto,M6N 3B5,M6N
809,809,Rockcliffe - Smythe,674900,43.67289,-79.500313,80 EDINBOROUGH CRT,Toronto,M6N 2E8,M6N
943,943,Rockcliffe - Smythe,489500,43.6679,-79.496674,41 BERNICE CRES,Toronto,M6N 1W7,M6N
1079,1079,Earlscourt,569900,43.679035,-79.463066,84 Rosethorn Ave,Toronto,M6N 3L1,M6N
1087,1087,Carleton Village,600000,43.670776,-79.462044,227 Old Weston Rd,Toronto,M6N 3A6,M6N
1091,1091,Toronto,399000,43.679928,-79.495888,84 Grandville Ave,Toronto,M6N 4V2,M6N
1122,1122,Rockcliffe - Smythe,794900,43.677685,-79.472687,262 Weston Rd,Toronto,M6N 3P5,M6N
1174,1174,Rockcliffe - Smythe,794990,43.667053,-79.503334,178 EILEEN AVE,Toronto,M6N 1W1,M6N
1261,1261,Silverthorn,659900,43.679874,-79.469025,45 LAVENDER RD,Toronto,M6N 2B6,M6N
1277,1277,Carleton Village,1490000,43.670361,-79.455589,1928 -30 DAVENPORT RD,Toronto,M6N 2X1,M6N
641,641,High Park North,629500,43.653648,-79.467949,#704 - 20 GOTHIC AVE,Toronto,M6P 1T5,M6P
680,680,High Park North,629500,43.653648,-79.467949,704 20 GOTHIC Avenue,Toronto,M6P 1T5,M6P
808,808,High Park North,549000,43.654373,-79.46788,#1908 - 50 Quebec Ave,Toronto,M6P 4B4,M6P
923,923,The Junction,1600000,43.664932,-79.45961,2710 DUNDAS ST W,Toronto,M6P 1Y2,M6P
704,704,Roncesvalles Village,735000,43.650043,-79.444771,#112 - 363 SORAUREN AVE W,Toronto,M6R 3C1,M6R
1273,1273,Parkdale,1300000,43.640388,-79.438339,1508 QUEEN ST W,Toronto,M6R 1A4,M6R
86,86,Lambton Baby Point,486900,43.648071,-79.486664,#307 - 2 OLD MILL DR,Toronto,M6S,M6S
88,88,Lambton Baby Point,478800,43.648243,-79.486626,#615 - 1 OLD MILL DR,Toronto,M6S 0A1,M6S
266,266,Lambton Baby Point,539900,43.648071,-79.486664,#612 - 2 Old Mill Dr,Toronto,M6S,M6S
317,317,Swansea,498000,43.636292,-79.470467,#2005 - 103 THE QUEENSWAY AVE,Toronto,M6S 5B3,M6S
320,320,Swansea,250000,43.636173,-79.470757,#3409 - 105 THE QUEENSWAY AVE,Toronto,M6S 5B5,M6S
321,321,Swansea,345000,43.636292,-79.470467,#416 - 103 THE QUEENSWAY AVE,Toronto,M6S 5B3,M6S
392,392,Swansea,329900,43.636173,-79.470757,105 The Queensway Road,Toronto,M6S 5B5,M6S
403,403,Swansea,989000,43.648193,-79.479431,325 WINDERMERE AVE,Toronto,M6S 3K9,M6S
409,409,Swansea,499000,43.636173,-79.470757,#3403 - 105 THE QUEENSWAY,Toronto,M6S 5B5,M6S
737,737,Lambton Baby Point,399900,43.648071,-79.486664,#728 - 2 OLD MILL DR,Toronto,M6S,M6S
829,829,Swansea,419900,43.63905,-79.472717,#1401 - 45 SOUTHPORT ST,Toronto,M6S 3N5,M6S
952,952,Swansea,410000,43.636818,-79.47419,#116 - 1 RIPLEY AVE,Toronto,M6S 4Z6,M6S
1061,1061,Runnymede,949900,43.659569,-79.481377,593 Annette St,Toronto,M6S 2C3,M6S
1069,1069,Swansea,254900,43.636814,-79.468163,#Th82 - 9 Windermere Ave,Toronto,M6S 5A4,M6S
1081,1081,Swansea,999000,43.652039,-79.470833,#703 - 383 Ellis Park Rd,Toronto,M6S 5B2,M6S
1088,1088,Swansea,509000,43.636292,-79.470467,#2305 - 103 The Queensway Ave,Toronto,M6S 5B3,M6S
1105,1105,Lambton,795000,43.663177,-79.490776,3 Bradley Ave,Toronto,M6S 2M9,M6S
1194,1194,Sunnyside,439900,43.636307,-79.466087,#1707 - 1900 LAKE SHORE BLVD W,Toronto,M6S,M6S
1241,1241,Lambton,828888,43.663452,-79.490456,560 JANE ST,Toronto,M6S 4A5,M6S
121,121,Mimico,659900,43.619488,-79.488205,26 VICTORIA ST,Toronto,M8V 1M6,M8V
154,154,Mimico,268000,43.630383,-79.476273,#1007 - 3 MARINE PARADE DR,Toronto,M8V 3Z4,M8V
160,160,Mimico,675000,43.621376,-79.483429,#Ph 2 - 15 LEGION RD,Toronto,M8V 0B1,M8V
189,189,Mimico,549900,43.624969,-79.478081,#3007 - 59 ANNIE CRAIG DR,Toronto,M8V 0C4,M8V
191,191,Mimico,399900,43.625542,-79.477242,#1406 - 80 MARINE PARADE DR,Toronto,M8V 0A3,M8V
215,215,Mimico,343000,43.62273,-79.483192,#2706 - 2220 LAKESHORE RD,Toronto,M8V 0C1,M8V
297,297,Mimico,305000,43.622883,-79.481972,#4105 - 2200 Lake Shore Blvd,Toronto,M8V 1A4,M8V
326,326,Mimico,305000,43.622883,-79.481972,#4105 - 2200 LAKE SHORE BLVD,Toronto,M8V 1A4,M8V
329,329,Mimico,469980,43.622883,-79.481972,#3007 - 2200 LAKE SHORE BLVD W,Toronto,M8V 1A4,M8V
376,376,New Toronto,699000,43.604565,-79.518341,#3 - 300 New St,Toronto,M8V 2E8,M8V
444,444,Mimico,339900,43.625542,-79.477242,#201 - 80 MARINE PARADE DR,Toronto,M8V 0A3,M8V
460,460,Mimico,1579000,43.606827,-79.492538,7 DARTMOUTH CRES,Toronto,M8V 1W9,M8V
476,476,Mimico,799900,43.608631,-79.498894,70 STRUTHERS ST,Toronto,M8V 1Y1,M8V
487,487,New Toronto,248888,43.601498,-79.510078,#607 - 4 ELSINORE PATH,Toronto,M8V 4G7,M8V
497,497,Mimico,399900,43.624969,-79.478081,#1510 - 59 ANNIE CRAIG DR,Toronto,M8V 0C4,M8V
521,521,Mimico,575000,43.608696,-79.498596,64 STRUTHERS ST,Toronto,M8V 1Y1,M8V
523,523,Mimico,614700,43.619488,-79.488205,26 VICTORIA ST,Toronto,M8V 1M6,M8V
534,534,Mimico,749900,43.628983,-79.477852,#Ph 8 - 2111 LAKE SHORE BLVD W,Toronto,M8V 4B2,M8V
535,535,Mimico,749900,43.628983,-79.477852,PH 8 2111 Lake Shore Boulevard W,Toronto,M8V 4B2,M8V
538,538,Mimico,438000,43.62273,-79.483192,#2709 - 2220 LAKE SHORE BLVD,Toronto,M8V 0C1,M8V
539,539,Mimico,449000,43.631355,-79.474609,#1102 - 2045 LAKE SHORE BLVD W,Toronto,M8V 2Z6,M8V
558,558,Mimico,361900,43.622883,-79.481972,#4502 - 2200 LAKESHORE BLVD W,Toronto,M8V 1A4,M8V
610,610,New Toronto,599000,43.602879,-79.517662,99 Seventeenth St,Toronto,M8V 3K5,M8V
633,633,Mimico,899000,43.627769,-79.478523,#908 - 2119 Lake Shore Blvd,Toronto,M8V 4E8,M8V
672,672,New Toronto,749000,43.598137,-79.521706,16 Twenty Second St,Toronto,M8V 3M1,M8V
694,694,Mimico,579000,43.621063,-79.483322,#1206 - 2240 LAKE SHORE BLVD W,Toronto,M8V 0B1,M8V
752,752,Mimico,520000,43.630383,-79.476273,#1904 - 3 MARINE PARADE DR,Toronto,M8V 3Z4,M8V
833,833,Mimico,379900,43.624306,-79.480461,#904 - 2175 LAKE SHORE BLVD,Toronto,M8V 1A2,M8V
841,841,Mimico,405999,43.624969,-79.478081,#613 - 59 ANNIE CRAIG DR,Toronto,M8V 0C4,M8V
848,848,Long Branch,35000,43.601154,-79.524414,#A117 - 10 CARNATION AVE,Toronto,M8V 0B8,M8V
869,869,New Toronto,1950000,43.601955,-79.524384,1 WHITLAM AVE,Toronto,M8V 2K2,M8V
878,878,Mimico,918800,43.624969,-79.478081,#3603 - 59 ANNIE CRAIG DR,Toronto,M8V 0C4,M8V
962,962,Humber Bay Shores,530000,43.626965,-79.478485,#3507 - 16 BROOKERS LANE,Toronto,M8V 0A5,M8V
982,982,Mimico,105000,43.615341,-79.492996,170 THE QUEENS WAY,Toronto,M8V 2N9,M8V
1004,1004,Mimico,1050000,43.631355,-79.474609,#3305 - 2045 LAKE SHORE BLVD W,Toronto,M8V 2Z6,M8V
1014,1014,New Toronto,599900,43.602974,-79.516861,112 SIXTEENTH ST,Toronto,M8V 3K1,M8V
1039,1039,Humber Bay Shores,313996,43.626965,-79.478485,#2810 - 16 BROOKERS LANE,Toronto,M8V 0A5,M8V
1044,1044,Mimico,399000,43.624969,-79.478081,#1607 - 59 ANNIE CRAIG DR,Toronto,M8V 0C4,M8V
1059,1059,New Toronto,799000,43.601395,-79.505333,145 ISLINGTON AVE,Toronto,M8V 3B8,M8V
1070,1070,Mimico,1299888,43.624969,-79.478081,#3902 - 59 Annie Craig Dr,Toronto,M8V 0C4,M8V
1075,1075,Mimico,329900,43.615078,-79.48938,#609 - 11 Superior Ave,Toronto,M8V 1C4,M8V
1142,1142,New Toronto,699900,43.603195,-79.501167,95 THIRD ST,Toronto,M8V 2Y1,M8V
1145,1145,Mimico,625000,43.630383,-79.476273,#1002 - 3 MARINE PARADE DR,Toronto,M8V 3Z4,M8V
1169,1169,Mimico,339000,43.624969,-79.478081,#411 A - 59 ANNIE CRAIG DR,Toronto,M8V 0C4,M8V
1249,1249,Mimico,105000,43.615341,-79.492996,170 THE QUEENS WAY,Toronto,M8V 2N9,M8V
194,194,Alderwood,1148000,43.602165,-79.544388,496 -498 HORNER AVE,Toronto,M8W 2B8,M8W
253,253,Alderwood,1349999,43.595139,-79.545746,43B Foch Ave,Toronto,M8W 3X3,M8W
506,506,Alderwood,848000,43.610023,-79.530464,260 Valermo Dr,Toronto,M8W 2K8,M8W
556,556,Long Branch,150000,43.595627,-79.529289,3436 Lakeshore Boulevard W,Toronto,M8W 1N3,M8W
659,659,Alderwood,1398000,43.60165,-79.546326,514 HORNER AVE,Toronto,M8W 2C1,M8W
670,670,Long Branch,1329000,43.595715,-79.524788,2A Twenty Seventh St,Toronto,M8W 1E3,M8W
781,781,Long Branch,399900,43.594379,-79.532631,#317 - 3531 Lake Shore Blvd,Toronto,M8W 4Y8,M8W
1002,1002,Long Branch,150000,43.595627,-79.529289,3436 LAKE SHORE BLVD W,Toronto,M8W 1N3,M8W
1031,1031,Long Branch,415000,43.589939,-79.545006,#505 - 3865 LAKE SHORE BLVD W,Toronto,M8W 0A4,M8W
1054,1054,Toronto,75000,43.613632,-79.537346,#11 - 486 EVANS AVE,Toronto,M8W 2T7,M8W
174,174,The Kingsway,1879000,43.659264,-79.510025,548 PRINCE EDWARD DR N,Toronto,M8X 2M7,M8X
226,226,Islington - City Centre West,859000,43.646122,-79.521828,#707 - 2 Aberfoyle Cres,Toronto,M8X 2Z8,M8X
313,313,Islington - City Centre West,875000,43.64592,-79.519623,#2302 - 1 Aberfoyle Cres,Toronto,M8X 2X8,M8X
101,101,Humber Bay,419900,43.624374,-79.485542,#2710 - 90 PARK LAWN RD,Toronto,M8Y 0B6,M8Y
145,145,Mimico,429900,43.624485,-79.490479,#725 - 250 MANITOBA ST,Toronto,M8Y 4G8,M8Y
146,146,The Queensway,949900,43.624474,-79.501793,523 C ROYAL YORK RD,Toronto,M8Y 2S5,M8Y
200,200,Mimico,349000,43.62381,-79.488022,#2710 - 155 LEGION RD,Toronto,M8Y 0A1,M8Y
258,258,Mimico,399000,43.624207,-79.488228,165 Legion Road,Toronto,M8Y 0B3,M8Y
430,430,Mimico,375000,43.62381,-79.488022,#2701 - 155 LEGION RD N,Toronto,M8Y 0A1,M8Y
462,462,Mimico,320000,43.623661,-79.491394,#506 - 190 MANITOBA ST,Toronto,M8Y 3Y8,M8Y
464,464,Humber Bay,469900,43.624374,-79.485542,#1507 - 90 PARK LAWN RD,Toronto,M8Y 0B6,M8Y
477,477,Humber Bay,457000,43.624374,-79.485542,#2807 - 90 PARK LAWN RD,Toronto,M8Y 0B6,M8Y
480,480,Humber Bay,370000,43.624374,-79.485542,#2515 - 90 PARK LAWN RD,Toronto,M8Y 0B6,M8Y
481,481,Mimico,319900,43.624207,-79.488228,#2221 - 165 LEGION RD N,Toronto,M8Y 0B3,M8Y
493,493,Mimico,349900,43.624207,-79.488228,#1828 - 165 LEGION RD N,Toronto,M8Y 0B3,M8Y
685,685,The Queensway,998800,43.624474,-79.501793,523 C ROYAL YORK RD,Toronto,M8Y 2S5,M8Y
706,706,The Queensway,474900,43.625931,-79.490524,#520 - 245 Dalesford Rd,Toronto,M8Y 4H7,M8Y
812,812,Mimico,324500,43.62434,-79.491203,#521 - 200 MANITOBA ST,Toronto,M8Y 3Y9,M8Y
866,866,Humber Bay,549000,43.624073,-79.484917,#2111 - 88 PARK LAWN RD,Toronto,M8Y 0B6,M8Y
910,910,Humber Bay,569000,43.624073,-79.484917,#2011 - 88 PARK LAWN RD,Toronto,M8Y 0B6,M8Y
1244,1244,Humber Bay,469800,43.624374,-79.485542,#1006 - 90 PARK LAWN RD,Toronto,M8Y 0B6,M8Y
524,524,Mimico,899000,43.617924,-79.508667,51 OURLAND AVE,Toronto,M8Z 4E2,M8Z
572,572,The Queensway,309000,43.623482,-79.516762,#816 - 1040 THE QUEENSWAY AVE,Toronto,M8Z 0A7,M8Z
586,586,Islington - City Centre West,219900,43.619194,-79.534035,1466 THE QUEENSWAY AVE,Toronto,M8Z,M8Z
763,763,The Queensway,1524000,43.629078,-79.510864,64 EDGECROFT RD,Toronto,M8Z 2B8,M8Z
806,806,Mimico,949000,43.617924,-79.508667,51 OURLAND AVE,Toronto,M8Z 4E2,M8Z
935,935,The Queensway,340800,43.621746,-79.521469,#519 - 1185 THE QUEENSWAY,Toronto,M8Z 0C6,M8Z
225,225,Islington - City Centre West,329900,43.643925,-79.528885,#405 - 1 Michael Power Pl,Toronto,M9A 0A3,M9A
228,228,Islington - City Centre West,349900,43.644661,-79.529335,#514 - 9 Michael Power Pl,Toronto,M9A 0A4,M9A
295,295,Islington,1250000,43.649994,-79.530228,34 Burnhamthorpe Cres,Toronto,M9A 1G4,M9A
327,327,Islington - City Centre West,549000,43.650017,-79.52639,1803 - 1300 ISLINGTON Avenue,Toronto,M9A 5C4,M9A
328,328,Humber Heights - Westmount,419900,43.684998,-79.515526,#1706 - 40 RICHVIEW RD,Toronto,M9A 5C1,M9A
533,533,Islington - City Centre West,317000,43.644081,-79.5289,#504 - 5 MICHAEL POWER PL,Toronto,M9A 0A3,M9A
581,581,Islington - City Centre West,323800,43.643925,-79.528885,#1906 - 1 MICHAEL POWER PL,Toronto,M9A 0A3,M9A
615,615,Islington,369000,43.644779,-79.531929,#103 - 5101 Dundas St,Toronto,M9A 1C2,M9A
654,654,Edenbridge - Humber Valley,2495000,43.675282,-79.520859,101 VALECREST DR,Toronto,M9A 4P5,M9A
693,693,Islington - City Centre West,405000,43.646942,-79.525818,#1501 - 7 MABELLE AVE,Toronto,M9A 4X6,M9A
709,709,Islington - City Centre West,223500,43.646942,-79.525818,#708 A - 7 MABELLE AVE,Toronto,M9A 4X6,M9A
742,742,Eatonville,149000,43.647232,-79.530617,4986 DUNDAS ST W,Toronto,M9A 1B7,M9A
966,966,Edenbridge - Humber Valley,3475000,43.677654,-79.52076,80 NORTH DR,Toronto,M9A 4R2,M9A
1060,1060,Islington,369000,43.644779,-79.531929,#103 - 5101 DUNDAS ST W,Toronto,M9A 1C2,M9A
1229,1229,Islington - City Centre West,309000,43.646942,-79.525818,#4003 - 7 MABELLE AVE,Toronto,M9A 4X6,M9A
1230,1230,Islington - City Centre West,378500,43.646942,-79.525818,#2402 - 7 MABELLE AVE,Toronto,M9A 4X6,M9A
324,324,Islington - City Centre West,538000,43.638737,-79.535606,#1949 - 25 VIKING LANE,Toronto,M9B 0A1,M9B
508,508,Islington - City Centre West,314900,43.640293,-79.559761,#2410 - 5 Valhalla Inn Rd,Toronto,M9B 1S9,M9B
537,537,Islington - City Centre West,295000,43.640285,-79.559464,#806 - 1 VALHALLA INN RD,Toronto,M9B 1S9,M9B
566,566,Islington - City Centre West,395000,43.633957,-79.541298,5415 Dundas Street W,Toronto,M9B 1B1,M9B
594,594,Islington - City Centre West,349900,43.638172,-79.536194,#2338 - 35 Viking Lane,Toronto,M9B 0A1,M9B
713,713,Islington - City Centre West,315900,43.640293,-79.559761,#2510 - 5 VALHALLA INN RD,Toronto,M9B 1S9,M9B
1020,1020,Islington - City Centre West,314900,43.640293,-79.559761,#2410 - 5 VALHALLA INN RD,Toronto,M9B 1S9,M9B
1204,1204,Eringate - Centennial - West Deane,750000,43.665123,-79.562119,17 ANTIOCH DR,Toronto,M9B 3A5,M9B
1237,1237,Eatonville,899900,43.648071,-79.542839,1 Lochway Crt,Toronto,M9B 4G4,M9B
1294,1294,Islington - City Centre West,409900,43.638706,-79.535904,#347 - 25 Viking Lane,Toronto,M9B 0A1,M9B
227,227,Eringate - Centennial - West Deane,335000,43.644711,-79.588692,##1008 - 420 Mill Rd,Toronto,M9C 1Z1,M9C
292,292,Eringate - Centennial - West Deane,799000,43.666061,-79.576218,8 Firestone Rd,Toronto,M9C 4N1,M9C
308,308,Eatonville,1099000,43.641037,-79.573959,118 Saturn Rd,Toronto,M9C 2S8,M9C
371,371,Eringate - Centennial - West Deane,259000,43.639858,-79.584564,#806 - 335 MILL RD,Toronto,M9C 1Y6,M9C
509,509,Islington - City Centre West,289900,43.609993,-79.55748,#906 - 215 Sherway Gardens Rd,Toronto,M9C 0A5,M9C
589,589,Eringate - Centennial - West Deane,345800,43.644711,-79.588692,#907 - 420 MILL RD,Toronto,M9C 1Z1,M9C
590,590,Eringate - Centennial - West Deane,269900,43.656895,-79.570404,#1208 - 714 THE WEST MALL RD,Toronto,M9C 4X1,M9C
739,739,Eatonville,295000,43.639694,-79.563148,#728 - 2 EVA RD,Toronto,M9C 4Z5,M9C
743,743,Eatonville,99000,43.641918,-79.565247,385 THE WEST MALL,Toronto,M9C 1E7,M9C
756,756,Etobicoke West Mall,749000,43.644119,-79.571426,36 TUNBRIDGE CRES,Toronto,M9C 3L6,M9C
856,856,Markland Wood,1554900,43.634731,-79.565956,4229 BLOOR ST W,Toronto,M9C 1Z6,M9C
964,964,Islington - City Centre West,419900,43.609573,-79.557335,#1505 - 205 SHERWAY GARDENS RD,Toronto,M9C 0A5,M9C
1173,1173,Etobicoke West Mall,470000,43.649242,-79.566887,79 PERMFIELD PATH,Toronto,M9C 4Y5,M9C
290,290,Humber Summit,649000,43.753605,-79.569298,43 Franel Cres,Toronto,M9L 1B6,M9L
591,591,Humber Summit,174900,43.748459,-79.568283,#406 - 2825 ISLINGTON AVE,Toronto,M9L 2L2,M9L
865,865,Humber Summit,549900,43.75555,-79.568619,2919 ISLINGTON AVE,Toronto,M9L 2K3,M9L
953,953,Humber Summit,599073,43.754013,-79.562782,73 GOLDSBORO RD,Toronto,M9L 1A6,M9L
1008,1008,Humber Summit,649900,43.757236,-79.568275,42 SEACLIFF BLVD,Toronto,M9L 2G7,M9L
1028,1028,Humber Summit,589900,43.755226,-79.562088,104 GOLDSBORO RD,Toronto,M9L 1A8,M9L
1147,1147,Humber Summit,999900,43.753723,-79.575333,7 HATHOR CRES,Toronto,M9L 1C1,M9L
1270,1270,Humber Summit,549000,43.759605,-79.570328,#6 - 70 PLUNKETT RD,Toronto,M9L 2J5,M9L
97,97,Humber Summit,55000,43.749264,-79.559441,#17 A - 2528 FINCH AVE W,Toronto,M9M 2G3,M9M
603,603,Humberlea,975000,43.729229,-79.534203,9 Isaac Devins Blvd,Toronto,M9M 0C7,M9M
753,753,Emery,94900,43.749187,-79.542702,#806 - 3390 WESTON RD,Toronto,M9M 2X3,M9M
764,764,Emery,649900,43.74855,-79.532745,#10 - 800 ARROW RD,Toronto,M9M 2Z8,M9M
876,876,Emery,124900,43.749187,-79.542702,#303 - 3390 WESTON RD,Toronto,M9M 2X3,M9M
1216,1216,Humberlea,699999,43.722164,-79.537437,2864 WESTON RD,Toronto,M9M 2S3,M9M
103,103,Toronto,369000,43.695999,-79.507645,1623 WESTON RD,Toronto,M9N 1T8,M9N
110,110,Weston,485900,43.705288,-79.526894,9 RECTORY RD,Toronto,M9N 1P8,M9N
242,242,Weston,320000,43.701572,-79.520187,#707 - 1 King St,Toronto,M9N 1K8,M9N
257,257,Weston,748800,43.705509,-79.518242,26 JOSEPH ST,Toronto,M9N 2J2,M9N
505,505,Weston,336800,43.701572,-79.520187,#2604 - 1 King St,Toronto,M9N 1K8,M9N
741,741,Weston,199900,43.698143,-79.513771,#1410 - 1 HICKORY TREE RD,Toronto,M9N 3W4,M9N
967,967,Pelmo Park,517000,43.709682,-79.534584,1 CARDELL AVE N,Toronto,M9N 2A7,M9N
243,243,The Westway,824888,43.691151,-79.54287,28 Rowse Cres,Toronto,M9P 3L5,M9P
331,331,Humber Heights - Westmount,889000,43.697754,-79.524979,2229 LAWRENCE AVE W,Toronto,M9P 2A2,M9P
627,627,Humber Heights - Westmount,999888,43.697479,-79.520531,10 Vista Humber Dr,Toronto,M9P 3R7,M9P
750,750,Humber Heights - Westmount,848000,43.688129,-79.523537,143 RENAULT CRES,Toronto,M9P 1J8,M9P
761,761,Humber Heights - Westmount,698800,43.68832,-79.514221,548 B SCARLETT RD,Toronto,M9P 2S2,M9P
312,312,Richview,785000,43.692616,-79.54583,70 Poynter Dr,Toronto,M9R 1L2,M9R
330,330,Richview,479900,43.677921,-79.556534,#607 - 140 WIDDICOMBE HILL BLVD,Toronto,M9R 4B3,M9R
437,437,Kingsview Village,99900,43.696312,-79.553864,#516 - 340 DIXON RD,Toronto,M9R 1T1,M9R
820,820,Richview,849000,43.686066,-79.559258,19 TYNEVALE DR,Toronto,M9R 2B6,M9R
1085,1085,Kingsview Village,234900,43.69582,-79.556328,#312 - 370 Dixon Rd,Toronto,M9R 1T2,M9R
106,106,Rexdale,599000,43.736565,-79.597107,7 ATTILA CRT,Toronto,M9V 4E5,M9V
112,112,Rexdale,249900,43.758636,-79.58757,#308 - 21 MARKBROOK LANE,Toronto,M9V 5E4,M9V
119,119,Rexdale,184500,43.73354,-79.592949,#14 - 242 JOHN GARLAND BLVD,Toronto,M9V 1N8,M9V
158,158,Rexdale,245000,43.74955,-79.58075,#407 - 5 ROWNTREE RD,Toronto,M9V 5G9,M9V
161,161,Rexdale,299999,43.744343,-79.587379,#301 - 45 SILVERSTONE DR,Toronto,M9V 4B1,M9V
465,465,Rexdale,549900,43.739346,-79.575073,239 TAYSHAM CRES,Toronto,M9V 1X8,M9V
479,479,Rexdale,569900,43.748493,-79.603745,34 HELMSDALE CRES,Toronto,M9V 3X9,M9V
522,522,Rexdale,99900,43.741695,-79.584373,1530 ALBION RD,Toronto,M9V 1B4,M9V
723,723,Silverstone,409800,43.74144,-79.598236,#32 - 452 Silverstone Dr,Toronto,M9V 3K8,M9V
727,727,Rexdale,259000,43.733341,-79.593048,#149 - 254 John Garland Blvd,Toronto,M9V 1N7,M9V
811,811,Rexdale,79900,43.747585,-79.579842,#807 - 40 Panorama Crt,Toronto,M9V 4M1,M9V
981,981,Rexdale,285000,43.74955,-79.58075,#203 - 203-5 ROWNTREE RD,Toronto,M9V 5G9,M9V
985,985,Silverstone,409800,43.74144,-79.598236,#32 - 452 SILVERSTONE DR,Toronto,M9V 3K8,M9V
989,989,Rexdale,349900,43.73735,-79.601723,#206 - 101 WESTMORE DR,Toronto,M9V 3Y6,M9V
1047,1047,Rexdale,659900,43.742077,-79.571907,38 MONTERREY DR,Toronto,M9V 1S8,M9V
1107,1107,Rexdale,1380000,43.734222,-79.559181,815 Albion Rd,Toronto,M9V 1A3,M9V
1146,1146,Rexdale,280000,43.74955,-79.58075,#914 - 5 ROWNTREE RD,Toronto,M9V 5G9,M9V
1171,1171,Rexdale,247500,43.75901,-79.588539,#1110 - 10 MARKBROOK LANE,Toronto,M9V 5E3,M9V
1187,1187,Rexdale,749900,43.739414,-79.585983,43 Kendleton Dr,Toronto,M9V 1T9,M9V
1236,1236,Rexdale,545000,43.747128,-79.591827,30 Vange Cres,Toronto,M9V 3N6,M9V
1298,1298,Rexdale,649899,43.751724,-79.590424,145 Silverstone Dr,Toronto,M9V 3G8,M9V
116,116,Rexdale,669900,43.725483,-79.585327,49 HAWKEDON CRES,Toronto,M9W 3L6,M9W
162,162,Rexdale,424999,43.742409,-79.598518,#52 - 1667 ALBION RD,Toronto,M9W 5T3,M9W
445,445,Rexdale,304900,43.724766,-79.616486,#119 - 700 HUMBERWOOD BLVD,Toronto,M9W 7J4,M9W
548,548,Rexdale,35000,43.734581,-79.605942,#105 - 19 WOODBINE DOWNS BLVD,Toronto,M9W 6N5,M9W
664,664,West Humber Estates,649999,43.727283,-79.58503,10 Joshua Ave,Toronto,M9W 4T6,M9W
687,687,The Elms,259900,43.729645,-79.547989,#823 - 28 Tandridge Cres,Toronto,M9W 2P2,M9W
875,875,Rexdale,299000,43.73069,-79.611,#414 - 6 HUMBERLINE DR,Toronto,M9W 6X8,M9W
963,963,Rexdale,124900,43.722031,-79.543945,#1502 - 236 ALBION RD,Toronto,M9W 6A6,M9W
973,973,Rexdale,407500,43.727741,-79.577362,#Ph 4 - 80 Esther Lorrie Dr,Toronto,M9W 4T7,M9W
1083,1083,Rexdale,785000,43.719715,-79.617767,99 Cinrickbar Dr,Toronto,M9W 6W7,M9W
1093,1093,Rexdale,634900,43.723648,-79.589729,56 Millview Cres,Toronto,M9W 3K5,M9W
1223,1223,Rexdale,324900,43.724766,-79.616486,#2720 - 700 Humberwood Blvd,Toronto,M9W 7J4,M9W
1235,1235,Rexdale,699900,43.724163,-79.573708,19 BOLGER PL,Toronto,M9W 4R6,M9W
1238,1238,Rexdale,649900,43.715919,-79.54454,36 Esmond Cres,Toronto,M9W 3P8,M9W
1282,1282,Rexdale,318000,43.724766,-79.616486,#220 - 700 HUMBERWOOD BLVD,Toronto,M9W 7J4,M9W