,AreaName,Price ($),lat,lng,Address,City,Postal Code,FSA
0,East Danforth,49900,43.682693,-79.325851,1475 Danforth Ave,Toronto,M4J 1N5,M4J
1,Downtown,379880,43.647514,-79.3927,#2705 - 101 PETER ST,Toronto,M5V 0G6,M5V
2,Woburn,419900,43.773827,-79.250023,#2308 - 88 Grangeway Ave,Toronto,M1H 0A2,M1H
3,The Junction,49900,43.669209,-79.481644,2411 St Clair Ave,Toronto,M6N 1K9,M6N
4,Cliffcrest,4500000,43.725761,-79.218529,25 Meadowcliffe Dr,Toronto,M1M 2X9,M1M
6,Lansing,660000,43.760517,-79.411743,#2002 - 11 BOGERT AVE,Toronto,M2N 0H3,M2N
7,Mimico,369000,43.62001,-79.483086,#104 - 2261 Lake Shore Blvd,Toronto,M8V 3X1,M8V
8,Bathurst Manor,780000,43.753391,-79.448715,#Th2 - 784 Sheppard Ave,Toronto,M3H 2T1,M3H
9,The Queensway,549900,43.624573,-79.511681,#202 - 51 Lady Bank Rd,Toronto,M8Z 1N7,M8Z
10,Lawrence Heights,374900,43.714592,-79.452911,#1023 - 800 Lawrence Ave,Toronto,M6A 0B1,M6A
11,York University Heights,730000,43.781918,-79.492439,#5 -6 - 2899 STEELES AVE W,Toronto,M3J 3A1,M3J
12,Downtown,268888,43.650963,-79.397903,#261 - 222 SPADINA AVE,Toronto,M5T 3B3,M5T
13,Downtown,578000,43.667324,-79.372574,#10 - 225 Wellesley St,Toronto,M4X 1X8,M4X
14,Willowdale,449000,43.760181,-79.408218,#711 - 35 BALES AVE,Toronto,M2N 7L7,M2N
15,Willowdale,339000,43.777355,-79.41275,#915 - 60 BYNG AVE,Toronto,M2N 7K3,M2N
16,Willowdale,325000,43.773746,-79.415512,#1903 - 68 CANTERBURY PL,Toronto,M2N 1Y7,M2N
17,York University Heights,88000,43.768021,-79.476097,#4 - 1126 Finch Ave,Toronto,M3J 3J6,M3J
18,Woburn,2500000,43.776733,-79.242828,1120 Bellamy Rd,Toronto,M1H 1H3,M1H
20,Downtown,175000,43.655773,-79.358704,44 Sumach St,Toronto,M5A 3J7,M5A
21,Long Branch,430000,43.589939,-79.545006,#404 - 3865 Lake Shore Blvd,Toronto,M8W 0A4,M8W
22,Midtown Toronto,2858000,43.727768,-79.389908,238 LAWRENCE AVE E,Toronto,M4N 1T2,M4N
23,Edenbridge - Humber Valley,1938000,43.672089,-79.516663,21 Bearwood Dr,Toronto,M9A 4G5,M9A
24,Bayview Village,349900,43.768436,-79.377464,#311 - 701 Sheppard Ave,Toronto,M2K 2Z3,M2K
25,Trinity - Bellwoods,69000,43.654827,-79.415947,651 College St,Toronto,M6G 1B7,M6G
26,Stockyards District,399900,43.677914,-79.467384,122 Turnberry Ave,Toronto,M6N 1R1,M6N
27,Malvern,155000,43.803925,-79.216507,#701 - 8 Silverbell Grve,Toronto,M1B 2L7,M1B
28,Jane and Finch,130000,43.748493,-79.505875,#103 - 235 Grandravine Dr,Toronto,M3N 1J2,M3N
29,Scarborough Village,395900,43.74189,-79.213837,#210 - 1350 Kingston Rd,Toronto,M1M 1R9,M1M
30,Mimico,699000,43.625542,-79.477242,#Wl02 - 80 Marine Parade Dr,Toronto,M8V 0A3,M8V
31,York University Heights,339900,43.7747,-79.470566,#4 - 24 Martin Ross Ave,Toronto,M3H 5S4,M3H
32,Agincourt,45000,43.788311,-79.268082,#393 - 4438 Sheppard Ave,Toronto,M1S 1V2,M1S
33,Toronto,5880000,43.73769,-79.383606,50 Arjay Cres,Toronto,M2L 1C7,M2L
34,Downtown,335000,43.638866,-79.398438,#1610 - 85 Queens Wharf Rd,Toronto,M5V 1A9,M5V
35,Downtown,340000,43.638866,-79.398438,#2110 - 85 Queens Wharf Rd,Toronto,M5V 1A9,M5V
37,Lambton,1150000,43.6656,-79.494537,3621 Dundas St,Toronto,M6S 2T2,M6S
38,Rexdale,547800,43.745731,-79.605835,#7 - 30 Baywood Rd,Toronto,M9V 3Y8,M9V
39,Willowdale,726800,43.765842,-79.410057,#2609 - 35 Hollywood Ave,Toronto,M2N 0A9,M2N
40,Armdale,300,43.830791,-79.24955,#B-203 - 833 Passmore Ave,Toronto,M1X 0A2,M1X
42,Islington - City Centre West,319900,43.64286,-79.527222,#303 - 8 Fieldway Rd,Toronto,M8Z 0C3,M8Z
43,Little Portugal,265000,43.642391,-79.424736,#805 - 68 Abell St,Toronto,M6J 0B1,M6J
44,Armdale,300,43.830791,-79.24955,#F-208 - 865 Passmore Ave,Toronto,M1X 0A2,M1X
45,Mimico,499000,43.624969,-79.478081,#3703 - 59 Annie Craig Dr,Toronto,M8V 0C4,M8V
46,Armdale,220,43.830791,-79.24955,#D-102 - 843 Passmore Ave,Toronto,M1X 0A2,M1X
47,Armdale,220,43.830791,-79.24955,#D-105 - 843 Passmore Ave,Toronto,M1X 0A2,M1X
48,Downtown,399000,43.659237,-79.382904,#81 - 384 YONGE ST,Toronto,M5B 1S9,M5B
49,Downtown,3250000,43.656151,-79.370743,154 Shuter St,Toronto,M5A 1V9,M5A
50,Downtown,1670000,43.644173,-79.38942,#4405 - 300 FRONT ST W,Toronto,M5V 0E9,M5V
51,Willowdale,428000,43.769257,-79.411339,#1108 - 35 Empress Ave,Toronto,M2N 6T3,M2N
52,Mount Pleasant East,1599900,43.701202,-79.383499,4 BELLE AYRE BLVD,Toronto,M4S 2P7,M4S
53,Weston,689000,43.696426,-79.50872,1650 Weston Rd,Toronto,M9N 1V1,M9N
54,Downtown,825000,43.662979,-79.363525,8 GIFFORD ST,Toronto,M5A 3J1,M5A
55,Regal Heights,115000,43.678566,-79.439423,1075 St Clair Ave,Toronto,M6E 1A6,M6E
56,Downtown,474900,43.643486,-79.392303,#409 - 352 FRONT ST W,Toronto,M5V 0K3,M5V
57,Willowdale,375000,43.757988,-79.403625,#526 - 120 Harrison Garden Blvd,Toronto,M2N 0H1,M2N
58,Downtown,389990,43.649082,-79.392082,#3703 - 318 Richmond St,Toronto,M5V 0B4,M5V
59,Downtown,659900,43.659328,-79.382675,#5003 - 386 YONGE ST,Toronto,M5G 2K2,M5G
60,Princess Margaret,1225000,43.671982,-79.549873,24 Farningham Cres,Toronto,M9B 3B5,M9B
61,Midtown Toronto,4595000,43.691288,-79.440041,475 Oakwood Ave,Toronto,M6E 2W4,M6E
62,Midtown Toronto,85000,43.707699,-79.39492,120 EGLINTON ST E,Toronto,M4P 1A6,M4P
63,Bayview Village,319000,43.767746,-79.370918,#511 - 121 Mcmahon Dr,Toronto,M2K 1C2,M2K
64,Niagara,2000000,43.63641,-79.402,#Ph02 - 21 Grand Magazine St,Toronto,M5V 1B5,M5V
65,Downtown,458000,43.64613,-79.375778,# 3401 - 8 THE ESPLANADE,Toronto,M5E 0A6,M5E
66,Leaside,5400000,43.705471,-79.37487,1557-65 Bayview Ave,Toronto,M4G 3B5,M4G
67,Davenport,899000,43.669529,-79.438217,209 Geary Ave,Toronto,M6H 2C1,M6H
68,Downtown,345000,43.638866,-79.398438,#322 - 85 QUEENS WHARF RD,Toronto,M5V 1A9,M5V
69,Don Valley Village,500000,43.777878,-79.34465,#2017 - 1800 Sheppard Ave,Toronto,M2J 5A7,M2J
70,Swansea,444900,43.636173,-79.470757,#510 - 105 The Queensway Ave,Toronto,M6S 5B5,M6S
71,Port Lands,0,43.647285,-79.351509,33 VILLIERS Street,Toronto,M5A 1A7,M5A
72,Edenbridge - Humber Valley,4625000,43.673866,-79.514618,185 Edenbridge Dr,Toronto,M9A 3G6,M9A
73,Midtown Toronto,247777,43.68766,-79.438766,373 Oakwood Ave,Toronto,M6E 2W1,M6E
74,Downtown,1795000,43.666443,-79.366661,86 WINCHESTER ST,Toronto,M4X 1B2,M4X
75,Milliken,343000,43.800751,-79.300117,#403&amp;404 - 3852 Finch Ave,Toronto,M1T 3T9,M1T
76,Downtown,665000,43.638866,-79.398438,#3506 - 85 QUEENS WHARF RD,Toronto,M5V 1A9,M5V
77,Riverdale,1100000,43.666096,-79.350159,656 GERRARD ST E,Toronto,M4M 1Y3,M4M
78,Willowdale,298000,43.773746,-79.415512,#201 - 68 Canterbury Pl,Toronto,M2N 1Y7,M2N
79,Downtown,399900,43.655113,-79.384804,#825 - 111 ELIZABETH ST,Toronto,M5G 1P7,M5G
80,Downtown,569000,43.653973,-79.388565,#1108 - 426 University Ave,Toronto,M5G 1S9,M5G
81,York University Heights,314000,43.751213,-79.464142,#516 - 1 De Boers Dr,Toronto,M3J 3E5,M3J
82,Downtown,249900,43.667953,-79.385666,649 YONGE ST,Toronto,M4Y 1Z9,M4Y
83,Malvern,199000,43.788715,-79.235725,#100 - 10 Milner Business Crt,Toronto,M1B 3C6,M1B
84,Midtown Toronto,429900,43.685623,-79.409592,#611 - 6 PARKWOOD AVE,Toronto,M4V 2W9,M4V
85,Clairlea,359000,43.716526,-79.284454,#411 - 60 Fairfax Cres,Toronto,M1L 0E1,M1L
86,Downtown,79000,43.651176,-79.384178,123 Queen St,Toronto,M5H 2N2,M5H
87,Trinity - Bellwoods,879000,43.651451,-79.408516,152 PALMERSTON AVE,Toronto,M6J 2J2,M6J
88,Rockcliffe - Smythe,995000,43.667488,-79.499748,47 Scarlett Rd,Toronto,M6N 4J8,M6N
89,St. Andrew - Windfields,5995000,43.759731,-79.389603,82 Fifeshire Rd,Toronto,M2L 2G8,M2L
90,Tam O'Shanter,295000,43.785805,-79.292114,#909 - 185 Bonis Ave,Toronto,M1T 3W6,M1T
92,Riverdale,749000,43.658451,-79.352722,#810 - 630 QUEEN ST E,Toronto,M4M 1G3,M4M
93,Midtown Toronto,69000,43.704235,-79.388313,621 MOUNT PLEASANT RD E,Toronto,M4S 2M5,M4S
95,Downtown,394000,43.664471,-79.410561,#425 - 783 BATHURST ST,Toronto,M5S 0A8,M5S
96,Weston,249900,43.700413,-79.509697,#18 - 2007 Lawrence Ave,Toronto,M9N 3V1,M9N
97,Lawrence Heights,318000,43.714592,-79.452911,#415 - 800 Lawrence Ave,Toronto,M6A 0B1,M6A
98,Mimico,313900,43.622883,-79.481972,#3606 - 2200 Lake Shore Blvd,Toronto,M8V 1A4,M8V
99,Downtown,1890000,43.654419,-79.394417,#1 A - 150 BEVERLEY ST,Toronto,M5T 1Y5,M5T
100,Downtown,769000,43.641788,-79.381874,#4803 - 14 YORK ST,Toronto,M5J 0B1,M5J
101,Downtown,129000,43.657162,-79.402672,339 College St,Toronto,M5T 1S2,M5T
102,Bathurst Manor,995000,43.752811,-79.451485,830A Sheppard Ave,Toronto,M3H 2T3,M3H
103,Don Mills,390000,43.747749,-79.348656,#A204 - 16 Mallard Rd,Toronto,M3B 3N1,M3B
104,Leslieville,59900,43.664757,-79.341347,#101 - 1189 Dundas St,Toronto,M4M 0A5,M4M
105,Mimico,554900,43.624969,-79.478081,#3107 - 59 Annie Craig Dr,Toronto,M8V 0C4,M8V
107,Midtown Toronto,425000,43.703773,-79.399658,#716 - 60 Berwick Ave,Toronto,M5P 1H1,M5P
108,Midtown Toronto,155000,43.706657,-79.427071,#209 - 2550 Bathurst St,Toronto,M6B 2Z2,M6B
109,Old East York,599000,43.695709,-79.313354,237 HOLBORNE AVE,Toronto,M4C 2S2,M4C
110,Newtonbrook,448800,43.780666,-79.446335,#2704 - 100 Antibes Dr,Toronto,M2R 3N1,M2R
111,Armdale,59000,43.831604,-79.25634,#1 &amp;2 - 125 SELECT AVE,Toronto,M1V 4A6,M1V
112,Toronto,589768,43.823498,-79.264908,9 GREEN SPRING DR,Toronto,M1V 2A9,M1V
113,The Beach,974000,43.674232,-79.307144,#508 - 60 Haslett Ave,Toronto,M4L 3R2,M4L
114,Rouge,899900,43.794567,-79.139496,#20 - 67 KIRKDENE DR,Toronto,M1C 2V6,M1C
115,Willowdale,440000,43.768181,-79.390923,#314 - 21 Clairtrell Rd,Toronto,M2N 5J6,M2N
116,Clairlea - Birchmount,699900,43.705116,-79.275864,94 JOHN BELL CRES,Toronto,M1L 0G5,M1L
117,Agincourt,339800,43.807129,-79.26754,#2008 - 5001 Finch Ave,Toronto,M1S 5J9,M1S
118,Weston,29000,43.70039,-79.51757,1926 Weston Rd,Toronto,M9N 1W4,M9N
119,Brockton Village,148800,43.651302,-79.440269,256-258 Lansdowne Ave,Toronto,M6H 3X9,M6H
120,Swansea,2295000,43.647377,-79.489571,16 Brule Terr,Toronto,M6S 1M3,M6S
121,Highland Creek,1790000,43.786411,-79.168175,6 FALCON LANE,Toronto,M1C 5J5,M1C
122,Swansea,449000,43.636173,-79.470757,#2410 - 105 The Queensway Ave,Toronto,M6S 5B5,M6S
123,Downtown,315000,43.637386,-79.398201,#317 - 38 Dan Leckie Way,Toronto,M5V 2V6,M5V
124,Old East York,80000,43.686436,-79.347542,941 Pape Ave,Toronto,M4K 3V4,M4K
125,Old Mill,1799000,43.651253,-79.493347,#902 - 30 OLD MILL RD,Toronto,M8X 0A5,M8X
126,Woburn,499000,43.745411,-79.224709,113 PORCHESTER DR,Toronto,M1J 2R4,M1J
127,Downsview,199000,43.717987,-79.511543,55 Beverly Hills Dr,Toronto,M3L 1A2,M3L
128,Newtonbrook,499900,43.780727,-79.419991,#11 - 49 HENDON AVE,Toronto,M2M 1A4,M2M
129,Thorncliffe Park,70000,43.705597,-79.345993,##1 - 45 Overlea Blvd,Toronto,M4H 1C3,M4H
131,Willowdale,409900,43.757988,-79.403625,#628 - 120 Harrison Garden Blvd,Toronto,M2N 0H1,M2N
132,Midtown Toronto,259900,43.687771,-79.396629,#100 - 60 St Clair Ave,Toronto,M4V 1M7,M4V
133,Downtown,298000,43.643326,-79.399147,#605 - 508 Wellington St,Toronto,M5V 1E3,M5V
134,Willowdale,315000,43.778439,-79.416069,#1107 - 5508 YONGE ST,Toronto,M2N 7L2,M2N
136,Midtown Toronto,85000,43.662281,-79.425575,737 Ossington Ave,Toronto,M6G 1M2,M6G
137,Rexdale,900000,43.713955,-79.557671,22 * REXDALE BLVD,Toronto,M9W 5Z3,M9W
138,Downsview,1299000,43.718197,-79.511131,51 Beverly Hills Dr,Toronto,M3L 1A2,M3L
139,Armdale,300,43.830791,-79.24955,#F-105 - 865 Passmore Ave,Toronto,M1X 0A2,M1X
140,Jane and Finch,299900,43.76395,-79.497574,#513 - 31 FOUR WINDS DR,Toronto,M3J 1K7,M3J
141,Toronto,289900,43.7248,-79.307953,#401 - 71 Jonesville Cres,Toronto,M4A,M4A
142,Armdale,300,43.830791,-79.24955,#F-106 - 865 Passmore Ave,Toronto,M1X 0A2,M1X
143,Agincourt,588000,43.785206,-79.277573,#B1 - 4227 Sheppard Ave,Toronto,M1S 5H5,M1S
144,Weston,352800,43.701572,-79.520187,#4603 - 1 King St,Toronto,M9N 1K8,M9N
145,Willowdale,388900,43.757996,-79.409592,#712 - 1 AVONDALE AVE,Toronto,M2N 7J1,M2N
146,Downtown,359900,43.660316,-79.376144,#1013 - 117 GERRARD ST E,Toronto,M5B 2L4,M5B
147,York University Heights,520000,43.751213,-79.464142,#106 - 1 De Boers Dr,Toronto,M3J 3E5,M3J
148,Bayview Village,304900,43.766296,-79.384674,#303 - 19 BARBERRY PL,Toronto,M2K 1G9,M2K
150,Rouge,1100900,43.794567,-79.139496,#10 - 67 KIRKDENE DR,Toronto,M1C 2V6,M1C
151,Downtown,344900,43.639343,-79.399841,#212 - 170 FORT YORK BLVD,Toronto,M5V 0E6,M5V
153,Jane and Finch,149000,43.745918,-79.515724,#1011 - 5 FRITH RD,Toronto,M3N 1E9,M3N
154,Downtown,340000,43.659237,-79.382904,#44 - 384 YONGE ST,Toronto,M5B 1S9,M5B
155,Riverdale,1895000,43.677761,-79.350021,469 DANFORTH AVE,Toronto,M4K 1P1,M4K
156,Willowdale,355000,43.778435,-79.41333,#1007 - 18 HOLMES AVE,Toronto,M2N 0E1,M2N
157,Midtown Toronto,1500000,43.672688,-79.388756,#101 - 10 Scollard St,Toronto,M5R 1E9,M5R
158,Midtown Toronto,150000,43.672398,-79.377792,#03 - 366 BLOOR ST E,Toronto,M4W 1H4,M4W
159,Downtown,379888,43.638477,-79.397987,#305 - 75 QUEENS WHARF RD,Toronto,M5V 0J8,M5V
160,Mimico,195000,43.617649,-79.520203,300 EVANS AVE,Toronto,M8Z 6C8,M8Z
161,Downtown,14500000,43.665607,-79.368355,531 PARLIAMENT ST,Toronto,M4X 1P3,M4X
162,Old Town,549888,43.653217,-79.368378,#818 - 323 RICHMOND ST E,Toronto,M5A 4S8,M5A
163,Downtown,389000,43.644699,-79.390953,#404 - 263 WELLINGTON ST W,Toronto,M5V 3E6,M5V
164,Downtown,349888,43.644012,-79.401154,#928 - 621 KING ST W,Toronto,M5V 1M5,M5V
165,Islington - City Centre West,379888,43.64286,-79.527222,#202 - 8 Fieldway Rd,Toronto,M8Z 0C3,M8Z
166,Downtown,379900,43.643486,-79.392303,#1201 - 352 FRONT ST W,Toronto,M5V 0K3,M5V
167,Agincourt,1058000,43.798389,-79.284401,#126 /12- 3250 MIDLAND AVE,Toronto,M1S 3K7,M1S
168,Edenbridge - Humber Valley,4495000,43.675777,-79.520844,95 Valecrest Dr,Toronto,M9A 4P5,M9A
169,Midtown Toronto,449990,43.696835,-79.393997,#505 - 68 MERTON ST,Toronto,M4S 0A7,M4S
170,Rouge,1,43.824635,-79.247475,#1 &amp; 2 - 2901 MARKHAM RD,Toronto,M1X 0B6,M1X
171,Bloor West Village,80000,43.649708,-79.483772,2422 BLOOR ST W,Toronto,M6S 1P9,M6S
172,Armdale,300,43.830791,-79.24955,#B-201 - 833 Passmore Ave,Toronto,M1X 0A2,M1X
173,Willowdale,468000,43.773746,-79.415512,#802 - 68 CANTERBURY PL,Toronto,M2N 1Y7,M2N
174,Armdale,300,43.830791,-79.24955,#F-104 - 865 Passmore Ave,Toronto,M1X 0A2,M1X
175,Downtown,355000,43.652222,-79.370872,#403 - 105 GEORGE ST,Toronto,M5A 0L4,M5A
176,Midtown Toronto,339000,43.705814,-79.402184,#B03 - 115 LEBOVIC AVE,Toronto,M4R 1A4,M4R
177,Armdale,220,43.830791,-79.24955,#E-106 - 855 Passmore Ave,Toronto,M1X 0A2,M1X
178,Parkdale,105000,43.640736,-79.434357,265 DUNN AVE,Toronto,M6K 2S1,M6K
179,Midtown Toronto,540000,43.673172,-79.389687,#1404 - 32 DAVENPORT RD,Toronto,M5R 0B5,M5R
180,Downtown,548800,43.659683,-79.386063,#907 - 750 BAY ST,Toronto,M5G 2J9,M5G
181,Armdale,220,43.830791,-79.24955,#E-105 - 855 Passmore Ave,Toronto,M1X 0A2,M1X
182,Midtown Toronto,468990,43.696835,-79.393997,#1302 - 68 MERTON ST,Toronto,M4S 0A7,M4S
183,Downtown,199000,43.666531,-79.385597,5 Irwin Ave,Toronto,M4Y 1K9,M4Y
184,Wallace Emerson,68888,43.659431,-79.438057,1196 BLOOR ST W,Toronto,M6H 1N2,M6H
185,Downtown,350000,43.647514,-79.3927,#3105 - 101 PETER ST,Toronto,M5V 0G6,M5V
186,Leslieville,1100000,43.672081,-79.323654,1396 GERRARD ST S,Toronto,M4L 1Z4,M4L
187,Birch Cliff,130000,43.689007,-79.278374,2560 GERRARD ST E,Toronto,M1N 1W8,M1N
188,Downtown,435000,43.659237,-79.382904,#72 - 384 YONGE ST,Toronto,M5B 1S9,M5B
189,Downtown,355000,43.653519,-79.373772,#802 - 127 QUEEN ST E,Toronto,M5C 1S1,M5C
190,Downtown,1049900,43.642578,-79.3769,#5303 - 16 HARBOUR ST,Toronto,M5J 2Y4,M5J
191,Downtown,1050000,43.652431,-79.362877,#108 - 393 KING ST,Toronto,M5A 1L3,M5A
193,Downtown,319800,43.659824,-79.362724,#1101 - 225 SACKVILLE ST E,Toronto,M5A 0B9,M5A
194,Downtown,578000,43.659328,-79.382675,#1121 - 386 YONGE ST,Toronto,M5G 2K2,M5G
195,Cliffside,539900,43.704655,-79.251816,#6 - 2229 KINGSTON RD,Toronto,M1N 1T8,M1N
196,Downtown,219000,43.650112,-79.374916,92 KING ST E,Toronto,M5C 2V8,M5C
197,Downtown,459800,43.655293,-79.375336,#903 - 76 SHUTER ST,Toronto,M5B 1B4,M5B
198,Mount Pleasant East,1599900,43.701202,-79.383499,4 BELLE AYRE BLVD,Toronto,M4S 2P7,M4S
199,The Beach,45000,43.670956,-79.296677,#2 Floo- 2076 QUEEN ST E,Toronto,M4E 1E1,M4E
200,Midtown Toronto,450990,43.696835,-79.393997,#613 - 68 MERTON ST,Toronto,M4S 0A7,M4S
201,Bedford Park,1848000,43.729828,-79.405182,48 BROOKDALE AVE,Toronto,M5M 1P3,M5M
202,Downtown,88000,43.664925,-79.385109,6 WELLESLEY ST W,Toronto,M4Y 1E7,M4Y
203,Downtown,1449000,43.665428,-79.369476,31 A WINCHESTER ST,Toronto,M4X 1A6,M4X
204,Dovercourt Park,649000,43.663422,-79.436707,1129 DUFFERIN ST,Toronto,M6H 4B7,M6H
205,Grange Park,79000,43.653717,-79.390907,#28 A - 109 MCCAUL ST,Toronto,M5T 2W7,M5T
206,Downtown,339000,43.639782,-79.397949,#218 - 151 DAN LECKIE WAY,Toronto,M5V 4B2,M5V
207,Bloorcourt Village,45000,43.6609,-79.429047,731 DOVERCOURT RD,Toronto,M6H 2W7,M6H
208,Downtown,438800,43.639782,-79.397949,#908 - 151 DAN LECKIE WAY,Toronto,M5V 4B2,M5V
209,Teddington Park,2999990,43.733463,-79.404228,3435 YONGE ST,Toronto,M4N 2N1,M4N
210,Englemount - Lawrence,899999,43.734875,-79.434105,17 STADACONA DR,Toronto,M6A 1Y5,M6A
211,Brockton Village,59000,43.652569,-79.43309,1118 COLLEGE ST,Toronto,M6H 1B6,M6H
212,Willowdale,489000,43.770878,-79.411964,#1106 - 238 DORIS AVE,Toronto,M2N 6W1,M2N
213,Carleton Village,799000,43.670349,-79.45211,100 WILTSHIRE AVE,Toronto,M6N 2V9,M6N
214,Downtown,449900,43.638477,-79.397987,#602 - 75 QUEENS WHARF RD,Toronto,M5V 0J8,M5V
215,Henry Farm,329000,43.774746,-79.336929,#405 - 275 YORKLAND RD,Toronto,M2J 1S3,M2J
216,Midtown Toronto,345990,43.696835,-79.393997,#403 - 68 MERTON ST,Toronto,M4S 0A7,M4S
217,Dorset Park,699000,43.764812,-79.280273,#7 - 1415 KENNEDY RD,Toronto,M1P 2L6,M1P
218,Bayview Village,6488000,43.779873,-79.372559,84 FOREST GROVE DR,Toronto,M2K 1Z7,M2K
219,Downtown,624900,43.643246,-79.40126,#913 - 55 STEWART ST,Toronto,M5V 2V8,M5V
220,L'Amoreaux,465000,43.797626,-79.30674,#4 - 270 TIMBERBANK BLVD,Toronto,M1W 2M1,M1W
221,Midtown Toronto,1319000,43.722679,-79.380157,#7 - 30 HARGRAVE LANE,Toronto,M4N 0A4,M4N
222,Milliken,230000,43.803909,-79.287033,4188 FINCH AVE E,Toronto,M1S 4T7,M1S
223,Bathurst Manor,170000,43.755169,-79.441742,650 SHEPPARD AVE W,Toronto,M3H 2S5,M3H
224,Eglinton East,199000,43.736816,-79.248703,2692 EGLINTON AVE E,Toronto,M1J 1A8,M1J
225,Leaside,95000,43.713066,-79.366119,#107 - 795 EGLINTON AVE E,Toronto,M4G 2L1,M4G
226,Bendale,399800,43.771385,-79.260765,#2101 - 115 OMNI DR,Toronto,M1P 5B4,M1P
227,Cliffcrest,799000,43.734745,-79.225739,25 BELLAMY RD S,Toronto,M1M 3N9,M1M
228,Dorset Park,50000,43.757881,-79.275833,#2 - 180 NANTUCKET BLVD,Toronto,M1P 2N9,M1P
229,Willowdale,629900,43.769981,-79.411751,#2302 - 28 EMPRESS AVE,Toronto,M2N 6Z7,M2N
230,Humber Summit,50900,43.767948,-79.546112,4250 WESTON RD,Toronto,M9L 1R4,M9L
231,Dorset Park,2399000,43.755421,-79.26712,1566 MIDLAND AVE,Toronto,M1P 3C2,M1P
232,Wexford - Maryvale,145500,43.757442,-79.312546,#6 - 85 ELLESMERE RD,Toronto,M1R 4C1,M1R
233,Agincourt,178000,43.805996,-79.287987,#B118 - 3272 MIDLAND AVE,Toronto,M1V 0C7,M1V
234,Bendale,398900,43.768902,-79.268333,#9 - 1220 ELLESMERE RD,Toronto,M1P 2X5,M1P
235,The Kingsway,419000,43.649673,-79.494484,#206 - 2662 BLOOR ST W,Toronto,M8X,M8X
236,Willowdale,332000,43.768181,-79.390923,#419 - 21 CLAIRTRELL RD,Toronto,M2N 5J6,M2N
237,Rouge,949900,43.794567,-79.139496,#18 - 67 KIRKDENE DR,Toronto,M1C 2V6,M1C
238,Long Branch,1199000,43.595394,-79.528358,3409 LAKE SHORE BLVD W,Toronto,M8W 1N2,M8W
239,Agincourt,329000,43.809391,-79.266144,#1501 - 30 THUNDER GRVE,Toronto,M1V 4A3,M1V
240,Silverthorn,990000,43.691364,-79.466621,#B - 24 VENN CRES,Toronto,M6M 1S4,M6M
241,Willowdale,999000,43.775993,-79.432739,206 B FINCH AVE W,Toronto,M2R 1M5,M2R
242,Bendale,418000,43.771309,-79.260719,#835 - 125 OMNI DR,Toronto,M1P 5A6,M1P
243,Malvern,529000,43.811443,-79.219551,35 PROSPERITY PTWY,Toronto,M1B 4H3,M1B
245,Newtonbrook,489900,43.780727,-79.419991,#21 - 49 HENDON AVE,Toronto,M2M 1A4,M2M
246,Agincourt,319500,43.786663,-79.269997,#4 - 4385 SHEPPARD AVE E,Toronto,M1S 1T8,M1S
247,Toronto,317000,43.824078,-79.273773,#701 - 80 ALTON TOWERS CIRC,Toronto,M1V 5E8,M1V
248,Eglinton West,300000,43.694233,-79.456284,2041 EGLINTON AVE W,Toronto,M6E 2K4,M6E
249,St. Andrew - Windfields,3538000,43.757244,-79.398636,55 FAIRMEADOW AVE,Toronto,M2P 1W8,M2P
250,Agincourt,950000,43.793625,-79.2771,37 LAURALYNN CRES,Toronto,M1S 2H5,M1S
251,Wexford - Maryvale,85000,43.72538,-79.299232,2926 EGLINTON AVE E,Toronto,M1L 2L1,M1L
253,Bayview Village,332000,43.769485,-79.368919,#1215 - 15 SINGER CRT,Toronto,M2K 0B4,M2K
254,Long Branch,1649000,43.596386,-79.523834,3289 -91 LAKESHORE BLVD W,Toronto,M8W 1M8,M8W
255,Malvern,437000,43.792263,-79.237587,#405 - 1585 MARKHAM RD,Toronto,M1B 2W1,M1B
256,Downtown,75000,43.650963,-79.397903,#219 - 222 SPADINA AVE,Toronto,M5T 3B3,M5T
257,Toronto,398800,43.761047,-79.410904,#157 - 4750 YONGE ST,Toronto,L4C 0M5,L4C
258,Willowdale,588800,43.760464,-79.410248,#811 - 2 ANNDALE DR,Toronto,M2N 0G5,M2N
259,Agincourt,105000,43.788311,-79.268082,#351 - 4438 SHEPPARD AVE E,Toronto,M1S 1V2,M1S
260,Downtown,387000,43.649567,-79.397865,#302 - 38 CAMERON ST,Toronto,M5T 0C3,M5T
261,Downtown,358000,43.67049,-79.38163,#1710 - 100 HAYDEN DR,Toronto,M4Y 3G2,M4Y
262,Thornhill,145000,43.823112,-79.36956,2300 John Street,Toronto,L3T 6G7,L3T
263,Little Portugal,299900,43.641697,-79.423431,#911 E - 36 LISGAR ST,Toronto,M6J 0A9,M6J
264,Silverthorn,279900,43.682056,-79.466515,475 D ROGERS RD,Toronto,M6M 1B2,M6M
265,Downtown,385000,43.667324,-79.372574,#805 - 225 WELLESLEY ST E,Toronto,M4X 1X8,M4X
266,Parma Court,320000,43.71833,-79.303375,# 301 - 45 SUNRISE AVE,Toronto,M4A 2S3,M4A
267,Niagara,374000,43.641579,-79.415901,#802 - 1030 KING ST W,Toronto,M6K 0B4,M6K
268,Downtown,329900,43.650372,-79.382347,#3604 - 70 TEMPERANCE ST,Toronto,M5H 3V5,M5H
269,Lansing,364900,43.760658,-79.41581,#903 - 88 SHEPPARD AVE,Toronto,M2N 1M5,M2N
270,Newtonbrook,334800,43.78017,-79.418251,#2601 - 15 GREENVIEW AVE,Toronto,M2M 4M7,M2M
271,Victoria Village,119000,43.728821,-79.329216,#108 - 1 CONCORDE GATE,Toronto,M3C 3N6,M3C
272,Golden Mile,299000,43.723164,-79.289505,#A121 - 41 LEBOVIC AVE,Toronto,M1L 4W1,M1L
273,Rouge,15000,43.801224,-79.199356,#4 - 1143 MORNINGSIDE AVE,Toronto,M1B 0A7,M1B
274,Bridlewood,299000,43.79488,-79.313713,#612 - 10 STONEHILL CRT,Toronto,M1W 2X8,M1W
275,Midtown Toronto,249000,43.671066,-79.385742,#R09 - 2 BLOOR ST E,Toronto,M4W 1A8,M4W
276,High Park North,369900,43.65572,-79.45649,#607 - 1638 BLOOR ST W,Toronto,M6P 1A7,M6P
277,Midtown Toronto,475000,43.696835,-79.393997,#714 - 68 MERTON ST,Toronto,M4S 0A7,M4S
278,The Beach,90000,43.668644,-79.305237,1889 Queen St,Toronto,M4L 1H3,M4L
279,Rexdale,749900,43.738457,-79.570892,1246 Albion Rd,Toronto,M9V 1A8,M9V
280,Earlscourt,2355000,43.683754,-79.451653,236 Nairn Ave,Toronto,M6E 4H4,M6E
281,West Hill,579000,43.77354,-79.190689,70 Falaise Rd,Toronto,M1E 3B7,M1E
282,Runnymede,725000,43.664024,-79.487305,33 Morland Rd,Toronto,M6S 2M7,M6S
283,Glen Park,698000,43.70895,-79.468628,36 Eugene St,Toronto,M6B 3Z4,M6B
284,Oakridge,3900000,43.694927,-79.276337,40 Danforth Rd,Toronto,M1L 3W4,M1L
285,Wallace Emerson,2900000,43.659016,-79.443916,21 Wade Ave,Toronto,M6H 1P4,M6H
286,Agincourt,679000,43.813965,-79.264297,34 Richmond Park Blvd,Toronto,M1V 3B6,M1V
287,Bendale,264900,43.774338,-79.252594,#902 - 61 Town Centre Crt,Toronto,M1P 5C6,M1P
288,The Beach,1095000,43.669979,-79.305237,20 Herbert Ave,Toronto,M4L 3P9,M4L
289,Downtown,129000,43.654774,-79.399788,161 Baldwin St,Toronto,M5T 1L9,M5T
290,Newtonbrook,188000,43.788799,-79.41777,6004 Yonge St,Toronto,M2M 3W2,M2M
291,Sunnylea,1400000,43.637974,-79.521782,6 Chauncey Ave,Toronto,M8Z 2Z2,M8Z
292,Downtown,3250000,43.656151,-79.370743,154 Shuter St,Toronto,M5A 1V9,M5A
293,Downtown,100000,43.669567,-79.388596,#13 - 55 Bloor St,Toronto,M4W 1A6,M4W
294,Newtonbrook,180000,43.786041,-79.417038,5851 Yonge Rd,Toronto,M2M 3V6,M2M
295,Downtown,288000,43.6562,-79.393417,26 Baldwin St,Toronto,M5T 1L2,M5T
296,The Beach,49000,43.671673,-79.293404,2142 Queen St,Toronto,M4E 1E3,M4E
297,Downtown,99900,43.647144,-79.378792,#C50 - 181 Bay St,Toronto,M5J 2T3,M5J
298,Downtown,369900,43.650906,-79.378456,127 YONGE ST,Toronto,M5C 1W4,M5C
299,Woburn,246900,43.78167,-79.247215,#1510 - 36 Lee Centre Dr,Toronto,M1H 3J7,M1H
300,Mimico,699000,43.624969,-79.478081,#304A - 59 Annie Craig Dr,Toronto,M8V 0C4,M8V
301,York University Heights,1500000,43.751213,-79.464142,#107 - 1 De Boers Dr,Toronto,M3J 3E5,M3J
302,Brookhaven,225000,43.697231,-79.490097,#2410 - 10 Martha Eaton Way,Toronto,M6M 4C2,M6M
303,Bayview Village,534998,43.767937,-79.387955,#724 - 2885 Bayview Ave,Toronto,M2K 0A3,M2K
304,Long Branch,1499000,43.593056,-79.534187,31 Marina Ave,Toronto,M8W 1K4,M8W
305,Parkdale,330000,43.635578,-79.441345,2167 Lake Shore Blvd,Toronto,M6K 3C1,M6K
306,Parkdale,270000,43.635578,-79.441345,2167 Lake Shore Blvd,Toronto,M6K 3C1,M6K
307,Silverthorn,65000,43.682381,-79.468735,528 Rogers Rd,Toronto,M6M 1B3,M6M
309,Rexdale,649000,43.732437,-79.591125,18 Mosque Cres,Toronto,M9V 4J2,M9V
310,Cliffcrest,2599000,43.720974,-79.225662,9 Fenwood Hts,Toronto,M1M 2V6,M1M
311,Sunnylea,1400000,43.63802,-79.521591,4 Chauncey Ave,Toronto,M8Z 2Z2,M8Z
312,Downtown,3500,43.666531,-79.385597,5 Irwin Ave,Toronto,M4Y 1K9,M4Y
314,York Mills,7600000,43.746357,-79.382523,6 Wilket Rd,Toronto,M2L 1N6,M2L
315,Parkdale,2200000,43.63681,-79.432549,153 DUNN AVE,Toronto,M6K 2R8,M6K
316,Niagara,395000,43.643013,-79.406204,#412 - 775 KING ST W,Toronto,M5V 2K3,M5V
317,Downtown,129000,43.642742,-79.374107,1 YONGE ST,Toronto,M5E 1W7,M5E
318,Downtown,90000,43.643227,-79.37619,16 YONGE ST,Toronto,M5E 2A1,M5E
319,Old Town,349900,43.653126,-79.369339,#204 - 311 Richmond St,Toronto,M5A 1P2,M5A
320,Midtown Toronto,559000,43.670319,-79.394432,#2007 - 155 Yorkville Ave,Toronto,M5R 1C4,M5R
321,Kingsview Village,149900,43.695709,-79.557632,#409 - 390 Dixon Rd,Toronto,M9R 4B9,M9R
322,Don Mills,278000,43.747749,-79.348656,#A203 - 16 Mallard Rd,Toronto,M3B 3N1,M3B
323,Jane and Finch,185000,43.758179,-79.519676,#103 - 1 York Gate Blvd,Toronto,M3N 3A1,M3N
324,Don Valley Village,1268000,43.788349,-79.343178,157 Kingslake Rd,Toronto,M2J 3G4,M2J
325,Downtown,243900,43.659454,-79.360992,#711 - 55 Regent Park Blvd,Toronto,M5A 2B7,M5A
326,Newtonbrook,1788000,43.79002,-79.40284,313 Cummer Ave,Toronto,M2M 2E8,M2M
327,Willowdale,459000,43.777355,-79.41275,#1210 - 60 Byng Ave,Toronto,M2N 7K3,M2N
328,Downtown,1345800,43.646809,-79.390182,#4011 - 80 John St,Toronto,M5V 3X4,M5V
330,Bayview Village,314900,43.767689,-79.382263,#506 - 27 Rean Dr,Toronto,M2K 0A6,M2K
331,Toronto,99000,43.653225,-79.383186,1871 O&#39;connor Dr,Toronto,M5G 1P5,M5G
332,Old Mill,4588000,43.650284,-79.498947,100 Old Mill Rd,Toronto,M8X 1G9,M8X
333,Weston,164888,43.701397,-79.511627,2010 Lawrence Ave,Toronto,M9N 1H4,M9N
334,Midtown Toronto,449000,43.671303,-79.384689,#1512 - 8 Park Rd,Toronto,M4W 1A8,M4W
335,Rouge,399000,43.821304,-79.246292,#D33 - 2761 Markham Rd,Toronto,M1X 0A4,M1X
336,York Mills,3300000,43.744301,-79.387367,125 Highland Cres,Toronto,M2L 1H2,M2L
337,Teddington Park,89000,43.734268,-79.404373,3471 Yonge St,Toronto,M4N 2N3,M4N
338,Willowdale,329900,43.775791,-79.434486,#303 - 222 Finch Ave,Toronto,M2R 1M6,M2R
339,Downtown,540000,43.661133,-79.376541,#1406 - 298 Jarvis St,Toronto,M5B 2M4,M5B
340,Midtown Toronto,99000,43.662601,-79.423729,834 Bloor St,Toronto,M6G 1M2,M6G
341,Downtown,969900,43.642273,-79.372704,#322 - 29 Queens Quay,Toronto,M5E 1L7,M5E
342,Dufferin Grove,139900,43.653599,-79.427399,962 College St,Toronto,M6H 1A5,M6H
343,Downsview,259900,43.72578,-79.480759,#402 - 2737 Keele St,Toronto,M3M 2E9,M3M
344,Pelmo Park,1299900,43.711792,-79.511017,57 Ettrick Cres,Toronto,M9N 2K7,M9N
345,West Queen West,2550000,43.646584,-79.405861,711 Queen St,Toronto,M6J 1E6,M6J
347,Willowdale,529900,43.757988,-79.403625,#1409 - 120 Harrison Garden Blvd,Toronto,M2N 0H1,M2N
348,Rexdale,1199900,43.715092,-79.586617,355 Rexdale Blvd,Toronto,M9W 1R9,M9W
349,Midtown Toronto,65000,43.717457,-79.400139,2721 Yonge St,Toronto,M4N 2J2,M4N
350,The Junction,69000,43.666023,-79.464569,#1 - 395 Keele St,Toronto,M6P 2K9,M6P
351,Downtown,229500,43.666409,-79.404961,#406 - 421 Bloor St,Toronto,M5S 1X6,M5S
352,Milliken,175000,43.800751,-79.300117,#405 - 3852 Finch Ave,Toronto,M1T 3T9,M1T
354,Glen Park,1679900,43.707783,-79.464478,118 Glen Long Ave,Toronto,M6B 2M5,M6B
355,Flemingdon Park,259000,43.719769,-79.331573,250 Ferrand Dr,Toronto,M3C 3G8,M3C
356,High Park-Swansea,75000,43.655251,-79.456726,1675 Bloor St,Toronto,M6P 1A6,M6P
357,Glen Park,55000,43.708748,-79.443909,831 Glencairn Ave,Toronto,M6B 3J4,M6B
358,Riverdale,129000,43.67952,-79.342903,730 Danforth Ave,Toronto,M4J 1L5,M4J
359,Downtown,359900,43.652222,-79.370872,#1114 - 105 George St,Toronto,M5A 0L4,M5A
360,York Mills,14800000,43.739323,-79.391823,31 Knightswood Rd,Toronto,M4N 2H2,M4N
361,Downtown,394900,43.638866,-79.398438,#2003 - 85 QUEENS WHARF RD S,Toronto,M5V 1A9,M5V
362,Dufferin Grove,1199000,43.653893,-79.430649,7 Lindsey Ave,Toronto,M6H 1C8,M6H
363,Downtown,69000,43.651176,-79.384178,123 QUEEN ST W,Toronto,M5H 2N2,M5H
364,Midtown Toronto,8995000,43.676708,-79.374054,157 SOUTH DR,Toronto,M4W 1S3,M4W
365,Leslieville,1299999,43.667385,-79.334412,#7 - 175 Jones Ave,Toronto,M4M 3A2,M4M
366,The Beach,7700000,43.669548,-79.303482,1930 QUEEN ST E,Toronto,M4L 1H6,M4L
367,Windfields,5998000,43.746918,-79.376839,24 Daleberry Pl,Toronto,M3B 2A7,M3B
368,West Hill,959900,43.773384,-79.17717,389 MANSE RD,Toronto,M1E 3V5,M1E
370,Wexford - Maryvale,498000,43.757233,-79.288803,#306 - 1483 BIRCHMOUNT RD,Toronto,M1P 2G4,M1P
371,Parkwoods - Donalda,324900,43.752785,-79.332695,#507 - 18 VALLEY WOODS RD,Toronto,M3A 0A1,M3A
372,Oakridge,874900,43.690853,-79.283287,1 Kenworthy Ave,Toronto,M1L 3B1,M1L
373,Mimico,369500,43.624401,-79.491013,#327 - 200 Manitoba St,Toronto,M8Y 3Y9,M8Y
374,Henry Farm,329000,43.773922,-79.345726,#1212 - 62 FOREST MANOR RD,Toronto,M2J 0B6,M2J
375,Mimico,749000,43.624207,-79.488228,#3026 - 165 Legion Rd,Toronto,M8Y 0B3,M8Y
377,Newtonbrook,549900,43.780727,-79.419991,#44 - 49 Hendon Ave,Toronto,M2M 1A4,M2M
379,Milliken,178000,43.823952,-79.302422,4675 Steeles Ave,Toronto,M1V 0B7,M1V
380,Amesbury,59900,43.703178,-79.476822,2296 KEELE ST,Toronto,M6M 3Z8,M6M
381,Sunnylea,1799000,43.647602,-79.509544,2983 BLOOR ST W,Toronto,M8X 1C1,M8X
382,Downtown,415000,43.641632,-79.38205,#2305 - 12 York St,Toronto,M5J 2T8,M5J
383,Mimico,313800,43.622883,-79.481972,#3805 - 2200 LAKESHORE BLVD W,Toronto,M8V 1A4,M8V
384,Mimico,479000,43.621613,-79.482918,#207 - 2230 LAKESHORE BLVD W,Toronto,M8V 0B2,M8V
385,Willowdale,519000,43.760998,-79.410202,#903 - 4789 Yonge St,Toronto,M2N 0G3,M2N
387,York Mills,3300000,43.7421,-79.383804,103 Bayview Rdge,Toronto,M2L 1E3,M2L
388,Willowdale,409000,43.757233,-79.404686,#1717 - 100 Harrison Garden Blvd,Toronto,M2N 2T2,M2N
389,Woburn,699000,43.755348,-79.238785,43B Burnview Cres,Toronto,M1H 1B4,M1H
390,Woburn,1650000,43.755348,-79.238785,43 Burnview Cres,Toronto,M1H 1B4,M1H
391,Downtown,429800,43.659237,-79.382904,#76 - 384 Yonge St,Toronto,M5B 1S9,M5B
392,Bayview Village,305000,43.765289,-79.382339,#304 - 3 Rean Dr,Toronto,M2K 3C2,M2K
394,Silverthorn,499900,43.683189,-79.465988,240 Chambers Ave,Toronto,M6M 3L5,M6M
395,Willowdale,469000,43.77795,-79.41169,#4 - 432 Kenneth Ave,Toronto,M2N 7M3,M2N
396,Downtown,619000,43.669643,-79.380608,#304 - 101 Charles St,Toronto,M4Y 0A9,M4Y
397,Rexdale,155000,43.722031,-79.543945,#Ph2 - 236 Albion Rd,Toronto,M9W 6A6,M9W
399,Downtown,588000,43.668777,-79.383995,#710 - 45 Charles St,Toronto,M4Y 1S2,M4Y
400,Willowdale,369000,43.760998,-79.410202,#902 - 4789 Yonge St,Toronto,M2N 0G3,M2N
401,Fairbank,648888,43.687756,-79.447212,2094 Dufferin St,Toronto,M6E 3R7,M6E
402,Windfields,6980000,43.737885,-79.366577,25 Alderbrook Dr,Toronto,M3B 1E3,M3B
404,Dufferin Grove,69990,43.660366,-79.432594,1063 Bloor St,Toronto,M6H 1M5,M6H
405,Sunnylea,1519900,43.636932,-79.510468,41 Fernalroy Blvd,Toronto,M8Z 3W2,M8Z
406,Willowdale,2750000,43.779331,-79.406792,109 Holmes Ave,Toronto,M2N 4M3,M2N
407,Downtown,501888,43.659328,-79.382675,#706 - 386 Yonge St,Toronto,M5G 2K2,M5G
408,Weston,49000,43.69976,-79.518494,2088A Lawrence Ave,Toronto,M9N 1J1,M9N
409,Newtonbrook,3488000,43.793121,-79.403069,161 Northwood Dr,Toronto,M2M 2K2,M2M
410,Leslieville,934375,43.667133,-79.334404,#10 - 169 Jones Ave,Toronto,M4M 3A2,M4M
411,Downtown,275000,43.657322,-79.400246,454 Spadina Ave,Toronto,M5T 2G8,M5T
413,Downtown,689000,43.659328,-79.382675,#1204 - 386 Yonge St,Toronto,M5G 2K2,M5G
414,Downtown,95000,43.667515,-79.385025,#2 - 9 Isabella St,Toronto,M4Y 1M7,M4Y
415,Newtonbrook,588800,43.780727,-79.419991,#92 - 49 Hendon Ave,Toronto,M2M 1A4,M2M
416,Downtown,328800,43.668777,-79.383995,#609 - 45 Charles St,Toronto,M4Y 1S2,M4Y
417,Birch Cliff,1299000,43.680233,-79.281029,162 Blantyre Ave,Toronto,M1N 2R5,M1N
418,Emery,109900,43.749187,-79.542702,#1101 - 3390 Weston Rd,Toronto,M9M 2X3,M9M
419,Newtonbrook,2988000,43.786377,-79.410995,12 Silverview Dr,Toronto,M2M 2B3,M2M
421,Downtown,329900,43.660709,-79.378845,#901 - 365 Church St,Toronto,M5B 1Z9,M5B
422,Downtown,558888,43.642273,-79.372704,#902 - 29 Queens Quay,Toronto,M5E 1L7,M5E
423,Richview,449900,43.67664,-79.564476,#109 - 5 Richgrove Dr,Toronto,M9R 0A3,M9R
424,Leslieville,965800,43.664501,-79.330902,142 LESLIE ST,Toronto,M4M 3C7,M4M
425,Downtown,459000,43.651768,-79.374718,#206 - 55 Lombard St,Toronto,M5C 2R7,M5C
426,Earlscourt,699000,43.674339,-79.460411,1742 St Clair Ave,Toronto,M6N 1J3,M6N
428,Downsview,1399000,43.730968,-79.522255,163 Fred Young Dr,Toronto,M3L 1E8,M3L
429,Agincourt,1499999,43.799702,-79.29248,24 BELLBROOK RD,Toronto,M1S 1J4,M1S
430,Willowdale,499000,43.757233,-79.404686,#1902 - 100 Harrison Garden Blvd,Toronto,M2N 2T2,M2N
432,West Queen West,2550000,43.646584,-79.405861,711 Queen St,Toronto,M6J 1E6,M6J
433,Midtown Toronto,9999000,43.665081,-79.412689,584 Bloor St,Toronto,M6G 1K4,M6G
434,Willowdale,3578888,43.78006,-79.404915,138 HOLMES AVE,Toronto,M2N 4M6,M2N
435,Downtown,555000,43.667828,-79.390923,#407 - 110 Charles St,Toronto,M5S 2Z1,M5S
436,Old East York,99000,43.687981,-79.348289,978 PAPE AVE,Toronto,M4K 3V8,M4K
437,The Kingsway,525000,43.648132,-79.508591,2962 Bloor St,Toronto,M8X 2J2,M8X
438,Brookhaven,225000,43.697231,-79.490097,#311 - 10 MARTHA EATON WAY,Toronto,M6M 4C2,M6M
439,Islington - City Centre West,1998000,43.650887,-79.540085,201 Burnhamthorpe Rd,Toronto,M9B 1Z2,M9B
440,Willowdale,1628000,43.773258,-79.403107,179 Parkview Ave,Toronto,M2N 5A3,M2N
441,Kingsview Village,487000,43.697674,-79.545158,1 MAPLEBRANCH PATH,Toronto,M9P 3T4,M9P
442,Weston,319900,43.708447,-79.505974,#2106 - 224 King St,Toronto,M9N 1L7,M9N
443,The Kingsway,75000,43.661293,-79.509171,4168 Dundas St,Toronto,M8X 1X3,M8X
444,Lansing,1998000,43.759079,-79.413788,71 POYNTZ AVE,Toronto,M2N 1H9,M2N
446,Willowdale,399900,43.769665,-79.41378,#508 - 5162 Yonge St,Toronto,M2N 0E9,M2N
447,Henry Farm,359000,43.774376,-79.346603,#1311 - 66 FOREST MANOR RD,Toronto,M2J 0B7,M2J
448,The Beach,829800,43.669735,-79.302055,#406 - 1960 Queen St,Toronto,M4L 1H8,M4L
449,Downtown,1099000,43.659534,-79.382828,#7102 - 388 Yonge St,Toronto,M5G 2K2,M5G
450,Bathurst Manor,345000,43.752201,-79.456841,#507 - 906 SHEPPARD AVE W,Toronto,M3H 2T5,M3H
452,Armdale,239900,43.819328,-79.253868,#90 - 80 Nashdene Rd,Toronto,M1V 5E4,M1V
454,Newtonbrook,2988000,43.791035,-79.402832,2 Geranium Crt,Toronto,M2M 0A2,M2M
455,Willowdale,739900,43.760464,-79.410248,#208 - 2 Anndale Dr,Toronto,M2N 0G5,M2N
456,Belgravia,810000,43.698753,-79.448181,474 Whitmore Ave,Toronto,M6E 2N7,M6E
457,Newtonbrook,1998000,43.791561,-79.414207,40 Tobruk Cres,Toronto,M2M 3B6,M2M
458,Downtown,339000,43.659237,-79.382904,#121 - 384 Yonge St,Toronto,M5B 1S9,M5B
459,Downtown,415000,43.647224,-79.391098,#1207 - 21 Widmer St,Toronto,M5V 0B8,M5V
460,Parkdale,510000,43.635578,-79.441345,#2902 - 2167 LAKESHORE BLVD,Toronto,M6K 3C1,M6K
461,Rustic,799000,43.715637,-79.50106,91 BECKETT AVE,Toronto,M6L 2B3,M6L
462,Willowdale,348000,43.775791,-79.434486,#214 - 222 Finch Ave,Toronto,M2R 1M6,M2R
463,Tam O'Shanter,125000,43.784351,-79.292191,#0020 - 3850 SHEPPARD AVE E,Toronto,M1T 3L3,M1T
464,Fairbank,1199999,43.698002,-79.454231,96 FAIRBANK AVE,Toronto,M6E 3Y7,M6E
465,Mount Dennis,1100000,43.692352,-79.499771,18 COBALT ST,Toronto,M6M 2K1,M6M
466,Bendale,1999900,43.770813,-79.26506,7 Golden Gate Crt,Toronto,M1P 3A4,M1P
467,Downsview,899900,43.733566,-79.488663,66 TAVISTOCK RD,Toronto,M3M 2N9,M3M
468,Downtown,1608888,43.659328,-79.382675,#5710 - 386 Yonge St,Toronto,M5G 2K2,M5G
469,York Mills,3195000,43.74197,-79.40274,6 OLD YONGE ST,Toronto,M2P 1P7,M2P
470,Emery,115000,43.749187,-79.542702,#1108 - 3390 Weston Rd,Toronto,M9M 2X3,M9M
471,Rexdale,497900,43.752983,-79.61972,12 Steinway Blvd,Toronto,M9W,M9W
472,Downtown,899900,43.669716,-79.364693,2 ST JAMES CRT,Toronto,M4X 1X4,M4X
473,Milliken,829900,43.818554,-79.277954,26 Hutchcroft Ave,Toronto,M1V 1Z4,M1V
474,Willowdale,1888000,43.783482,-79.396431,276 Estelle Ave,Toronto,M2N 5J5,M2N
475,The Junction,499900,43.666733,-79.463661,#Ph1610 - 61 HEINTZMAN ST,Toronto,M6P 2J7,M6P
476,Midtown Toronto,120000,43.67411,-79.388977,920 YONGE ST,Toronto,M4W 2J2,M4W
477,Rexdale,689999,43.750072,-79.593987,47 Murchison Cres,Toronto,M9V 3P5,M9V
478,Downtown,145000,43.647423,-79.396591,8 Camden Street,Toronto,M5V 1V1,M5V
479,Downtown,769000,43.669151,-79.387375,#1803 - 21 Balmuto St,Toronto,M4Y 1W4,M4Y
480,Downtown,479900,43.64613,-79.375778,#2607 - 8 THE ESPLANADE AVE,Toronto,M5E 0A6,M5E
481,Downtown,445000,43.659237,-79.382904,#47 - 384 Yonge St,Toronto,M5B 1S9,M5B
482,West Hill,189900,43.767445,-79.183739,#1708 - 90 Ling Rd,Toronto,M1E 4Y3,M1E
483,Parkdale,149900,43.640388,-79.438339,1508 QUEEN ST W,Toronto,M6R 1A4,M6R
484,Downtown,320000,43.643486,-79.392303,#811 - 352 Front St,Toronto,M5V 0K3,M5V
485,Downtown,279000,43.640259,-79.381729,208 QUEENS QUAY,Toronto,M5V 3L9,M5V
486,Downtown,569999,43.641346,-79.372421,#906 - 39 Queens Quay,Toronto,M5E 0A4,M5E
487,Niagara,629000,43.63641,-79.402,#1808 - 21 GRAND MAGAZINE ST,Toronto,M5V 1B5,M5V
488,Niagara,674000,43.638874,-79.419273,#510 - 43 Hanna Ave,Toronto,M6K 1X1,M6K
490,York Mills,3998000,43.744694,-79.386444,136 Highland Cres,Toronto,M2L 1H1,M2L
491,Downtown,625000,43.652451,-79.388931,#2408 - 210 Simcoe St,Toronto,M5T 0A9,M5T
492,Willowdale,343000,43.768574,-79.389618,#427 - 399 SPRING GARDEN AVE,Toronto,M2N 3H6,M2N
493,Mimico,485000,43.621376,-79.483429,#103 - 15 Legion Rd,Toronto,M8V 0B1,M8V
494,Alderwood,777000,43.604153,-79.546593,554 BROWNS LINE,Toronto,M8W 3V4,M8W
495,Old Mill,1249000,43.651253,-79.493347,#407 - 30 Old Mill Rd,Toronto,M8X 0A5,M8X
496,Agincourt,283000,43.779205,-79.281517,#2716 - 181 VILLAGE GREEN SQ,Toronto,M1S 0K5,M1S
497,Belgravia,799900,43.69767,-79.441757,1542 Eglinton Ave,Toronto,M6E 2G8,M6E
498,Downtown,718800,43.659237,-79.382904,#51 - 384 Yonge St,Toronto,M5B 1S9,M5B
499,Mimico,348900,43.624306,-79.480461,#1102 - 2175 LAKE SHORE BLVD W,Toronto,M8V 1A2,M8V
500,Willowdale,349000,43.758064,-79.409622,#301 - 4665 Yonge St,Toronto,M2N 0B4,M2N
501,Downtown,1598000,43.664982,-79.374947,59 Homewood Ave,Toronto,M4Y 2K1,M4Y
502,Pleasant View,309900,43.777275,-79.337051,# 1807 - 5 OLD SHEPPARD AV,Toronto,M2J 4K3,M2J
503,Downtown,499000,43.668777,-79.383995,#3611 - 45 Charles St,Toronto,M4Y 1S2,M4Y
504,Pelmo Park,1195000,43.708431,-79.518684,10 RANWOOD DR,Toronto,M9N 3E8,M9N
505,Downtown,219000,43.65517,-79.402069,255 Augusta Ave,Toronto,M5T 2L8,M5T
506,Humber Summit,199900,43.748459,-79.568283,#910 - 2825 ISLINGTON AVE,Toronto,M9L 2L2,M9L
507,Bridle Path,10800000,43.733089,-79.369225,20 High Point Rd,Toronto,M3B 2A4,M3B
508,York University Heights,195000,43.757763,-79.475639,3909 Chesswood Drive,Toronto,M3J 2R8,M3J
509,Newtonbrook,80000,43.78019,-79.443619,21 Transwell Ave,Toronto,M2R 2J7,M2R
510,Don Valley Village,479000,43.779346,-79.353844,#151 - 9 ESTERBROOKE AVE,Toronto,M2J 1J8,M2J
511,Downtown,439000,43.641632,-79.38205,#1703 - 12 York St,Toronto,M5J 2T8,M5J
512,Port Union,968000,43.791492,-79.1558,9 VALMOUNT AVE,Toronto,M1C 1P3,M1C
513,Newtonbrook,2499000,43.779377,-79.441811,16 ROBSON PL,Toronto,M2R 2Y4,M2R
514,Rexdale,434300,43.745731,-79.605835,#14 - 30 Baywood Rd,Toronto,M9V 3Y8,M9V
515,Wexford - Maryvale,495000,43.757233,-79.288803,#304 - 1483 BIRCHMOUNT RD,Toronto,M1P 2G4,M1P
516,Rexdale,3500000,43.745731,-79.605835,#1-6 - 30 Baywood Rd,Toronto,M9V 3Y8,M9V
517,Henry Farm,388000,43.774895,-79.345955,#1107 - 70 FOREST MANOR RD,Toronto,M2J 1G2,M2J
518,Downtown,418000,43.659237,-79.382904,#64 - 384 Yonge St,Toronto,M5B 1S9,M5B
519,Leaside,2495000,43.703686,-79.36467,877 MILLWOOD RD,Toronto,M4G 1W8,M4G
520,Downtown,59000,43.657684,-79.402359,316 COLLEGE ST,Toronto,M5T 1S2,M5T
521,Downtown,290000,43.654591,-79.40097,187 BALDWIN ST,Toronto,M5T 1M1,M5T
522,Toronto,5498000,43.739929,-79.383339,110 ARJAY CRES,Toronto,M2L 1C7,M2L
523,Swansea,3450000,43.645954,-79.487663,65 BRULE GDNS,Toronto,M6S 4J5,M6S
524,Agincourt,879000,43.792721,-79.274506,4 CANHAM CRES,Toronto,M1S 2H7,M1S
525,Mimico,419000,43.62273,-79.483192,#304 - 2220 LAKE SHORE BLVD W,Toronto,M8V 0C1,M8V
526,Mimico,614700,43.619488,-79.488205,26 VICTORIA ST,Toronto,M8V 1M6,M8V
527,Lawrence Heights,59000,43.716656,-79.447258,#8 - 700 LAWRENCE AVE W,Toronto,M6A 3B4,M6A
528,Weston,899000,43.708218,-79.534134,2464 WESTON RD,Toronto,M9N 0A2,M9N
529,Willowdale,519000,43.757988,-79.403625,#1709 - 120 Harrison Garden Blvd,Toronto,M2N 0H1,M2N
530,Lansing,648000,43.760517,-79.411743,#1202 - 11 Bogert Ave,Toronto,M2N 0H3,M2N
531,Willowdale,309900,43.760181,-79.408218,#309 - 35 Bales Ave,Toronto,M2N 7L7,M2N
532,Leslieville,940700,43.667133,-79.334404,#9 - 169 Jones Ave,Toronto,M4M 3A2,M4M
533,Rouge,289000,43.835026,-79.250862,#104 - 3331 Markham Rd,Toronto,M1X 1S8,M1X
534,Rouge,289000,43.835026,-79.250862,#103 - 3331 Markham Rd,Toronto,M1X 1S8,M1X
535,Emery,130000,43.749187,-79.542702,#1103 - 3390 Weston Rd,Toronto,M9M 2X3,M9M
536,Downtown,489000,43.647224,-79.391098,#2205 - 21 Widmer St,Toronto,M5V 0B8,M5V
537,Willowdale,3980000,43.772743,-79.393814,362 Princess Ave,Toronto,M2N 3S8,M2N
538,Bayview Village,328800,43.767689,-79.382263,#509 - 27 Rean Dr,Toronto,M2K 0A6,M2K
539,Clairlea - Birchmount,1299000,43.702461,-79.292351,54 Pitt Ave,Toronto,M1L 2R4,M1L
540,Birch Cliff,724900,43.68222,-79.279739,1204 Kingston Rd,Toronto,M1N 1N8,M1N
541,Downtown,960000,43.648788,-79.372536,#412 - 81A Front St,Toronto,M5E 1Z7,M5E
542,Rexdale,629900,43.715172,-79.567993,2079 Kipling Ave,Toronto,M9W 4K3,M9W
543,Caribou Park,2680000,43.717716,-79.428337,195 Caribou Rd,Toronto,M5N 2B5,M5N
544,Midtown Toronto,2295000,43.687592,-79.412613,386 Spadina Rd,Toronto,M5P 2V9,M5P
546,Mount Dennis,499000,43.689041,-79.49234,15 Denarda St,Toronto,M6M 4T2,M6M
547,High Park North,2200000,43.654484,-79.469658,62 Gothic Ave,Toronto,M6P 2V9,M6P
548,Richview,1548000,43.691811,-79.555588,10 Hawthorne Rd,Toronto,M9R 1P1,M9R
549,Jane and Finch,149900,43.745918,-79.515724,#304 - 5 Frith Rd,Toronto,M3N 1E9,M3N
550,Downsview,174900,43.737915,-79.51136,#725 - 2645 Jane St,Toronto,M3L 1R9,M3L
551,Maple Leaf,1495000,43.709042,-79.49839,423 Queen&#39;s Dr,Toronto,M6L 3E1,M6L
552,Scarborough Village,3670000,43.734341,-79.213409,41 Hill Cres,Toronto,M1M 1J3,M1M
553,York Mills,6995000,43.743458,-79.392929,69 Highland Cres,Toronto,M2L 1G7,M2L
555,Willowdale,419800,43.769665,-79.41378,#808 - 5162 Yonge St,Toronto,M2N 0E9,M2N
556,Dorset Park,199000,43.748924,-79.275459,1060 Kennedy Rd,Toronto,M1P 2K7,M1P
557,Weston,259900,43.70079,-79.511627,#2 - 2013 Lawrence Ave,Toronto,M9N 1H4,M9N
558,Yorkdale,178500,43.716667,-79.455254,3129 Dufferin St,Toronto,M6A 2S9,M6A
559,Downtown,409900,43.655098,-79.375763,#1608 - 64 Shuter St,Toronto,M5B 1B1,M5B
560,Rouge,324999,43.836353,-79.250473,#108 - 3351 Markham Rd,Toronto,M1X 0A6,M1X
561,Wilson Heights,2589000,43.735573,-79.443596,438 Wilson Ave,Toronto,M3H 1T9,M3H
562,Old Mill,1525000,43.651253,-79.493347,#603 - 30 Old Mill Rd,Toronto,M8X 0A5,M8X
563,Midtown Toronto,10900000,43.675232,-79.378601,20 ELM AVE,Toronto,M4W 1N3,M4W
564,The Beach,349000,43.669174,-79.302444,1953 QUEEN ST E,Toronto,M4L 1H7,M4L
565,The Beach,1260000,43.669434,-79.302422,1951 QUEEN ST E,Toronto,M4L 1H7,M4L
566,Midtown Toronto,1529000,43.673782,-79.393517,39 BISHOP ST,Toronto,M5R 1N3,M5R
567,Leaside,2869900,43.714367,-79.370895,82 DIVADALE DR,Toronto,M4G 2P2,M4G
568,Alderwood,1398000,43.60165,-79.546326,514 HORNER AVE,Toronto,M8W 2C1,M8W
569,Jane and Finch,170000,43.756096,-79.517288,3945 JANE ST,Toronto,M3N 2K1,M3N
570,Mimico,98000,43.618938,-79.494659,1 Audley Street,Toronto,M8Y 2X3,M8Y
571,Agincourt,860000,43.795277,-79.272079,2260 BRIMLEY RD,Toronto,M1S 2B6,M1S
572,Emery,469500,43.748669,-79.530884,#8 - 789 ARROW RD,Toronto,M9M 2L4,M9M
574,Newtonbrook,3388000,43.795185,-79.40284,179 Maxome Ave,Toronto,M2M 3L1,M2M
575,Rexdale,109000,43.722031,-79.543945,#102 - 236 Albion Rd,Toronto,M9W 6A6,M9W
576,Willowdale,438000,43.760998,-79.410202,#315 - 4789 Yonge St,Toronto,M2N 0G3,M2N
577,Midtown Toronto,159000,43.687897,-79.396156,48 St.Clair Ave,Toronto,M4V 2Z2,M4V
578,Midtown Toronto,1358000,43.670319,-79.394432,#2313 - 155 Yorkville Ave,Toronto,M5R 1C4,M5R
579,Roncesvalles Village,1199000,43.654335,-79.452225,2243 Dundas St,Toronto,M6R 1X6,M6R
580,Rexdale,419900,43.731674,-79.576454,#1012 - 80 Esther Lorrie Dr,Toronto,M9W 4L7,M9W
581,Scarborough Village,799900,43.740292,-79.213455,73 Brinloor Blvd,Toronto,M1M 1L4,M1M
582,Long Branch,1079000,43.587688,-79.541992,33 Forty-Second St,Toronto,M8W 3P3,M8W
583,Long Branch,1699999,43.596199,-79.525291,3335 Lake Shore Blvd,Toronto,M8W 1N1,M8W
584,Newtonbrook,398000,43.779842,-79.44577,#1005 - 115 Antibes Dr,Toronto,M2R 2Z1,M2R
585,Victoria Village,935000,43.730347,-79.328224,#Ph 16 - 18 Concorde Pl,Toronto,M3C 3N4,M3C
586,Downtown,459900,43.646656,-79.394127,#902 - 36 Charlotte St,Toronto,M5V 3P7,M5V
587,Steeles,398000,43.814705,-79.325653,##1128 - 75 Bamburgh Circ,Toronto,M1W 3W1,M1W
588,Midtown Toronto,1660000,43.687294,-79.414162,81A Montclair Ave,Toronto,M5P 1P5,M5P
589,Willowdale,550000,43.767471,-79.41127,#3005 - 21 Hillcrest Ave,Toronto,M2N 7K2,M2N
590,Downtown,1788000,43.667709,-79.386383,#104/105 - 75 St Nicholas St,Toronto,M4Y 0A5,M4Y
591,Milliken,249900,43.809418,-79.269463,#406 - 1571 Sandhurst Circ,Toronto,M1V 1V2,M1V
592,York University Heights,878000,43.766823,-79.496696,24 Leitch Ave,Toronto,M3J 3P2,M3J
593,Rexdale,234900,43.75848,-79.586617,#1502 - 41 Markbrook Lane,Toronto,M9V 5E6,M9V
594,Bridle Path,15300000,43.739182,-79.379913,14 The Bridle Path,Toronto,M2L 1C8,M2L
595,Glen Park,175000,43.706429,-79.465775,#1210 - 940 Caledonia Rd,Toronto,M6B 3Y4,M6B
596,Silverthorn,725000,43.68219,-79.469429,539-541 Rogers Rd,Toronto,M6M 1B4,M6M
597,Regal Heights,1995000,43.67487,-79.439171,5 Northcliffe Blvd,Toronto,M6H 3G9,M6H
598,Agincourt,345000,43.778103,-79.281586,#3710 - 125 Village Green Sq,Toronto,M1S 0G5,M1S
599,Humber Bay,1049900,43.624374,-79.485542,#2903 - 90 Park Lawn Rd,Toronto,M8Y 0B6,M8Y
600,St. Clair West Village,488800,43.679676,-79.436104,956 St Clair Ave,Toronto,M6E 1A1,M6E
602,Bathurst Manor,995000,43.752811,-79.451485,830 Sheppard Ave,Toronto,M3H 2T3,M3H
603,New Toronto,1099000,43.598412,-79.51664,3154 Lake Shore Blvd,Toronto,M8V 1L5,M8V
604,Willowdale,519000,43.761196,-79.408951,#903 - 33 Sheppard Ave,Toronto,M2N 7K1,M2N
605,Midtown Toronto,1459000,43.671864,-79.393814,#3A - 36 Hazelton Ave,Toronto,M5R 2E2,M5R
606,The Beach,738000,43.674232,-79.307144,#506 - 60 Haslett Ave,Toronto,M4L 3R2,M4L
607,Downtown,545800,43.637608,-79.395134,#609W - 500 Queens Quay,Toronto,M5V 2Y3,M5V
608,Swansea,415000,43.636173,-79.470757,#910 - 105 The Queensway,Toronto,M6S 5B5,M6S
609,Humber Bay Shores,299900,43.624306,-79.480461,#707 - 2175 Lake Shore Blvd,Toronto,M8V 1A2,M8V
610,Midtown Toronto,675000,43.686676,-79.399445,#405 - 111 St Clair Ave,Toronto,M4V 1N5,M4V
611,Edenbridge - Humber Valley,3998000,43.674366,-79.518166,69 Valecrest Dr,Toronto,M9A 4P5,M9A
612,Entertainment District,1188000,43.649025,-79.387138,#Ph02 - 126 Simcoe St,Toronto,M5H 4E6,M5H
613,Rockcliffe - Smythe,995000,43.667488,-79.499748,47 Scarlett Rd,Toronto,M6N 4J8,M6N
615,Downsview,499000,43.727947,-79.475685,#19Lower - 951 Wilson Ave,Toronto,M3K 2A7,M3K
616,Downtown,1225000,43.637608,-79.395134,#602E - 500 Queens Quay,Toronto,M5V 2Y3,M5V
617,Princess - Rosethorn,2289000,43.661076,-79.536118,59 Rathburn Rd,Toronto,M9A 1R4,M9A
618,St. Andrew - Windfields,2288000,43.763756,-79.380775,86 Northdale Rd,Toronto,M2L 2M1,M2L
620,Financial District,629000,43.649799,-79.38028,#1504 - 325 Bay St,Toronto,M5H 4G3,M5H
621,Mimico,339000,43.624969,-79.478081,#2108 - 59 Annie Craig Dr,Toronto,M8V 0C4,M8V
622,Toronto,224900,43.793209,-79.258591,#12 &amp;13 - 40 Nugget Ave,Toronto,M1S 3A8,M1S
623,Milliken,205000,43.815178,-79.295227,#307 - 385 Silver Star Blvd,Toronto,M1V 0E3,M1V
624,Midtown Toronto,295900,43.706657,-79.427071,#316 - 2550 Bathurst St,Toronto,M6B 2Z2,M6B
625,York University Heights,58000,43.775482,-79.469521,##3 - 4700 Dufferin St,Toronto,M3H 5S7,M3H
626,Armdale,300,43.830791,-79.24955,#B-204 - 833 Passmore Ave,Toronto,M1X 0A2,M1X
627,Armdale,300,43.830791,-79.24955,#F-206 - 865 Passmore Ave,Toronto,M1X 0A2,M1X
628,Armdale,300,43.830791,-79.24955,#F-204 - 865 Passmore Ave,Toronto,M1X 0A2,M1X
629,Armdale,300,43.830791,-79.24955,#F-103 - 865 Passmore Ave,Toronto,M1X 0A2,M1X
630,Armdale,220,43.830791,-79.24955,#D-106 - 843 Passmore Ave,Toronto,M1X 0A2,M1X
631,Armdale,220,43.830791,-79.24955,#E-104 - 855 Passmore Ave,Toronto,M1X 0A2,M1X
632,Downtown,449900,43.670547,-79.380585,#2608 - 28 TED ROGERS WAY,Toronto,M4Y 2J4,M4Y
633,Downtown,739900,43.64016,-79.377655,#3403 - 33 HARBOUR SQ,Toronto,M5J 2V3,M5J
634,North Toronto,2788000,43.73238,-79.414787,285 OLD ORCHARD GRVE,Toronto,M5M 2E6,M5M
635,Downtown,3588000,43.669151,-79.387375,#Ph3401 - 21 BALMUTO ST,Toronto,M4Y 1W4,M4Y
636,Downtown,3488000,43.666794,-79.388756,#5201 - 1080 BAY ST,Toronto,M5S 0A5,M5S
637,Midtown Toronto,159000,43.673416,-79.388428,# 3 - 890 YONGE ST,Toronto,M4W 3P4,M4W
638,Midtown Toronto,2135990,43.68515,-79.410439,#2 - 290 ST CLAIR AVE W,Toronto,M4V 1S3,M4V
639,Downtown,384999,43.659824,-79.362724,#1507 - 225 SACKVILLE ST,Toronto,M5A 0B9,M5A
640,Brockton Village,675000,43.644939,-79.430931,50 Alma Avenue,Toronto,M6K 2A3,M6K
641,Niagara,415800,43.637432,-79.401039,#2213 - 20 BRUYERES MEWS,Toronto,M5V 0G8,M5V
642,Midtown Toronto,485990,43.696835,-79.393997,#507 - 68 MERTON ST,Toronto,M4S 0A7,M4S
643,Midtown Toronto,5199000,43.671894,-79.394928,#Ph 6 - 77 AVENUE RD,Toronto,M5R 3L2,M5R
644,Downtown,455000,43.640224,-79.39595,#930 - 10 CAPREOL CRT,Toronto,M5V 4A3,M5V
645,Downtown,619000,43.652451,-79.388931,#2006 - 210 SIMCOE ST,Toronto,M5T 0A9,M5T
646,Little Portugal,255800,43.642391,-79.424736,#739 - 68 ABELL ST,Toronto,M6J 0B1,M6J
647,Downtown,799000,43.661102,-79.382103,#4003 - 21 CARLTON ST,Toronto,M5B 1L3,M5B
648,Downtown,369900,43.638477,-79.397987,#2812 - 75 QUEENS WHARF RD,Toronto,M5V 0J8,M5V
649,Entertainment District,599000,43.641491,-79.382607,#1115 - 19 GRAND TRUNK CRES,Toronto,M5J 3A3,M5J
650,St. Clair West Village,64900,43.679417,-79.437187,998 ST CLAIR AVE W,Toronto,M6E 1A2,M6E
651,Midtown Toronto,42000,43.716805,-79.400696,2674 YONGE ST,Toronto,M4N 2H7,M4N
652,St. Clair West Village,40000,43.679184,-79.437836,1020 ST. CLAIR AVE,Toronto,M6E 1A4,M6E
653,Midtown Toronto,779000,43.675018,-79.393723,#506 - 181 DAVENPORT RD,Toronto,M5R 1J1,M5R
654,Downtown,649800,43.647663,-79.390419,#4009 - 295 ADELAIDE ST,Toronto,M5V 0L4,M5V
655,Downtown,2750000,43.647663,-79.390419,#Ph2 - 295 ADELAIDE ST W,Toronto,M5V 0L4,M5V
656,Silverthorn,269900,43.681538,-79.471794,#510 - 1600 KEELE ST,Toronto,M6N 5J1,M6N
657,Midtown Toronto,958000,43.723736,-79.380013,76 HARGRAVE LANE,Toronto,M4N 0A4,M4N
659,Parma Court,299900,43.71833,-79.303375,#708 - 45 SUNRISE AVE,Toronto,M4A 2S3,M4A
660,Islington - City Centre West,399900,43.634884,-79.53952,#1911 - 101 SUBWAY CRES,Toronto,M9B 6K4,M9B
661,White Haven,259900,43.788448,-79.256805,#209 - 1703 MCCOWAN RD,Toronto,M1S 2Y3,M1S
662,Islington - City Centre West,79900,43.620182,-79.52845,#B - 1361 THE QUEENSWAY,Toronto,M8Z 1S8,M8Z
663,Bayview Village,115000,43.769089,-79.384933,2901 BAYVIEW AVE,Toronto,M2K 1E6,M2K
664,Dorset Park,170000,43.770493,-79.286835,#907 - 100 DUNDALK DR,Toronto,M1P 4V2,M1P
665,Henry Farm,348800,43.774376,-79.346603,#409 - 66 FOREST MANOR RD,Toronto,M2J 0B7,M2J
666,Belgravia,85000,43.697815,-79.441101,1508 EGLINTON AVE W,Toronto,M6E 2G8,M6E
667,Ionview,35900,43.731453,-79.26899,2383 EGLINTON AVE E,Toronto,M1K 2M5,M1K
668,Scarborough Junction,2600000,43.70546,-79.26796,458 BIRCHMOUNT RD,Toronto,M1K 1M6,M1K
669,Bayview Village,449900,43.765289,-79.382339,#105 - 3 REAN DR,Toronto,M2K 3C2,M2K
670,Willowdale,450000,43.757233,-79.404686,#1015 - 100 HARRISON GARDEN BLVD,Toronto,M2N 2T2,M2N
671,Humber Summit,1990000,43.754402,-79.572464,53 ROWNTREE MILL RD,Toronto,M9L 1C4,M9L
672,West Hill,2880000,43.758629,-79.197571,4151 KINGSTON RD,Toronto,M1E 2M3,M1E
673,Brookhaven,938168,43.703823,-79.498138,1745 LAWRENCE AVE W,Toronto,M6L 1C9,M6L
674,Newtonbrook,715000,43.78017,-79.418251,#Ph05 - 15 GREENVIEW AVE,Toronto,M2M 4M7,M2M
675,Morningside,509000,43.790253,-79.197601,741 MILITARY TR,Toronto,M1E 4P7,M1E
676,Willowdale,749900,43.771309,-79.412926,#2807 - 18 PARKVIEW AVE,Toronto,M2N 5P8,M2N
677,Downtown,489000,43.641788,-79.381874,#4006 - 14 YORK ST,Toronto,M5J 0B1,M5J
678,Downtown,539000,43.668777,-79.383995,#811 - 45 CHARLES ST E,Toronto,M4Y 1S2,M4Y
679,Midtown Toronto,1849990,43.685131,-79.410217,#7 - 288 ST CLAIR AVE W,Toronto,M4V 1S3,M4V
680,Downtown,700000,43.650372,-79.382347,#3711 - 70 TEMPERANCE ST,Toronto,M5H 3V5,M5H
681,Little Portugal,319900,43.642593,-79.424278,#712 - 48 ABELL ST,Toronto,M6J 0B1,M6J
682,Don Mills,305000,43.747749,-79.348656,#A202 - 16 MALLARD RD,Toronto,M3B 3N1,M3B
683,Willowdale,452000,43.778435,-79.41333,#705 - 18 HOLMES AVE,Toronto,M2N 0E1,M2N
684,Agincourt,178000,43.788311,-79.268082,#218 - 4438 SHEPPARD AVE,Toronto,M1S 1V2,M1S
685,Agincourt,399990,43.801655,-79.294731,#113 - 1315 FINCH AVE E,Toronto,M1S 4E7,M1S
686,Jane and Finch,419500,43.744011,-79.491524,#1921 - 5 SHEPPARD AVE,Toronto,M3M 3J8,M3M
687,Downtown,269000,43.659237,-79.382904,#103 - 384 YONGE ST,Toronto,M5B 1S9,M5B
688,Mimico,479999,43.625542,-79.477242,#2604 - 80 MARINE PARADE DR,Toronto,M8V 0A3,M8V
689,Bayview Village,469000,43.766094,-79.385582,#713 - 17 KENASTON GDNS,Toronto,M2K 1G7,M2K
690,Toronto,175000,43.653225,-79.383186,#1609 - 5 SAN ROMANO WAY,Toronto,M5G 1P5,M5G
691,Alderwood,1000000,43.600712,-79.53212,128 THIRTIETH ST,Toronto,M8W 3C4,M8W
692,Agincourt,118888,43.788311,-79.268082,#223 - 4438 SHEPPARD AVE E,Toronto,M1S 1V2,M1S
693,Lansing,599000,43.760303,-79.411621,#1106 - 9 BOGERT AVE,Toronto,M2N 0H3,M2N
694,Tam O'Shanter,78000,43.784351,-79.292191,#340 -35- 3850 SHEPPARD AVE E,Toronto,M1T 3L3,M1T
695,Toronto,295000,43.761047,-79.410904,#341 - 4750 YONGE ST,Toronto,L4C 0M5,L4C
696,Mount Dennis,314900,43.687202,-79.504761,#504 - 75 EMMETT AVE,Toronto,M6M 5A7,M6M
697,Mimico,409000,43.624969,-79.478081,#413 - 59 ANNIE CRAIG DR,Toronto,M8V 0C4,M8V
698,Parma Court,300000,43.71833,-79.303375,#1112 - 45 SUNRISE AVE,Toronto,M4A 2S3,M4A
699,Midtown Toronto,998000,43.708008,-79.400787,#Th03 - 58 Orchard View Blvd,Toronto,M4R 0A2,M4R
700,Malvern,264900,43.809731,-79.221008,#907 - 410 Mclevin Ave,Toronto,M1B 5J5,M1B
701,Willowdale,578800,43.775848,-79.414291,5371 Yonge St,Toronto,M2N 5R6,M2N
702,York Mills,5999000,43.744083,-79.384583,188 Valley Rd,Toronto,M2L 1G4,M2L
703,Bayview Village,339000,43.766094,-79.385582,#809 - 17 Kenaston Gdns,Toronto,M2K 1G7,M2K
704,Malvern,249900,43.804581,-79.227768,#125 - 200 Mclevin Ave,Toronto,M1B 6A2,M1B
705,Downtown,2999988,43.642273,-79.372704,#1204 - 29 Queens Quay Way,Toronto,M5E 1L7,M5E
706,Henry Farm,269000,43.774952,-79.33548,#1008 - 30 Heron&#39;s Hill Way,Toronto,M2J 0A7,M2J
707,Midtown Toronto,1168000,43.710876,-79.443077,673 Glengrove Ave,Toronto,M6B 2J2,M6B
708,Downtown,125000,43.649483,-79.391853,329 Queen St,Toronto,M5V 2A4,M5V
709,Milliken,4300000,43.805862,-79.298836,2967  kennedy Road,Toronto,M1V 1S9,M1V
710,Downtown,575000,43.64613,-79.375778,#3607 - 8 The Esplanade,Toronto,M5E 0A6,M5E
711,Steeles,498000,43.815434,-79.325745,#838 - 25 Bamburgh Circ,Toronto,M1W 3W2,M1W
712,St. Clair West Village,848000,43.678867,-79.440109,1084 St.Clair Ave,Toronto,M6E 1A7,M6E
713,Downtown,668000,43.642273,-79.372704,#918 - 29 Queens Quay Way,Toronto,M5E 1L7,M5E
714,Don Valley Village,479000,43.777386,-79.352486,#82 - 125 Shaughnessy Blvd,Toronto,M2J 1J7,M2J
715,Bayview Village,345000,43.769722,-79.36692,2756 Old Leslie St,Toronto,M2K 0E2,M2K
716,Mimico,319000,43.625118,-79.478767,#306B - 60 Annie Craig Dr,Toronto,M8V 0A8,M8V
717,Swansea,444900,43.636173,-79.470757,#1010 - 105 The Queensway Ave,Toronto,M6S 5B5,M6S
718,Edenbridge - Humber Valley,5600000,43.674221,-79.514603,158 Edenbridge Dr,Toronto,M9A 3G6,M9A
719,Pelmo Park,614888,43.708405,-79.525757,5 Jaymar Pl,Toronto,M9N 3L8,M9N
720,Oakridge,339900,43.694603,-79.273277,#101 - 3520 Danforth Ave,Toronto,M1L 1E6,M1L
721,Don Mills,425000,43.73275,-79.345634,#903 - 75 The Donway Way,Toronto,M3C 2E9,M3C
722,Midtown Toronto,1380000,43.712585,-79.377747,#305/6 - 1818 Bayview Ave,Toronto,M4G 4G6,M4G
723,Woburn,2500000,43.776733,-79.242828,1120 Bellamy Rd,Toronto,M1H 1H3,M1H
724,Rockcliffe - Smythe,849000,43.669647,-79.484047,822 Runnymede Rd,Toronto,M6N 3V9,M6N
725,Silverthorn,725000,43.682182,-79.469193,535-537 Rogers Rd,Toronto,M6M 1B4,M6M
726,West Queen West,3700000,43.646591,-79.406052,715-717 Queen St,Toronto,M6J 1E6,M6J
727,Downtown,319900,43.640381,-79.397339,#3002 - 21 Iceboat Terr,Toronto,M5V 4A9,M5V
728,Central Waterfront,860000,43.63821,-79.391357,#Uph5 - 410 Queens Quay,Toronto,M5V 3T1,M5V
729,Entertainment District,438900,43.649025,-79.387138,#1506 - 126 Simcoe St,Toronto,M5H 4E6,M5H
730,Toronto,189900,43.762257,-79.352737,#307 - 220 Duncan Mill Rd,Toronto,M3B 2V1,M3B
731,Willowdale,1200000,43.760998,-79.410202,#1003/4 - 4789 Yonge St,Toronto,M2N 0G3,M2N
732,Riverdale,899900,43.666531,-79.348099,718 Gerrard St,Toronto,M4M 1Y3,M4M
733,York University Heights,250000,43.767105,-79.47065,#6 - 1101 Finch Ave,Toronto,M3J 3L6,M3J
734,Humber Summit,199900,43.753052,-79.541618,#66 - 2300 Finch Ave,Toronto,M9M 2Y3,M9M
735,Mimico,635000,43.618755,-79.485359,#707 - 2285 Lake Shore Blvd,Toronto,M8V 3X9,M8V
736,Downtown,89000,43.670345,-79.3853,53 Bloor St,Toronto,M4W 1A9,M4W
737,Downsview,324900,43.726418,-79.479942,#631 - 15 James Finlay Way,Toronto,M3M 0B3,M3M
738,Bayview Woods - Steeles,283000,43.785713,-79.389084,#8 - 1 Watergarden Way,Toronto,M2K 2Z7,M2K
739,Don Mills,1200,43.747749,-79.348656,#A204 - 16 Mallard Rd,Toronto,M3B 3N1,M3B
740,Midtown Toronto,439000,43.670319,-79.394432,#1506 - 155 Yorkville Ave,Toronto,M5R 1C4,M5R
741,Midtown Toronto,659000,43.670319,-79.394432,#1507 - 155 Yorkville Ave,Toronto,M5R 1C4,M5R
742,Carleton Village,49000,43.670044,-79.457214,1985 Davenport Rd,Toronto,M6N 1C5,M6N
743,Armdale,129900,43.82074,-79.261734,#A206 - 3300 Mcnicoll Ave,Toronto,M1V 5J6,M1V
744,Midtown Toronto,2190000,43.6754,-79.402336,361 Davenport Rd,Toronto,M5R 1K5,M5R
745,Dorset Park,119900,43.771751,-79.283981,2 Antrim Cres,Toronto,M1P 2N3,M1P
746,Clairlea - Birchmount,268000,43.725918,-79.289024,816 Warden Ave,Toronto,M1R 5A3,M1R
747,Edenbridge - Humber Valley,7398000,43.675018,-79.519035,77 Valecrest Dr,Toronto,M9A 4P5,M9A
748,Bathurst Manor,315000,43.755169,-79.441742,#304 - 650 Sheppard Ave,Toronto,M3H 2S5,M3H
749,Brockton Village,199900,43.649673,-79.440407,222 Lansdowne Ave,Toronto,M6K 3C6,M6K
750,Islington - City Centre West,279000,43.645454,-79.522476,3300 Bloor St,Toronto,M8X 2X4,M8X
751,Malvern,409149,43.792263,-79.237587,#110 - 1585 Markham Rd,Toronto,M1B 2W1,M1B
752,Tam O'Shanter - Sullivan,390000,43.7794,-79.30883,2190 Warden Ave,Toronto,M1T 1V6,M1T
753,Armdale,300,43.830791,-79.24955,#F-203 - 865 Passmore Ave,Toronto,M1X 0A2,M1X
754,Armdale,300,43.830791,-79.24955,#F-201 - 865 Passmore Ave,Toronto,M1X 0A2,M1X
755,Armdale,300,43.830791,-79.24955,#F-202 - 865 Passmore Ave,Toronto,M1X 0A2,M1X
756,Armdale,220,43.830791,-79.24955,#D-103 - 843 Passmore Ave,Toronto,M1X 0A2,M1X
757,Midtown Toronto,653900,43.696835,-79.393997,#1008 - 68 MERTON ST,Toronto,M4S 0A7,M4S
758,Midtown Toronto,343800,43.673172,-79.389687,#1401 - 32 DAVENPORT RD,Toronto,M5R 0B5,M5R
759,Downtown,599900,43.639782,-79.397949,#658 - 151 DAN LECKIE WAY,Toronto,M5V 4B2,M5V
760,Niagara,489900,43.63673,-79.400505,#2505 - 600 FLEET ST,Toronto,M5V 1B7,M5V
761,Downtown,299000,43.648006,-79.396835,#508 - 438 RICHMOND ST W,Toronto,M5V 1X9,M5V
762,Downtown,1500000,43.662125,-79.366859,401 PARLIAMENT ST,Toronto,M5A 3A1,M5A
763,Downtown,444900,43.639664,-79.379272,#806 - 77 HARBOUR SQ,Toronto,M5J 2T5,M5J
764,Beach Hill,999000,43.681137,-79.310356,1956 GERRARD ST E,Toronto,M4E 2B1,M4E
765,Midtown Toronto,99000,43.683643,-79.392433,1278 YONGE ST,Toronto,M4T 1W5,M4T
766,Clairlea,579500,43.710022,-79.290222,3135 ST CLAIR AVE E,Toronto,M1L 1V3,M1L
767,Midtown Toronto,599000,43.688316,-79.394531,1470 YONGE ST,Toronto,M4T 1Z6,M4T
768,Downtown,109000,43.658722,-79.382263,372 YONGE ST,Toronto,M5G 2K9,M5G
769,Downtown,469900,43.657074,-79.355232,#1106 - 51 TROLLEY CRES,Toronto,M5A 0E9,M5A
771,Downtown,249000,43.660149,-79.360886,#2205 - 170 SUMACH ST,Toronto,M5A 2B9,M5A
772,Niagara,368000,43.637432,-79.401039,#710 - 20 BRUYERES MEWS,Toronto,M5V 0G8,M5V
773,Downtown,1059900,43.642578,-79.3769,#5203 - 16 HARBOUR ST,Toronto,M5J 2Y4,M5J
774,Downtown,524900,43.651321,-79.358055,#601 - 80 MILL ST,Toronto,M5A 4T3,M5A
775,Downtown,314900,43.644932,-79.392143,#521 - 36 BLUE JAYS WAY,Toronto,M5V 3T3,M5V
776,Downtown,495000,43.657421,-79.40509,376 College Street,Toronto,M5T 2N9,M5T
777,Downtown,319000,43.665749,-79.385513,#223 - 5 ST. JOSEPH ST,Toronto,M4Y 0B6,M4Y
778,Midtown Toronto,4998000,43.691147,-79.400749,95 LONSDALE RD,Toronto,M4V 1W4,M4V
779,Riverside,119000,43.665714,-79.351059,623 GERRARD ST E,Toronto,M4M 1Y2,M4M
780,Earlscourt,49000,43.675121,-79.447258,95 GREENLAW AVE,Toronto,M6H 3V8,M6H
781,Danforth Village,79990,43.6889,-79.2995,2658 DANFORTH AVE,Toronto,M4C 1L7,M4C
782,Toronto,359900,43.640335,-79.424477,#1723 - 38 JOE SHUSTER WAY,Toronto,M6K 0A5,M6K
783,East Bayfront,2710000,43.645634,-79.362335,#Ph12 - 1 EDGEWATER DR,Toronto,M5A 1B6,M5A
784,Wilson Heights,350000,43.738132,-79.434631,3780 BATHURST ST,Toronto,M3H 3M6,M3H
785,York University Heights,999900,43.766209,-79.499435,25 MANSUR TERR,Toronto,M3J 3R2,M3J
786,Maple Leaf,1500000,43.716793,-79.476067,44 ROMEO ST,Toronto,M6L 2L5,M6L
787,Kingsview Village,1999000,43.702599,-79.542358,55 GOLFWOOD HTS,Toronto,M9P 3L8,M9P
788,York University Heights,967000,43.766182,-79.499756,28 MANSUR TERR,Toronto,M3J 3R1,M3J
789,Bridle Path,9688000,43.729534,-79.369606,45 PARK LANE CIRC,Toronto,M3C 2N2,M3C
790,Bendale,263900,43.771198,-79.260529,#361 - 123 OMNI DR,Toronto,M1P 5A6,M1P
791,Rexdale,79000,43.720219,-79.600403,#G007 - 500 REXDALE BLVD,Toronto,M9W 6K5,M9W
792,Mimico,38800,43.620239,-79.50029,418 ROYAL YORK RD,Toronto,M8Y 2R9,M8Y
793,Cliffcrest,30000,43.727604,-79.230331,#2 - 3110 KINGSTON RD,Toronto,M1M 1P2,M1M
794,York Mills,4680000,43.757633,-79.391129,6 TOBA DR,Toronto,M2P 1Z3,M2P
795,Newtonbrook,1728000,43.797821,-79.404243,257 OTONABEE AVE,Toronto,M2M 2S9,M2M
796,Scarborough Junction,599000,43.71405,-79.26268,23 COTTON AVE,Toronto,M1K 1Z3,M1K
797,Willowdale,1398800,43.783005,-79.391747,2960 A BAYVIEW AVE,Toronto,M2N 4N3,M2N
798,Willowdale,343000,43.765842,-79.410057,#1715 - 35 HOLLYWOOD AVE,Toronto,M2N 0A9,M2N
799,Kingsview Village,108000,43.696663,-79.552414,#2005 - 320 DIXON RD,Toronto,M9R 1S9,M9R
800,Don Mills,439000,43.73275,-79.345634,#1310 - 75 THE DONWAY W,Toronto,M3C 2E9,M3C
801,Mimico,269000,43.630383,-79.476273,#407 - 3 MARINE PARADE DR,Toronto,M8V 3Z4,M8V
802,New Toronto,59000,43.60099,-79.503357,2875 LAKE SHORE BLVD W,Toronto,M8V 1J2,M8V
803,Morningside,284900,43.784866,-79.195343,#2703 - 3070 ELLESMERE RD,Toronto,M1E 4C3,M1E
804,Willowdale,285000,43.777355,-79.41275,#1106 - 60 BYNG AVE,Toronto,M2N 7K3,M2N
805,Oakridge,129000,43.694172,-79.274673,3472 DANFORTH AVE,Toronto,M1L 1E3,M1L
806,Toronto,319000,43.824078,-79.273773,#809 - 80 ALTON TOWERS CIRC,Toronto,M1V 5E8,M1V
807,Emery,104900,43.749187,-79.542702,#1104 - 3390 WESTON RD,Toronto,M9M 2X3,M9M
808,Rexdale,145000,43.722031,-79.543945,#1904 - 236 ALBION RD,Toronto,M9W 6A6,M9W
809,Midtown Toronto,735000,43.673172,-79.389687,#1103 - 32 DAVENPORT RD,Toronto,M5R 0B5,M5R
810,Downtown,160000,43.657772,-79.38414,# 3 - 655 BAY ST,Toronto,M5G 2K4,M5G
811,Eatonville,385900,43.639694,-79.563148,#1622 - 2 EVA RD,Toronto,M9C 4Z5,M9C
812,Rouge,199900,43.821304,-79.246292,#19 -20 - 2761 MARKHAM RD,Toronto,M1X 0A4,M1X
813,West Hill,334900,43.769436,-79.188362,#117 - 4470 KINGSTON RD,Toronto,M1E 3E7,M1E
815,Downtown,285000,43.659237,-79.382904,#22 - 384 YONGE ST,Toronto,M5B 1S9,M5B
816,Willowdale,595000,43.769829,-79.413467,#310 - 5168 YONGE ST,Toronto,M2N 0G1,M2N
817,Downtown,250000,43.650963,-79.397903,#232 - 222 SPADINA AVE,Toronto,M5T 3B3,M5T
818,Midtown Toronto,1549000,43.688797,-79.411438,#1 A - 317 LONSDALE RD,Toronto,M4V 1X3,M4V
819,Bathurst Manor,322800,43.755169,-79.441742,#212 - 650 SHEPPARD AVE,Toronto,M3H 2S5,M3H
820,Steeles,309000,43.81226,-79.324944,#1113 - 175 BAMBURGH CIRC,Toronto,M1W 3X8,M1W
821,Little Portugal,318800,43.641697,-79.423431,#1517 - 36 LISGAR ST,Toronto,M6J 0A9,M6J
822,Silverthorn,550000,43.681965,-79.467018,479 A ROGERS RD,Toronto,M6M 1B2,M6M
823,Eatonville,269900,43.639694,-79.563148,#530 - 2 EVA RD,Toronto,M9C 4Z5,M9C
824,Midtown Toronto,75000,43.670444,-79.38723,#C31 - 2 BLOOR ST W,Toronto,M5T 1G1,M5T
825,Downtown,938000,43.642273,-79.372704,#519 - 29 QUEENS QUAY,Toronto,M5E 1L7,M5E
826,Willowdale,645000,43.761501,-79.409882,#4122 - 5 SHEPPARD AVE E,Toronto,M2N 0C8,M2N
827,Downtown,669900,43.650372,-79.382347,#2711 - 70 TEMPERANCE ST,Toronto,M5H 3V5,M5H
828,Midtown Toronto,350000,43.70789,-79.39402,150 EGLINTON AVE E,Toronto,M4P 1E8,M4P
829,Riverdale,899000,43.666691,-79.347534,738 Gerrard St,Toronto,M4M 1Y3,M4M
830,Newtonbrook,288000,43.781261,-79.415749,5647 Yonge St,Toronto,M2M 3T2,M2M
831,Downtown,439000,43.641632,-79.38205,#303 - 12 York St,Toronto,M5J 2T8,M5J
832,Centre Island,899900,43.632076,-79.355011,14 Fourth St,Toronto,M5J 2B5,M5J
833,Newtonbrook,1998000,43.784462,-79.399963,20 Maxome Ave,Toronto,M2M 3J9,M2M
834,Downtown,1,43.647831,-79.37323,9 Church St,Toronto,M5E 1M2,M5E
835,Downtown,349000,43.664787,-79.380814,538 Church St,Toronto,M4Y 2E1,M4Y
836,Willowdale,3148888,43.773067,-79.414047,5314 Yonge St,Toronto,M2N 5P9,M2N
837,Malvern,895000,43.795654,-79.235367,20 Malvern St,Toronto,M1B 2Y3,M1B
838,Grange Park,99000,43.653271,-79.390839,95 Mccaul St,Toronto,M5T 2X3,M5T
839,Toronto,590000,43.725262,-79.313911,1 MOBILE DR,Toronto,M4A 1H5,M4A
840,Eatonville,1099888,43.644608,-79.53933,42 TYRE AVE,Toronto,M9B 1R5,M9B
841,Scarborough Village,275000,43.742031,-79.213844,#709 - 3650 Kingston Rd,Toronto,M1M 1R9,M1M
842,Bathurst Manor,415000,43.752007,-79.456001,#214 - 890 Sheppard Ave,Toronto,M3H 2T5,M3H
843,Rexdale,270000,43.75901,-79.588539,#312 - 10 Markbrook Lane,Toronto,M9V 5E3,M9V
844,Mount Dennis,379000,43.687202,-79.504761,#2307 - 75 Emmett Ave,Toronto,M6M 5A7,M6M
845,Leaside,349990,43.714638,-79.35463,#403 - 35 Brian Peck Cres,Toronto,M4G 4J7,M4G
846,Trinity - Bellwoods,629900,43.649189,-79.423508,#704 - 1239 Dundas St,Toronto,M6J 1X6,M6J
847,Rouge,299900,43.836353,-79.250473,#A118 - 3351 Markham Rd,Toronto,M1X 0A6,M1X
848,Rexdale,235000,43.75848,-79.586617,#107 - 41 Markbrook Lane,Toronto,M9V 5E6,M9V
849,West Hill,179800,43.76638,-79.197601,#613 - 4064 Lawrence Ave,Toronto,M1E 4V6,M1E
850,Bayview Village,419900,43.766087,-79.381836,#101 - 12 Rean Dr,Toronto,M2K 1A5,M2K
851,Islington - City Centre West,1199000,43.647182,-79.546822,98 Goswell Rd,Toronto,M9B 4J8,M9B
852,Midtown Toronto,878900,43.723148,-79.379707,2146 Bayview Ave,Toronto,M4N 0A4,M4N
853,Newtonbrook,519990,43.780727,-79.419991,#49 - 49 Hendon Ave,Toronto,M2M 1A4,M2M
854,Old East York,169500,43.696163,-79.292953,#803 - 5 Massey Sq,Toronto,M4C 5M9,M4C
855,Downtown,565000,43.65509,-79.375626,#2208 - 68 Shuter St,Toronto,M5B 1Y4,M5B
856,Bayview Village,3288000,43.775551,-79.378128,67 Burbank Dr,Toronto,M2K 1S9,M2K
857,Downtown,539000,43.660137,-79.385872,#1407 - 770 Bay St,Toronto,M5G 0A6,M5G
858,Toronto,99,43.653225,-79.383186,#2910 - 25 Town Centre (Locker) Crt,Toronto,M5G 1P5,M5G
859,Swansea,2750000,43.641518,-79.484116,41 Riverside Cres,Toronto,M6S 1B5,M6S
860,Norseman Heights,1995000,43.636299,-79.509125,21 Norseman St,Toronto,M8Z 2N9,M8Z
861,Bathurst Manor,1288000,43.760647,-79.451912,82 Combe Ave,Toronto,M3H 4J7,M3H
862,West Queen West,2550000,43.646584,-79.405861,711 Queen St,Toronto,M6J 1E6,M6J
863,Cricket Club,99000,43.733974,-79.41954,1943 Avenue Rd,Toronto,M5M 4A2,M5M
864,Downsview,199900,43.72578,-79.480759,#602 - 2737 Keele St,Toronto,M3M 2E9,M3M
865,Bridle Path,18800000,43.734344,-79.371315,16 High Point Rd,Toronto,M3B 2A4,M3B
866,Brockton Village,3699000,43.658447,-79.441681,1261 Bloor St,Toronto,M6H 1N7,M6H
868,Leaside,6300000,43.707485,-79.375458,1669 Bayview Ave,Toronto,M4G 3C1,M4G
869,Henry Farm,249000,43.772007,-79.337509,235 Yorkland Blvd,Toronto,M2J 4Y7,M2J
871,Rockcliffe - Smythe,89900,43.671585,-79.493294,755 Jane St,Toronto,M6N 4B4,M6N
872,Riverside,129000,43.657394,-79.345116,400 Eastern Ave,Toronto,M4M 2K9,M4M
873,Earlscourt,18000,43.682304,-79.465492,#2 - 460 Rogers Rd,Toronto,M6N 3M6,M6N
874,Rexdale,2500000,43.711994,-79.563835,103 Rexdale Blvd,Toronto,M9W 1P1,M9W
875,Rexdale,128000,43.721172,-79.544243,#1102 - 234 Albion Rd,Toronto,M9W 6A5,M9W
876,Downtown,439000,43.659237,-79.382904,#71 - 384 Yonge St,Toronto,M5B 1S9,M5B
877,Downsview,650000,43.723576,-79.522545,65 Torbarrie Rd,Toronto,M3L 1G5,M3L
878,Humber Summit,33000,43.761406,-79.540527,#90 - 90 Signet Dr,Toronto,M9L 3A1,M9L
879,Downtown,1640000,43.656162,-79.399719,412 Spadina Ave,Toronto,M5T 2G7,M5T
880,Nortown,1599000,43.736855,-79.431259,107 Burncrest Dr,Toronto,M5M 2Z6,M5M
881,Midtown Toronto,388000,43.672371,-79.387436,813 YONGE ST,Toronto,M4W 2G8,M4W
882,Downtown,2599000,43.655842,-79.363991,358 QUEEN ST E,Toronto,M5A 1T1,M5A
883,Downtown,239900,43.653492,-79.383972,100 QUEEN ST W,Toronto,M5G 1P5,M5G
884,Midtown Toronto,1399900,43.710625,-79.381691,4 WALDER AVE,Toronto,M4P 2R5,M4P
885,Midtown Toronto,3095000,43.70948,-79.421585,56 CALDOW RD,Toronto,M5N 2P8,M5N
886,Swansea,275000,43.636173,-79.470757,#708 - 105 THE QUEENSWAY AVE,Toronto,M6S 5B5,M6S
887,Downtown,779900,43.643486,-79.392303,352 FRONT Street,Toronto,M5V 0K3,M5V
888,The Beach,2499000,43.669685,-79.289116,10 BALSAM AVE,Toronto,M4E 3B4,M4E
889,Highland Creek,1039900,43.791302,-79.158119,#Block1 - 6443 KINGSTON RD,Toronto,M1C 1L2,M1C
890,Henry Farm,428000,43.774952,-79.33548,#1906 - 30 HERONS HILL WAY,Toronto,M2J 0A7,M2J
891,Bendale,472000,43.772408,-79.255135,188 BOROUGH DR,Toronto,M1P 4Y7,M1P
892,Weston,539000,43.706501,-79.532196,2381 WESTON RD,Toronto,M9N 1Z8,M9N
893,Don Mills,4590000,43.736397,-79.355057,11 TANGMERE RD,Toronto,M3B 2N1,M3B
894,Newtonbrook,1399000,43.786533,-79.442619,31 DEWLANE DR,Toronto,M2R 2P7,M2R
895,Bayview Village,498000,43.767937,-79.387955,#518 - 2885 BAYVIEW AVE N,Toronto,M2K 0A3,M2K
896,Alderwood,59000,43.609966,-79.549347,876 BROWNS LINE,Toronto,M8W 3W2,M8W
898,Agincourt,244500,43.779129,-79.281883,#3017 - 275 VILLAGE GREEN SQ,Toronto,M1S 0K6,M1S
899,Eglinton West,420000,43.691715,-79.468506,#1002 - 2470 EGLINTON AVE,Toronto,M6M 5E7,M6M
900,Mimico,425000,43.62273,-79.483192,#3502 - 2220 LAKESHORE BLVD W,Toronto,M8V 0C1,M8V
901,Wexford - Maryvale,350000,43.748531,-79.286057,#303 - 1328 BIRCHMOUNT RD,Toronto,M1R 3A7,M1R
902,Midtown Toronto,499800,43.70694,-79.396904,#1205 - 43 EGLINTON AVE E,Toronto,M4P 1A2,M4P
903,Englemount - Lawrence,394000,43.722183,-79.432846,#1011 - 35 SARANAC BLVD,Toronto,M6A 2G4,M6A
904,Downtown,512000,43.648029,-79.374069,#708 - 55 Front St,Toronto,M5E 0A7,M5E
905,Emery,99900,43.749187,-79.542702,#1202 - 3390 Weston Rd,Toronto,M9M 2X3,M9M
907,Downtown,399000,43.649246,-79.375755,#516 - 22 Leader Lane,Toronto,M5E 0B2,M5E
908,Downtown,399000,43.654003,-79.402016,182 Augusta Ave,Toronto,M5T 2L6,M5T
909,Downsview,299000,43.727539,-79.482857,#404 - 2772 Keele St,Toronto,M3M 0A3,M3M
910,Bayview Village,289900,43.76498,-79.383522,#1114 - 1 Rean Dr,Toronto,M2K 3C1,M2K
911,Downtown,340000,43.660709,-79.378845,#801 - 365 Church St,Toronto,M5B 1Z9,M5B
912,Willowdale,2589000,43.773899,-79.4179,71 Horsham Ave,Toronto,M2N 2N4,M2N
913,Riverdale,779900,43.672523,-79.341301,282 Withrow Ave,Toronto,M4J 1B7,M4J
914,Willowdale,1628000,43.77327,-79.403053,181 Parkview Ave,Toronto,M2N 3Y9,M2N
915,Jane and Finch,147500,43.745918,-79.515724,#208 - 5 Frith Rd,Toronto,M3N 1E9,M3N
916,Armdale,239900,43.819328,-79.253868,#91 - 80 Nashdene Rd,Toronto,M1V 5E4,M1V
918,Fairbank,750000,43.692165,-79.461624,557B Caledonia Rd,Toronto,M6E 4V3,M6E
919,Woburn,4,43.776325,-79.238411,#2 - 1970 Ellesmere Rd,Toronto,M1H 2W1,M1H
920,Scarborough Village,1498000,43.740055,-79.209244,89 Hill Cres,Toronto,M1M 1J6,M1M
921,Sherwood Park,1575,43.711048,-79.398949,#2 - 2449 Yonge St,Toronto,M4P 1Y5,M4P
923,The Kingsway,3875000,43.656437,-79.506493,31 Queen Anne Rd,Toronto,M8X 1T1,M8X
924,Niagara,389000,43.641579,-79.415901,#346 - 1030 King St,Toronto,M6K 0B4,M6K
925,Eatonville,2385000,43.642086,-79.538795,8 Botfield Ave,Toronto,M9B 4C7,M9B
926,Pelmo Park,119000,43.711025,-79.535355,2600 Weston Rd,Toronto,M9N 2A9,M9N
927,Dorset Park,75000,43.769337,-79.280922,#4 - 9 Progress Ave,Toronto,M1P 5A4,M1P
928,Downsview,269000,43.72126,-79.511993,1700 Wilson Ave,Toronto,M3L 1B2,M3L
929,Downtown,358000,43.659237,-79.382904,#65 - 384 Yonge St,Toronto,M5B 1S9,M5B
930,Leslieville,1199900,43.67308,-79.319557,270 Coxwell Ave,Toronto,M4L 3B6,M4L
931,Downtown,2499000,43.668526,-79.364723,124 AMELIA ST,Toronto,M4X 1E4,M4X
932,Nortown,3298000,43.734463,-79.430748,350 JOICEY BLVD,Toronto,M5M 2W2,M5M
933,Willowdale,169000,43.779854,-79.415131,9 FINCH AVE E,Toronto,M2N 4P9,M2N
934,Agincourt,1550000,43.784798,-79.282043,5 AGINCOURT DR,Toronto,M1S 1T2,M1S
935,Silverthorn,575000,43.693974,-79.46891,41 LONBOROUGH AVE,Toronto,M6M 1X2,M6M
936,Wexford - Maryvale,899900,43.742485,-79.296707,4 Danube Dr,Toronto,M1R 1Y7,M1R
937,Nortown,2788000,43.733734,-79.425026,175 Haddington Ave,Toronto,M5M 2P7,M5M
938,Ionview,699000,43.732124,-79.275276,14 Rosemount Dr,Toronto,M1K 2W8,M1K
939,Malvern,799000,43.815105,-79.217415,42 Rovinelli Rd,Toronto,M1B 4L2,M1B
940,Willowdale,379000,43.757988,-79.403625,#307 - 120 HARRISON GARDEN BLVD,Toronto,M2N 0H1,M2N
941,Islington - City Centre West,290000,43.609993,-79.55748,#1106 - 215 SHERWAY GARDENS RD,Toronto,M9C 0A5,M9C
942,Edenbridge - Humber Valley,1799900,43.675144,-79.523315,#4 - 1291 ROYAL YORK RD,Toronto,M9A 5E6,M9A
943,Mimico,296888,43.622883,-79.481972,#1906 - 2200 Lakeshore Blvd,Toronto,M8V 1A4,M8V
944,Rockcliffe - Smythe,408900,43.675777,-79.507919,#1408 - 240 Scarlett Rd,Toronto,M6N 4X4,M6N
945,Mimico,489888,43.62273,-79.483192,#2509 - 2220 Lake Shore Blvd,Toronto,M8V 0C1,M8V
946,Downtown,449900,43.649597,-79.388489,#1105 - 199 Richmond St,Toronto,M5V 3E5,M5V
947,Bloor West Village,25000,43.650085,-79.480011,#3 - 2323 BLOOR ST W,Toronto,M6S 4W1,M6S
948,Old Town,514888,43.65406,-79.369118,#1114 - 320 RICHMOND ST E,Toronto,M5A 2R3,M5A
949,Downtown,325000,43.657455,-79.39035,#4 - 600 UNIVERSITY AVE,Toronto,M5G 1X5,M5G
950,Downtown,449000,43.649082,-79.392082,#2307 - 318 RICHMOND ST W,Toronto,M5V 0B4,M5V
951,Dovercourt Park,899999,43.668846,-79.433495,299 WESTMORELAND AVE,Toronto,M6H 3A4,M6H
952,Midtown Toronto,159000,43.687897,-79.396156,48 ST.CLAIR AVE,Toronto,M4V 2Z2,M4V
953,Roncesvalles Village,79000,43.65519,-79.452324,2285 DUNDAS ST W,Toronto,M6R 1X6,M6R
954,Midtown Toronto,3495000,43.719627,-79.399826,25 GLENGROVE AVE E,Toronto,M4N 1E6,M4N
955,Niagara,388000,43.643013,-79.406204,#621 - 775 KING ST W,Toronto,M5V 2K3,M5V
956,Niagara,229900,43.636963,-79.404671,#1464 - 209 FORT YORK BLVD,Toronto,M5V 4A1,M5V
957,Downtown,638000,43.666794,-79.388756,#4211 - 1080 BAY ST,Toronto,M5S 0A5,M5S
958,Midtown Toronto,299000,43.671654,-79.3946,#F1 - 55 AVENUE RD,Toronto,M5R 3L2,M5R
959,Downtown,1799000,43.651875,-79.374428,#8 - 63 LOMBARD ST,Toronto,M5C 1M2,M5C
960,Downtown,269000,43.638477,-79.397987,#309 - 75 QUEENS WHARF RD,Toronto,M5V 0J8,M5V
961,Downtown,809900,43.643845,-79.391823,#2105 - 20 BLUE JAYS WAY,Toronto,M5V 3W6,M5V
962,Caledonia - Fairbank,599000,43.682915,-79.457314,299 ROGERS RD,Toronto,M6E 1R4,M6E
963,Downsview,699000,43.722027,-79.495415,11 MAURICE COULTER MEWS,Toronto,M3M 3K3,M3M
964,Downsview,189900,43.72578,-79.480759,#912 - 2737 KEELE ST,Toronto,M3M 2E9,M3M
965,Woburn,150000,43.775978,-79.239761,#18 - 1950 ELLESMERE RD,Toronto,M1H 2V8,M1H
966,Humber Summit,199000,43.766167,-79.554268,1102 BARMAC DR,Toronto,M9L 1X5,M9L
967,Newtonbrook,383000,43.78017,-79.418251,#402 - 15 GREENVIEW AVE,Toronto,M2M 4M7,M2M
968,Henry Farm,325000,43.774952,-79.33548,#709 - 30 HERONS HILL WAY,Toronto,M2J 0A7,M2J
969,Rexdale,319900,43.731674,-79.576454,#213 - 80 ESTHER LORRIE DR,Toronto,M9W 4L7,M9W
970,Kennedy Park,699000,43.720936,-79.254662,35 MAGNOLIA AVE,Toronto,M1K 3K3,M1K
971,Davenport,788000,43.672604,-79.429909,1153 OSSINGTON AVE,Toronto,M6G 3W2,M6G
972,The Kingsway,429000,43.661209,-79.508301,#212 - 25 EARLINGTON AVE,Toronto,M8X 3A3,M8X
973,Davenport,624900,43.670589,-79.448425,#A11 - 1100 LANSDOWNE AVE,Toronto,M6H 4K1,M6H
974,Lansing,282000,43.760658,-79.41581,#309 - 88 SHEPPARD AVE,Toronto,M2N 1M5,M2N
975,Midtown Toronto,14880000,43.688107,-79.385658,120 INGLEWOOD DR,Toronto,M4T 1H5,M4T
976,Trinity - Bellwoods,49900,43.655087,-79.412804,571 COLLEGE ST,Toronto,M6G 1B2,M6G
977,Downtown,298888,43.647514,-79.3927,#3702 - 101 PETER ST,Toronto,M5V 0G6,M5V
978,Wilson Heights,309888,43.734478,-79.446472,#503 - 525 WILSON AVE,Toronto,M3H 1V1,M3H
979,Downtown,273000,43.645985,-79.389938,#322 - 8 MERCER ST,Toronto,M5V 0C4,M5V
980,Downtown,439000,43.641632,-79.38205,#2609 - 12 YORK ST,Toronto,M5J 2T8,M5J
981,Silverthorn,550000,43.681965,-79.467018,479 A ROGERS RD,Toronto,M6M 1B2,M6M
982,Downtown,432000,43.647224,-79.391098,#810 - 21 WIDMER ST,Toronto,M5V 0B8,M5V
983,Downtown,809000,43.663052,-79.386345,#1512 - 889 BAY ST,Toronto,M5S 3K6,M5S
984,Silverthorn,279900,43.682056,-79.466515,475 D ROGERS RD,Toronto,M6M 1B2,M6M
985,Willowdale,455000,43.760998,-79.410202,#701 - 4789 YONGE ST,Toronto,M2N 0G3,M2N
986,Midtown Toronto,1198000,43.671551,-79.390503,#308 - 68 YORKVILLE AVE,Toronto,M5R 3V7,M5R
987,Golden Mile,425000,43.722874,-79.289009,#D106 - 69 LEBOVIC AVE,Toronto,M1L 4T7,M1L
989,Downtown,368000,43.640381,-79.397339,#4712 - 21 ICEBOAT TERR,Toronto,M5V 4A9,M5V
990,Downtown,845000,43.647381,-79.387276,#2204 - 224 KING ST W,Toronto,M5K 1A1,M5K
991,Mimico,1198000,43.625542,-79.477242,#321 - 80 MARINE PARADE DR,Toronto,M8V 0A3,M8V
992,Downtown,460000,43.670227,-79.385147,#207 - 55 BLOOR ST E,Toronto,M4W 1A9,M4W
993,West Hill,99900,43.765911,-79.19754,#614 - 4062 LAWRENCE AVE E,Toronto,M1E 2R6,M1E
994,Downtown,812000,43.665546,-79.387245,#Ph6 - 1001 BAY ST,Toronto,M5S 3A6,M5S
995,Downtown,658888,43.659328,-79.382675,#720 - 386 YONGE ST,Toronto,M5G 2K2,M5G
996,Downtown,374800,43.652454,-79.363731,#1001 - 318 KING ST E,Toronto,M5A 1K6,M5A
997,Roncesvalles Village,950000,43.641171,-79.440117,4 SAUNDERS AVE,Toronto,M6R 1B8,M6R
998,Willowdale,549000,43.760998,-79.410202,#714 - 4789 YONGE ST,Toronto,M2N 0G3,M2N
999,Downtown,389000,43.645393,-79.393669,#610 - 393 KING ST W,Toronto,M5V 3G8,M5V
1000,Willowdale,575000,43.769665,-79.41378,#605 - 5162 YONGE ST,Toronto,M2N 0E9,M2N
1001,Downtown,760000,43.643246,-79.40126,#113 - 55 STEWART ST,Toronto,M5V 2V8,M5V
1002,Midtown Toronto,40000,43.663834,-79.417755,708 BLOOR ST W,Toronto,M6G 1L4,M6G
1003,Newtonbrook,519990,43.780727,-79.419991,#49 - 49 HENDON AVE,Toronto,M2M 1A4,M2M
1004,L'Amoreaux,699999,43.800964,-79.291489,71 BELLEFONTAINE ST,Toronto,M1S 4E6,M1S
1005,Willowdale,359900,43.776131,-79.414368,#209 - 5409 YONGE ST,Toronto,M2N 5R6,M2N
1006,Don Valley Village,1268000,43.788349,-79.343178,157 KINGSLAKE RD,Toronto,M2J 3G4,M2J
1007,Bayview Village,305000,43.765289,-79.382339,#304 - 3 REAN DR,Toronto,M2K 3C2,M2K
1008,Woburn,30000,43.761425,-79.217567,3737 LAWRENCE AVE E,Toronto,M1G 1H6,M1G
1010,Midtown Toronto,649900,43.690948,-79.439896,469 OAKWOOD AVE,Toronto,M6E 2W4,M6E
1011,Bayview Village,428000,43.765289,-79.382339,#1501 - 3 REAN DR,Toronto,M2K 3C2,M2K
1013,Dorset Park,149900,43.764812,-79.280273,#9 - 1415 KENNEDY RD,Toronto,M1P 2L6,M1P
1014,Golden Mile,160000,43.727928,-79.28759,#E2 - 900 WARDEN AVE,Toronto,M1L 2M5,M1L
1015,Midtown Toronto,18000,43.688816,-79.432076,401 VAUGHAN RD,Toronto,M6C 2P2,M6C
1016,Bayview Village,348000,43.769485,-79.368919,#515 - 15 SINGER CRT,Toronto,M2K 0B4,M2K
1017,Humber Bay,3500000,43.630436,-79.492691,26 BONNYVIEW DR,Toronto,M8Y 1P7,M8Y
1018,Edenbridge - Humber Valley,4980000,43.667885,-79.530289,421 THE KINGSWAY,Toronto,M9A 3W1,M9A
1019,Milliken,24900,43.827293,-79.291336,#8 - 4919 STEELES AVE E,Toronto,M1V 4Z4,M1V
1020,Bayview Village,459900,43.76952,-79.36969,#1205 - 29 SINGER CRT,Toronto,M2K 1C5,M2K
1021,York University Heights,789000,43.751904,-79.504105,44 OLLERTON RD,Toronto,M3J 1Y1,M3J
1022,Rexdale,235000,43.75848,-79.586617,#107 - 41 MARKBROOK LANE,Toronto,M9V 5E6,M9V
1023,Malvern,144900,43.806709,-79.217133,#410 - 15 SEWELLS RD,Toronto,M1B 3V7,M1B
1024,Wynford-Concorde,300,43.723839,-79.337303,#200 - 18 WYNFORD DR,Toronto,M3C 3S2,M3C
1025,Jane and Finch,149813,43.749435,-79.516846,#154 - 10 EDDYSTONE AVE,Toronto,M3N 2H7,M3N
1026,Jane and Finch,259900,43.764423,-79.496277,#207 - 25 FOUR WINDS DR,Toronto,M3J 1K8,M3J
1027,Rexdale,159900,43.722031,-79.543945,#2110 - 236 ALBION RD,Toronto,M9W 6A6,M9W
1028,Willowdale,698888,43.760998,-79.410202,#612 - 4789 YONGE ST,Toronto,M2N 0G3,M2N
1029,Agincourt,272000,43.78344,-79.283562,#208 - 4101 SHEPPARD AVE E,Toronto,M1S 3H3,M1S
1030,Downtown,374900,43.641788,-79.381874,#1211 - 14 YORK ST N,Toronto,M5J 0B1,M5J
1032,Niagara,294900,43.636345,-79.404808,#215 - 215 FORT YORK BLVD,Toronto,M5V 4A2,M5V
1033,Little Portugal,278800,43.641697,-79.423431,#628 - 36 LISGAR ST,Toronto,M6J 0A9,M6J
1034,Little Portugal,319900,43.641697,-79.423431,#1908 W - 36 LISGAR ST,Toronto,M6J 0A9,M6J
1035,Willowdale,488000,43.760998,-79.410202,#908 - 4789 YONGE ST,Toronto,M2N 0G3,M2N
1036,Newtonbrook,410000,43.784409,-79.416061,#503 - 5791 YONGE ST,Toronto,M2M 0A8,M2M
1037,Bayview Village,475000,43.769611,-79.368416,#3105 - 33 SINGER CRT,Toronto,M2K 0B4,M2K
1038,Tam O'Shanter,279000,43.785805,-79.292114,#803 - 185 BONIS AVE,Toronto,M1T 3W6,M1T
1039,Toronto,320000,43.761047,-79.410904,#358 - 4750 YONGE ST,Toronto,L4C 0M5,L4C
1040,West Queen West,3700000,43.646591,-79.406052,715-717 Queen St,Toronto,M6J 1E6,M6J
1041,West Queen West,3700000,43.646591,-79.406052,715-717 Queen St,Toronto,M6J 1E6,M6J
1042,Midtown Toronto,5750000,43.719818,-79.391922,191 STRATHGOWAN AVE,Toronto,M4N 1C4,M4N
1043,Downtown,1200000,43.644783,-79.362793,#820 - 15 MERCHANTS WHARF,Toronto,M5A 1B6,M5A
1044,Riverdale,39999,43.680504,-79.335663,1067 DANFORTH AVE,Toronto,M4J 1M1,M4J
1045,Downtown,54786,43.63969,-79.379517,111 QUEENS QUAY W,Toronto,M5J 2T5,M5J
1046,Niagara,325000,43.635681,-79.398674,#1817 - 650 QUEENS QUAY W,Toronto,M5V 3N2,M5V
1047,Downtown,1999000,43.641346,-79.372421,#1211 - 39 QUEENS QUAY E,Toronto,M5E 0A4,M5E
1048,Niagara,395000,43.636234,-79.403122,#413 - 628 FLEET ST,Toronto,M5V 1A8,M5V
1049,Niagara,329000,43.636837,-79.406052,#322 - 231 FORT YORK BLVD,Toronto,M5V 4A2,M5V
1050,Harbord Village,155000,43.665318,-79.409706,535 BLOOR ST W,Toronto,M5S 1Y5,M5S
1051,Downtown,489900,43.640381,-79.397339,#1509 - 21 ICEBOAT TERR,Toronto,M5V 4A9,M5V
1052,Midtown Toronto,469000,43.705097,-79.397514,2181 YONGE ST|Unit 2601,Toronto,M4S 2A9,M4S
1053,Downtown,549000,43.647224,-79.391098,#4006 - 21 WIDMER ST,Toronto,M5V 0B8,M5V
1054,Downtown,67000,43.649174,-79.367554,120 LOWER SHERBOURNE ST,Toronto,M5A 4J4,M5A
1055,Earlscourt,369900,43.67384,-79.453865,#3 - 92 CALEDONIA PARK RD,Toronto,M6H 4A8,M6H
1056,Rexdale,419900,43.731674,-79.576454,#1012 - 80 ESTHER LORRIE DR,Toronto,M9W 4L7,M9W
1057,Thorncrest Village,2575000,43.661552,-79.542702,75 THORNCREST RD,Toronto,M9A 1S9,M9A
1058,St. Andrew - Windfields,4880000,43.752792,-79.39328,33 MEDALIST RD,Toronto,M2P 1Y5,M2P
1059,Agincourt,1320000,43.786839,-79.276924,#1 -5 - 8 GLEN WATFORD DR,Toronto,M1S 2C1,M1S
1060,Rexdale,599900,43.733665,-79.561348,8 MCGILLIVRAY AVE,Toronto,M9V 1G3,M9V
1061,Golden Mile,160000,43.727928,-79.28759,900 WARDEN Avenue,Toronto,M1L 2M5,M1L
1062,The Queensway,1499999,43.624435,-79.512314,938 THE QUEENSWAY AVE,Toronto,M8Z 1P4,M8Z
1063,Leaside,345000,43.714638,-79.35463,#520 - 35 BRIAN PECK CRES,Toronto,M4G 4J7,M4G
1064,Bendale,389900,43.771309,-79.260719,#730 - 125 OMNI DR,Toronto,M1P 5A6,M1P
1065,Willowdale,485000,43.776329,-79.412376,#1028 - 28 SOMMERSET WAY,Toronto,M2N 6X5,M2N
1066,Tam O'Shanter - Sullivan,529900,43.775761,-79.307526,35 PALMDALE DR,Toronto,M1T 1P2,M1T
1068,Port Union,698800,43.787018,-79.164528,6227 KINGSTON RD,Toronto,M1C 1L1,M1C
1069,Downsview,399000,43.727539,-79.482857,#505 - 2772 KEELE ST,Toronto,M3M 0A3,M3M
1070,Don Mills,383000,43.73275,-79.345634,#706 - 75 THE DONWAY W ST,Toronto,M3C 2E9,M3C
1071,The Queensway,364900,43.625927,-79.504417,#512 - 760 THE QUEENSWAY,Toronto,M8Z 1N1,M8Z
1073,Willowdale,335000,43.778168,-79.417656,#302 - 503 BEECROFT RD,Toronto,M2N 7H2,M2N
1074,Willowdale,609900,43.760464,-79.410248,#2302 - 2 ANNDALE DR,Toronto,M2N 0G5,M2N
1075,Newtonbrook,408000,43.781662,-79.414391,#511 - 7 BISHOP AVE,Toronto,M2M 4J4,M2M
1076,Dorset Park,75000,43.770908,-79.278328,#4 - 1 WILLIAM KITCHEN RD,Toronto,M1P 2Y4,M1P
1077,Woburn,268000,43.780865,-79.247559,#913 - 8 LEE CENTRE DR,Toronto,M1H 3H9,M1H
1078,Golden Mile,485000,43.723164,-79.289505,#A114 - 41 LEBOVIC AVE,Toronto,M1L 4W1,M1L
1079,Mimico,340000,43.625717,-79.477188,#907 - 110 MARINE PARADE DR,Toronto,M8V 0A3,M8V
1080,Toronto,709000,43.761047,-79.410904,#322 - 4750 YONGE ST,Toronto,L4C 0M5,L4C
1081,Willowdale,498000,43.760998,-79.410202,#512 - 4789 YONGE ST,Toronto,M2N 0G3,M2N
1082,Toronto,409000,43.761047,-79.410904,#323 - 4750 YONGE ST,Toronto,L4C 0M5,L4C
1083,Downtown,475000,43.645195,-79.390678,#133 - 250 WELLINGTON ST W,Toronto,M5V 3P6,M5V
1084,Downtown,359900,43.657074,-79.355232,#601 - 51 TROLLEY CRES,Toronto,M5A 0E9,M5A
1085,York Mills,3980000,43.755997,-79.40049,2 NORMANDALE CRES,Toronto,M2P 1M8,M2P
1086,Downtown,558800,43.650372,-79.382347,#2117 - 70 TEMPERANCE ST,Toronto,M5H 3V5,M5H
1087,Tam O'Shanter,279000,43.785805,-79.292114,#301 - 185 BONIS AVE,Toronto,M1T 3W6,M1T
1088,Willowdale,649900,43.761154,-79.408836,#Th8 - 23 SHEPPARD AVE E,Toronto,M2N 0C8,M2N
1089,Mimico,999000,43.625717,-79.477188,#802 - 110 MARINE PARADE DR,Toronto,M8V 0A3,M8V
1090,Midtown Toronto,788000,43.673172,-79.389687,#808 - 32 DAVENPORT RD,Toronto,M5R 0B5,M5R
1091,Willowdale,248800,43.776131,-79.414368,#207 - 5409 Yonge St,Toronto,M2N 5R6,M2N
1092,Old East York,1299000,43.693748,-79.341621,82 Lesmount Ave,Toronto,M4J 3V9,M4J
1093,Brookhaven,204900,43.697231,-79.490097,#707 - 10 MARTHA EATON WAY,Toronto,M6M 4C2,M6M
1095,York University Heights,59900,43.768517,-79.473389,#09 - 1100 FINCH AVE W,Toronto,M3J 2E2,M3J
1096,Mimico,349000,43.622883,-79.481972,#615 - 2200 LAKESHORE BLVD W,Toronto,M8V 1A4,M8V
1097,Woburn,33000,43.781319,-79.24675,#111 -34- 28 LEE CENTRE DR N,Toronto,M1H 3K2,M1H
1098,Downsview,350000,43.750595,-79.464058,#Ph07 - 1060 SHEPPARD AVE W,Toronto,M3J 0G7,M3J
1100,Midtown Toronto,1358000,43.670319,-79.394432,#2313 - 155 YORKVILLE AVE,Toronto,M5R 1C4,M5R
1101,Parkdale,699000,43.635578,-79.441345,#2001 - 2167 LAKESHORE BLVD,Toronto,M6K 3C1,M6K
1102,Mimico,308000,43.622883,-79.481972,#1905 - 2200 LAKESHORE BLVD W,Toronto,M8V 1A4,M8V
1103,Richview,759888,43.688175,-79.563126,1 Tapley Dr,Toronto,M9R 3P2,M9R
1104,Agincourt,299900,43.778103,-79.281586,#3102 - 125 VILLAGE GREEN SQ,Toronto,M1S 0G5,M1S
1105,Bayview Village,318000,43.767689,-79.382263,#306 - 27 Rean Dr,Toronto,M2K 0A6,M2K
1106,Sunnyside,379000,43.636387,-79.466263,#1003 - 1910 LAKE SHORE BLVD W,Toronto,M6S,M6S
1107,Bay Cloverhill,249000,43.665531,-79.385147,598 YONGE ST,Toronto,M4Y 1Z3,M4Y
1108,Fairbank,740000,43.68784,-79.452614,3 ROCHDALE AVE,Toronto,M6E 1W9,M6E
1109,Midtown Toronto,479900,43.710548,-79.37999,#111 - 562 EGLINTON AVE E,Toronto,M4P 1P1,M4P
1110,Toronto,1199900,43.653225,-79.383186,6 GOLD BROOK GA,Toronto,M5G 1P5,M5G
1111,Don Mills,1899000,43.74173,-79.356651,4 CHATFIELD DR,Toronto,M3B 1K5,M3B
1112,Agincourt,275000,43.778103,-79.281586,#3506 - 125 VILLAGE GREEN SQ,Toronto,M1S 0G5,M1S
1114,Woburn,759900,43.776279,-79.232376,169 ELLESMERE RD,Toronto,M1H 2Y6,M1H
1115,Nortown,2088000,43.727737,-79.42942,567 MELROSE AVE,Toronto,M5M 2A4,M5M
1116,Downsview,10500000,43.72546,-79.487534,1184 WILSON AV,Toronto,M3M 1H3,M3M
1118,Downtown,149000,43.659393,-79.385529,736 Bay Street,Toronto,M5G 2M4,M5G
1119,Bendale,456000,43.772346,-79.255424,180 BOROUGH DR,Toronto,M1P 4Y7,M1P
1120,Cliffcrest,351000,43.725578,-79.23761,#1459 - 60 ANN O&#39;REILLY RD,Toronto,M1M 1X4,M1M
1121,Entertainment District,428000,43.649025,-79.387138,#603 - 126 SIMCOE ST,Toronto,M5H 4E6,M5H
1122,York University Heights,49000,43.764915,-79.487801,#15 - 1270 FINCH AVE W,Toronto,M3J 3J7,M3J
1123,The Beach,128000,43.672508,-79.287758,2377 QUEEN ST E,Toronto,M4E 1H2,M4E
1124,Leaside,2539000,43.715908,-79.367294,553 BROADWAY AVE,Toronto,M4G 2S2,M4G
1125,Midtown Toronto,998000,43.708008,-79.400787,#Th03 - 58 ORCHARD VIEW BLVD,Toronto,M4R 0A2,M4R
1126,Etobicoke West Mall,338900,43.646812,-79.566681,#711 - 451 THE WEST MALL ST,Toronto,M9C 1G1,M9C
1127,Brookhaven,218900,43.697231,-79.490097,#1914 - 10 MARTHA EATON WAY,Toronto,M6M 4C2,M6M
1128,Islington - City Centre West,309000,43.609993,-79.55748,#2806 - 215 SHERWAY GARDENS RD,Toronto,M9C 0A5,M9C
1129,Willowdale,519000,43.757988,-79.403625,#1709 - 120 HARRISON GARDEN BLVD,Toronto,M2N 0H1,M2N
1130,Little Portugal,1369000,43.642521,-79.422165,80 Dovercourt Rd,Toronto,M6J 3C3,M6J
1131,Trinity - Bellwoods,84000,43.646778,-79.41964,#Store - 121 OSSINGTON AVE,Toronto,M6J 2Z2,M6J
1132,Parkdale,270000,43.635578,-79.441345,2167 LAKE SHORE BLVD,Toronto,M6K 3C1,M6K
1134,Downtown,2099000,43.649784,-79.38044,#4404 - 311 BAY ST,Toronto,M5H 4G3,M5H
1136,Midtown Toronto,99000,43.712566,-79.399895,2518 YONGE ST,Toronto,M4P 2H7,M4P
1137,Woburn,235000,43.781796,-79.246574,#1611 - 38 LEE CENTRE DR,Toronto,M1H 3J7,M1H
1138,Newtonbrook,415000,43.781261,-79.413086,#707 - 18 PEMBERTON AVE,Toronto,M2M 4L9,M2M
1140,Wynford-Concorde,320700,43.723839,-79.337303,#715 - 18 WYNFORD DR,Toronto,M3C 3S2,M3C
1141,Wilson Heights,279000,43.735577,-79.442574,428 WILSON AVE,Toronto,M3H 1T9,M3H
1142,Agincourt,50000,43.805878,-79.288315,3280 MIDLAND AVE,Toronto,M1V 0C7,M1V
1143,Downtown,469999,43.641632,-79.38205,#2003 - 12 YORK ST,Toronto,M5J 2T8,M5J
1144,Rexdale,420000,43.731674,-79.576454,#1118 - 80 ESTHER LORRIE DR,Toronto,M9W 4L7,M9W
1145,Upper Beaches,629990,43.685524,-79.294144,#101 - 2320 GERRARD ST E,Toronto,M4E 2E1,M4E
1147,Downtown,439000,43.669609,-79.384773,#412 - 35 HAYDEN ST,Toronto,M4Y 3C3,M4Y
1148,Rexdale,407500,43.731674,-79.576454,#Ph 4 - 80 ESTHER LORRIE DR,Toronto,M9W 4L7,M9W
1149,Rouge,1195900,43.794567,-79.139496,#16 - 67 KIRKDENE DR,Toronto,M1C 2V6,M1C
1150,Dorset Park,499900,43.764812,-79.280273,#9 - 1415 KENNEDY RD,Toronto,M1P 2L6,M1P
1151,Eatonville,360000,43.639694,-79.563148,#2424 - 2 EVA RD,Toronto,M9C 4Z5,M9C
1152,Midtown Toronto,79000,43.682308,-79.423828,630 ST CLAIR AVE W,Toronto,M6C 1A9,M6C
1153,Woburn,69000,43.758801,-79.229645,#1 - 3495 LAWRENCE AVE E,Toronto,M1H 1B2,M1H
1154,Midtown Toronto,329900,43.717091,-79.429459,#405 - 3000 BATHURST ST,Toronto,M6B 3B4,M6B
1155,Woburn,343800,43.780197,-79.250015,#2838 - 68 CORPORATE DR,Toronto,M1H 3G5,M1H
1156,St. Andrew - Windfields,109000,43.75095,-79.401886,33 B THE LINKS RD,Toronto,M2P 1T7,M2P
1157,Willowdale,2999888,43.760998,-79.410202,#516 -51- 4789 YONGE ST,Toronto,M2N 0G3,M2N
1158,Humber Bay,760000,43.623608,-79.484077,#4403 - 36 PARK LAWN RD,Toronto,M8Y 3H8,M8Y
1159,Newtonbrook,378800,43.78067,-79.418343,#522 - 25 GREENVIEW AVE,Toronto,M2M 0A5,M2M
1160,Rexdale,319500,43.731674,-79.576454,#315 - 80 ESTHER LORRIE DR,Toronto,M9W 4L7,M9W
1161,Woburn,266800,43.78167,-79.247215,#3516 - 36 LEE CENTRE DR,Toronto,M1H 3J7,M1H
1162,Weston,225000,43.698143,-79.513771,#1808 - 1 Hickory Tree Rd,Toronto,M9N 3W4,M9N
1163,Silverthorn,624900,43.692989,-79.474442,2071 KEELE ST,Toronto,M6M 3Y8,M6M
1164,Downtown,30000,43.640163,-79.378647,#P6187 - 55 Harbour Sq,Toronto,M5J 2L4,M5J
1165,Silverthorn,659900,43.679874,-79.469025,45 LAVENDER RD,Toronto,M6N 2B6,M6N
1166,Woburn,749999,43.755661,-79.234169,4 FELICITY DR,Toronto,M1H 1C4,M1H
1167,Midtown Toronto,199000,43.670078,-79.393288,#Main F- 154 CUMBERLAND ST,Toronto,M5R 1A8,M5R
1169,Midtown Toronto,1395000,43.686676,-79.399445,#1417 - 111 ST CLAIR AVE W,Toronto,M4V 1N5,M4V
1170,Agincourt,279900,43.779205,-79.281517,#2012 - 181 VILLAGE GREEN SQ,Toronto,M1S 0K5,M1S
1171,Parkdale,330000,43.635578,-79.441345,#2706 - 2167 LAKE SHORE BLVD,Toronto,M6K 3C1,M6K
1172,Bayview Village,488000,43.765575,-79.386047,#1202 - 18 KENASTON GDNS,Toronto,M2K 3C7,M2K
1173,Mimico,525000,43.624306,-79.480461,#3504 - 2175 LAKE SHORE BLVD W,Toronto,M8V 1A2,M8V
1174,York University Heights,419000,43.764915,-79.487801,#13 - 1270 FINCH AVE W,Toronto,M3J 3J7,M3J
1175,Humber Bay,1599000,43.633606,-79.489639,58 CANNON RD,Toronto,M8Y 1S2,M8Y
1177,Toronto,1189000,43.696083,-79.508209,1634 WESTON RD,Toronto,M9N 1B9,M9N
1178,West Hill,649000,43.775249,-79.192978,69 WEIR CRES,Toronto,M1E 3B1,M1E
1179,Leaside,2549000,43.715466,-79.369461,517 BROADWAY AVE,Toronto,M4G 2R7,M4G
1180,Leaside,2200000,43.703876,-79.36483,874 MILLWOOD RD,Toronto,M4G 1W9,M4G
1181,Eatonville,270000,43.640301,-79.562302,#1205 - 6 Eva Rd,Toronto,M9C 0A9,M9C
1182,Nortown,1799000,43.730038,-79.431122,124 BARSE ST,Toronto,M5M 4L4,M5M
1183,Parkdale,2200000,43.63681,-79.432549,153 DUNN AVE,Toronto,M6K 2R8,M6K
1184,Downtown,568000,43.642509,-79.377365,#1204 - 33 Bay St,Toronto,M5J 2Z3,M5J
1185,Mimico,1350000,43.621059,-79.501091,2 EVANS AVE,Toronto,M8Z 1H3,M8Z
1186,Morningside Heights,649900,43.822536,-79.217674,11 Knowles Dr,Toronto,M1X 1V1,M1X
