,AreaName,Price ($),lat,lng,Address,City,Postal Code,FSA
284,Port Hope,497250,43.960762,-78.323914,#207 - 55 ANN O&#39;REILLY RD,Toronto,L1A 3V5,L1A
996,Port Hope,722000,43.960762,-78.323914,#Ph63 - 60 ANN O&#39;REILLY RD,Toronto,L1A 3V5,L1A
361,Toronto,299000,43.761047,-79.410904,#335 - 4750 YONGE ST,Toronto,L4C 0M5,L4C
548,Malvern,498000,43.792122,-79.235725,#508 - 28 Rosebank Dr,Toronto,M1B,M1B
985,Rouge,469900,43.796883,-79.154869,6 HUXTABLE LANE,Toronto,M1B 0A3,M1B
517,Rouge,559999,43.807819,-79.180832,198 Rouge River Dr,Toronto,M1B 0A8,M1B
131,Rouge,3599000,43.806259,-79.158813,61 Boydwood Lane,Toronto,M1B 1H2,M1B
26,Malvern,338000,43.805099,-79.21196,#18 - 170 Wickson Tr,Toronto,M1B 1M4,M1B
657,Malvern,419990,43.79277,-79.229561,#134 - 150 Burrows Hall Blvd,Toronto,M1B 1M6,M1B
228,Malvern,549000,43.81366,-79.234749,90 CRITTENDEN SQ,Toronto,M1B 1V1,M1B
921,Malvern,649000,43.810703,-79.234848,5 LIGHTHALL CRES,Toronto,M1B 1V4,M1B
543,Malvern,539000,43.808029,-79.229721,58 Horseley Hill Dr,Toronto,M1B 1W5,M1B
460,Rouge,465000,43.80365,-79.172356,99 Red River Cres,Toronto,M1B 1Z5,M1B
463,Rouge,439000,43.802834,-79.172585,9 Red River Cres,Toronto,M1B 1Z5,M1B
441,Malvern,379900,43.792198,-79.232147,#92 - 100 Burrows Hall Blvd,Toronto,M1B 1Z7,M1B
968,Malvern,148000,43.803925,-79.216507,#504 - 8 SILVER BELL GRVE,Toronto,M1B 2L7,M1B
1247,Malvern,114900,43.803925,-79.216507,#105 - 8 Silverbell Grve,Toronto,M1B 2L7,M1B
925,Malvern,369900,43.796494,-79.237122,#20 - 50 VERNE CRES,Toronto,M1B 2X1,M1B
462,Rouge,599000,43.800362,-79.177345,10 Sudbury Hall Dr,Toronto,M1B 3H6,M1B
1071,Malvern,144900,43.806709,-79.217133,#410 - 15 Sewells Rd,Toronto,M1B 3V7,M1B
118,Malvern,849000,43.815105,-79.217415,42 Rovinelli Rd,Toronto,M1B 4L2,M1B
965,Malvern,899000,43.815502,-79.216034,18 MIDDLEPORT CRES,Toronto,M1B 4L4,M1B
498,Malvern,571300,43.814308,-79.215759,1 ROVINELLI RD,Toronto,M1B 4L6,M1B
632,Malvern,269000,43.809708,-79.221169,#1002 - 400 Mclevin Ave,Toronto,M1B 4Z8,M1B
561,Malvern,799000,43.819778,-79.211075,51 Old Finch Ave,Toronto,M1B 5J1,M1B
1261,Malvern,369500,43.791836,-79.237404,#17M - 8 Rosebank Dr,Toronto,M1B 5Z3,M1B
766,Malvern,399000,43.793896,-79.234688,#311 - 1088 PROGRESS AVE,Toronto,M1B 5Z6,M1B
1016,Malvern,289000,43.804581,-79.227768,#6 - 200 MCLEVIN AVE,Toronto,M1B 6A2,M1B
975,Malvern,619000,43.815937,-79.223,18 SWALLOWTAIL RD,Toronto,M1B 6B1,M1B
1152,Malvern,599900,43.807312,-79.227303,38 Pinery Tr,Toronto,M1B 6C2,M1B
44,Malvern,105,43.807106,-79.227829,#9 - 42 Pinery Tr,Toronto,M1B 6K2,M1B
291,Rouge,899900,43.808025,-79.189018,9 ANTELOPE DR,Toronto,M1B 6K4,M1B
407,Highland Creek,1174900,43.791302,-79.158119,#Block - 6443 KINGSTON RD,Toronto,M1C 1L2,M1C
911,Port Union,999900,43.790985,-79.152229,361 CENTENNIAL RD,Toronto,M1C 2A3,M1C
542,Port Union,649900,43.782429,-79.145828,27 Conference Blvd,Toronto,M1C 2E1,M1C
1097,Rouge,699000,43.792217,-79.134521,326 Jaybell Grve,Toronto,M1C 2X4,M1C
338,Highland Creek,734900,43.791893,-79.180328,42 PARADE SQ,Toronto,M1C 3T6,M1C
1053,Rouge,674900,43.783424,-79.131348,21 Wheeling Dr,Toronto,M1C 3X2,M1C
950,Rouge,650000,43.782482,-79.131035,140 MABERLEY CRES,Toronto,M1C 3X7,M1C
1059,Highland Creek,999999,43.788246,-79.17627,64 Windrush Tr,Toronto,M1C 3X9,M1C
339,Highland Creek,699900,43.790642,-79.176041,103 FISHERY RD,Toronto,M1C 4H5,M1C
1051,Highland Creek,699900,43.790642,-79.176041,103 Fishery Rd,Toronto,M1C 4H5,M1C
1146,Highland Creek,719888,43.796654,-79.179451,17 Grover Dr,Toronto,M1C 4K8,M1C
1099,Port Union,529800,43.794605,-79.14389,138 Andona Cres,Toronto,M1C 5A1,M1C
241,Port Union,756900,43.777721,-79.137276,31 VESSEL CRES,Toronto,M1C 5K7,M1C
1244,Port Union,724900,43.776131,-79.13604,49 Wharfside Lane,Toronto,M1C 5K8,M1C
479,West Hill,469500,43.765007,-79.19281,60 IGNATIUS LANE,Toronto,M1E 0A2,M1E
512,Guildwood,715000,43.743652,-79.20015,229 Catalina Dr,Toronto,M1E 1B8,M1E
329,West Hill,599900,43.758068,-79.191078,97 CULTRA SQ,Toronto,M1E 2E1,M1E
200,West Hill,669000,43.760899,-79.191841,24 CORONATION DR,Toronto,M1E 2H1,M1E
1092,West Hill,669900,43.760811,-79.18306,4 Dubarry Ave,Toronto,M1E 3C5,M1E
1138,West Hill,598800,43.773823,-79.188538,320 Morningside Ave,Toronto,M1E 3E7,M1E
1251,West Hill,175000,43.775818,-79.182098,##5-213 - 50 Old Kingston Rd,Toronto,M1E 3J5,M1E
1080,West Hill,550000,43.774227,-79.187302,24 Amiens Rd,Toronto,M1E 3S6,M1E
1087,West Hill,588000,43.774265,-79.181625,4609 Kingston Rd,Toronto,M1E 3T5,M1E
1273,Morningside,39000,43.784046,-79.204781,2856 Ellesmere Rd,Toronto,M1E 4B8,M1E
14,Morningside,675000,43.788639,-79.207932,430 Military Tr,Toronto,M1E 4E7,M1E
1226,Morningside,449200,43.790234,-79.197525,743 Military Tr,Toronto,M1E 4P7,M1E
478,West Hill,675000,43.773659,-79.196533,127 WEIR CRES,Toronto,M1E 4T1,M1E
92,West Hill,25,43.76638,-79.197601,#613 - 4064 Lawrence Ave,Toronto,M1E 4V6,M1E
1201,Morningside,329000,43.785278,-79.204994,#88 - 21 Livonia Pl,Toronto,M1E 4W7,M1E
205,Morningside,255999,43.786823,-79.19548,#2010 - 100 MORNELLE CRT,Toronto,M1E 4X2,M1E
1128,West Hill,349900,43.767723,-79.174797,#114 - 275 Manse Rd,Toronto,M1E 4X8,M1E
66,Morningside,209900,43.786037,-79.197723,#1501 - 3050 Ellesmere Rd,Toronto,M1E 5E6,M1E
438,Woburn,525000,43.758507,-79.212791,26 Angora St,Toronto,M1G 1L6,M1G
50,Woburn,25,43.759617,-79.206642,110 Kirker Ave,Toronto,M1G 1M9,M1G
352,Woburn,599999,43.761688,-79.221779,22 TOULON RD,Toronto,M1G 1V5,M1G
23,Woburn,145,43.769413,-79.211456,11 Mid Pines Rd,Toronto,M1G 2L6,M1G
1211,Woburn,649999,43.769974,-79.228714,24 Bailey Cres,Toronto,M1G 2P3,M1G
877,Woburn,630000,43.771046,-79.209915,959 BRIMORTON DR,Toronto,M1G 2V1,M1G
330,Woburn,649000,43.779556,-79.225761,1 PEGASUS TR,Toronto,M1G 3N3,M1G
1215,Woburn,799800,43.779442,-79.223587,5 Portico Dr,Toronto,M1G 3R4,M1G
603,Woburn,343900,43.773685,-79.249619,#1611 - 68 Grangeway Ave,Toronto,M1H 0A1,M1H
79,Woburn,25,43.773827,-79.250023,#2202 - 88 Grangeway Ave,Toronto,M1H 0A2,M1H
225,Bendale,639000,43.764198,-79.241608,63 JARWICK DR,Toronto,M1H 2H1,M1H
234,Woburn,355000,43.780956,-79.249779,#2611 - 88 CORPORATE DR,Toronto,M1H 3G6,M1H
617,Woburn,275000,43.780956,-79.249779,#2819 - 88 Corporate Dr,Toronto,M1H 3G6,M1H
890,Woburn,335000,43.780956,-79.249779,#708 - 88 CORPORATE DR,Toronto,M1H 3G6,M1H
666,Woburn,319000,43.78167,-79.247215,#3311 - 36 Lee Centre Dr,Toronto,M1H 3J7,M1H
928,Woburn,259000,43.78167,-79.247215,#1512 - 36 LEE CENTRE DR,Toronto,M1H 3J7,M1H
1158,Woburn,278000,43.78167,-79.247215,#2215 - 36 Lee Centre St,Toronto,M1H 3J7,M1H
190,Eglinton East,699900,43.742371,-79.245285,1315 DANFORTH RD,Toronto,M1J 1G2,M1J
1175,Bendale,599000,43.750469,-79.244263,1503 Danforth Rd,Toronto,M1J 1H5,M1J
1064,Bendale,799000,43.749783,-79.250481,41 Gage Ave,Toronto,M1J 1T6,M1J
1038,Eglinton East,199999,43.739429,-79.237755,2906 EGLINTON AVE,Toronto,M1J 2E4,M1J
899,South Cedarbrae,599000,43.745686,-79.236183,16 RADISSON ST,Toronto,M1J 2P2,M1J
549,Woburn,529000,43.749329,-79.226715,39 Chestermere Blvd,Toronto,M1J 2X8,M1J
459,Scarborough Village,698000,43.748539,-79.208725,14 Saunders Rd,Toronto,M1J 3H9,M1J
220,Eglinton East,699800,43.743881,-79.231148,124 GREENWICH SQ,Toronto,M1J 3L3,M1J
413,Scarborough Village,209900,43.744812,-79.214561,#808 - 3380 EGLINTON AVE E,Toronto,M1J 3L6,M1J
1239,Scarborough Village,212000,43.744812,-79.214561,#1002 - 3380 Eglinton Ave,Toronto,M1J 3L6,M1J
1129,Eglinton East,269900,43.737576,-79.238251,#1512 - 330 Mccowan Rd,Toronto,M1J 3N3,M1J
354,Scarborough Village,479000,43.743988,-79.223457,137 CONN SMYTHE DR,Toronto,M1J 3P6,M1J
1293,Clairlea - Birchmount,129000,43.71006,-79.261116,72 Moira Ave,Toronto,M1K 1B8,M1K
82,Scarborough Junction,179000,43.72599,-79.265015,#537 - 665 Kennedy Rd,Toronto,M1K 2B8,M1K
455,Kennedy Park,628000,43.726383,-79.270432,114 Roebuck Dr,Toronto,M1K 2H7,M1K
1086,Ionview,519900,43.725605,-79.273972,33 Chelwood Rd,Toronto,M1K 2K5,M1K
77,Ionview,25,43.732124,-79.275276,14 Rosemount Dr,Toronto,M1K 2W8,M1K
19,Ionview,499900,43.740097,-79.273987,31 Yorkshire Rd,Toronto,M1K 3B7,M1K
564,Scarborough Junction,699900,43.723095,-79.260643,65 Hart Ave,Toronto,M1K 3H3,M1K
212,Kennedy Park,749000,43.720936,-79.254662,35 MAGNOLIA AVE,Toronto,M1K 3K3,M1K
61,Bendale,699900,43.744205,-79.262428,1060 Midland Ave,Toronto,M1K 4G9,M1K
20,Kennedy Park,599000,43.733814,-79.25,34 Ordway Rd,Toronto,M1K 4J4,M1K
1162,Kennedy Park,675000,43.728794,-79.254074,23 Commonwealth Ave,Toronto,M1K 4J9,M1K
887,Bendale,699000,43.746624,-79.253967,26 PANMURE CRES,Toronto,M1K 4Y6,M1K
722,Kennedy Park,319900,43.724361,-79.251663,#1822 - 3 Greystone Walk Dr,Toronto,M1K 5J3,M1K
872,Kennedy Park,319000,43.724361,-79.251663,#1531 - 3 GREYSTONE WALK DR,Toronto,M1K 5J3,M1K
400,Clairlea - Birchmount,779000,43.705589,-79.275879,#3 - 80 BELL ESTATE RD E,Toronto,M1L 0E2,M1L
204,Scarborough Junction,678000,43.701309,-79.27533,93 DAIRY DR,Toronto,M1L 0G1,M1L
976,Clairlea - Birchmount,699000,43.702419,-79.274368,38 BELANGER CRES,Toronto,M1L 0G1,M1L
1154,Clairlea - Birchmount,584900,43.702419,-79.274368,32 Belanger Cres,Toronto,M1L 0G1,M1L
482,Clairlea - Birchmount,629000,43.702591,-79.272026,19 LILY CUP AVE,Toronto,M1L 0H4,M1L
998,Golden Mile,159000,43.726879,-79.28846,#8 G - 1921 EGLINTON AVE E,Toronto,M1L 2L6,M1L
464,Clairlea - Birchmount,799900,43.704266,-79.293152,82 PITT AVE,Toronto,M1L 2R6,M1L
589,Clairlea,1090000,43.715702,-79.286171,2 Monastery Lane,Toronto,M1L 4V6,M1L
902,Scarborough Village,249500,43.742031,-79.213844,#Ph24 - 3650 KINGSTON RD,Toronto,M1M 1R9,M1M
1133,Scarborough Village,999000,43.741905,-79.213821,444 Kingston Road,Toronto,M1M 1R9,M1M
436,Cliffcrest,699900,43.734875,-79.22728,80 Martindale Rd,Toronto,M1M 2C1,M1M
540,Cliffcrest,629900,43.734875,-79.22728,80 Martindale Rd,Toronto,M1M 2C1,M1M
300,Cliffcrest,599000,43.721256,-79.245033,9 Andrew Ave,Toronto,M1M 3G9,M1M
395,Scarborough Village,249900,43.744297,-79.209541,#104 - 50 SCARBOROUGH GOLF CLUB RD,Toronto,M1M 3T5,M1M
422,Scarborough Village,299900,43.744297,-79.209541,#120 - 50 SCARBOROUGH GOLF CLUB RD,Toronto,M1M 3T5,M1M
1102,Cliffside,599900,43.703186,-79.251564,7 East Haven Dr,Toronto,M1N 1L8,M1N
503,Birch Cliff,1599900,43.685364,-79.280182,40 Clonmore Dr,Toronto,M1N 1X6,M1N
103,Birch Cliff,1790000,43.685295,-79.281013,25 Parkland Rd,Toronto,M1N 1Y7,M1N
900,Birch Cliff,989000,43.698494,-79.263435,11 AYLESWORTH AVE,Toronto,M1N 2G3,M1N
260,Birch Cliff,455000,43.701328,-79.264549,108 AYLESWORTH AVE,Toronto,M1N 2J6,M1N
267,Birch Cliff,2348900,43.678131,-79.280182,92 BLANTYRE AVE,Toronto,M1N 2R5,M1N
71,Birch Cliff,699000,43.688419,-79.267677,45 Valhalla Blvd,Toronto,M1N 3B4,M1N
1098,Birch Cliff,599000,43.694736,-79.26387,161 Harding Blvd,Toronto,M1N 3E1,M1N
1078,Cliffside,549900,43.709721,-79.255051,75 Vanbrugh Ave,Toronto,M1N 3T1,M1N
355,Bendale,649900,43.753349,-79.264595,41 ARCHIBALD MEWS,Toronto,M1P 0A5,M1P
1095,Bendale,649900,43.753349,-79.264595,41 Archibald Mews,Toronto,M1P 0A5,M1P
986,Bendale,292000,43.773251,-79.255272,#1703 - 50 TOWN CENTRE CRT,Toronto,M1P 0A9,M1P
991,Bendale,429900,43.773403,-79.254951,#2908 - 25 TOWN CENTRE CRT,Toronto,M1P 0A9,M1P
951,McGregor Park,699999,43.743446,-79.278091,52 LEAHANN DR,Toronto,M1P 1B9,M1P
487,Dorset Park,599000,43.752731,-79.277641,209 Ellendale Dr,Toronto,M1P 1P5,M1P
41,Dorset Park,599900,43.755791,-79.28788,1465A Birchmount Rd,Toronto,M1P 2G4,M1P
516,Dorset Park,619900,43.74728,-79.274452,1026 Kennedy Rd,Toronto,M1P 2K6,M1P
209,Dorset Park,688888,43.764812,-79.280273,#13 - 1415 KENNEDY RD,Toronto,M1P 2L6,M1P
1104,Dorset Park,174900,43.769417,-79.28241,#201 - 2 Glamorgan Ave,Toronto,M1P 2M8,M1P
993,Bendale,149000,43.751389,-79.263054,2655 LAWRENCE AVE E,Toronto,M1P 2S3,M1P
1286,Bendale,59000,43.767159,-79.270447,#5 - 1157 Ellesmere Rd,Toronto,M1P 3R1,M1P
1121,Bendale,829900,43.758427,-79.259102,39 Lyon Heights Rd,Toronto,M1P 3V7,M1P
446,Bendale,499900,43.765526,-79.253128,29 Bromton Dr,Toronto,M1P 4B7,M1P
1131,Bendale,849800,43.767342,-79.257347,22 Hathway Dr,Toronto,M1P 4L5,M1P
64,Dorset Park,113,43.769642,-79.286133,70 Dundalk Dr,Toronto,M1P 4T7,M1P
283,Dorset Park,229000,43.751743,-79.266388,#1207 - 2550 LAWRENCE AVE E,Toronto,M1P 4Z3,M1P
545,Dorset Park,588000,43.767147,-79.271454,#102 - 1075 Ellesmere Rd,Toronto,M1P 5E2,M1P
1208,Bendale,260000,43.772751,-79.260788,#410 - 83 Borough Dr,Toronto,M1P 5E4,M1P
10,Dorset Park,549900,43.749599,-79.270844,160 Jenkinson Way,Toronto,M1P 5H4,M1P
419,Bendale,286000,43.773582,-79.258919,#1508 - 50 BRIAN HARRISON WAY,Toronto,M1P 5J4,M1P
942,Bendale,329000,43.773582,-79.258919,#2407 - 50 BRIAN HARRISON WAY,Toronto,M1P 5J4,M1P
1274,Bendale,284800,43.773312,-79.258728,#3005 - 60 Brian Harrison Way,Toronto,M1P 5J5,M1P
340,Victoria Village,36000,43.73098,-79.30584,#5 - 1646 VICTORIA PARK AVE,Toronto,M1R 1P7,M1R
33,Wexford - Maryvale,749900,43.742485,-79.296707,4 Danube Dr,Toronto,M1R 1Y7,M1R
876,Wexford - Maryvale,674900,43.732147,-79.300087,924 PHARMACY AVE,Toronto,M1R 2E9,M1R
554,Wexford - Maryvale,649000,43.755215,-79.309769,1336 Pharmacy Ave,Toronto,M1R 2J5,M1R
36,Wexford - Maryvale,649900,43.763866,-79.312263,1574 Pharmacy Ave,Toronto,M1R 2K7,M1R
966,Wexford,849900,43.755329,-79.302849,3 PRINCEMERE CRES,Toronto,M1R 3J8,M1R
1069,Wexford,575000,43.754829,-79.296417,7 Willowhurst Cres,Toronto,M1R 3R7,M1R
1139,Wexford - Maryvale,600000,43.746807,-79.298882,3 Honey Dr,Toronto,M1R 3S3,M1R
353,Wexford,649000,43.747566,-79.290649,11 ELLINGTON DR,Toronto,M1R 3X6,M1R
221,Agincourt,293900,43.779205,-79.281517,#2813 - 181 VILLAGE GREEN SQ,Toronto,M1S 0K5,M1S
328,Agincourt,249888,43.778614,-79.281258,#2010 - 151 VILLAGE GREEN SQ,Toronto,M1S 0K5,M1S
404,Agincourt,383000,43.778614,-79.281258,#907 - 151 VILLAGE GREEN SQ,Toronto,M1S 0K5,M1S
642,Agincourt,332000,43.778614,-79.281258,#1603 - 151 Village Green Sq,Toronto,M1S 0K5,M1S
701,Agincourt,279500,43.779205,-79.281517,#516 - 181 Village Green Sq,Toronto,M1S 0K5,M1S
1006,Agincourt,299000,43.779205,-79.281517,#517 - 181 VILLAGE GREEN SQ,Toronto,M1S 0K5,M1S
1037,Agincourt,408000,43.779129,-79.281883,#3323 - 275 VILLAGE GREEN SQ,Toronto,M1S 0K6,M1S
1191,Agincourt,499000,43.779129,-79.281883,#Th47 - 315 Village Green Sq,Toronto,M1S 0K6,M1S
475,Agincourt,868888,43.794025,-79.285156,39 Stainforth Dr,Toronto,M1S 1L8,M1S
427,Agincourt,970000,43.788311,-79.268082,#3107 -3- 4438 SHEPPARD AVE E,Toronto,M1S 1V2,M1S
997,Agincourt,109988,43.788311,-79.268082,#238 - 4438 SHEPPARD AVE E,Toronto,M1S 1V2,M1S
134,White Haven,650000,43.786873,-79.256088,17 Tineta Cres,Toronto,M1S 2Y5,M1S
1015,Agincourt,258000,43.783657,-79.284416,#Ph05 - 4091 SHEPPARD AVE E,Toronto,M1S 3H2,M1S
431,Agincourt,268000,43.78344,-79.283562,#2004 - 4101 SHEPPARD AVE E,Toronto,M1S 3H3,M1S
1008,Agincourt,269000,43.78344,-79.283562,#705 - 4101 SHEPPARD AVE E,Toronto,M1S 3H3,M1S
987,White Haven,279900,43.791035,-79.239006,#816 - 39 KIMBERCROFT CRT,Toronto,M1S 4V6,M1S
17,Agincourt,49,43.807091,-79.265533,#1215 - 2627 Mccowan Rd,Toronto,M1S 5T1,M1S
25,Tam O'Shanter - Sullivan,145,43.772118,-79.309311,20 Shrewsbury Sq,Toronto,M1T 1L2,M1T
22,Tam O'Shanter,698000,43.774624,-79.298141,2 Moraine Hill Dr,Toronto,M1T 1Z9,M1T
461,Tam O'Shanter,788888,43.774624,-79.298141,2 Moraine Hill Dr,Toronto,M1T 1Z9,M1T
515,Tam O'Shanter,999900,43.788258,-79.306534,9 Gablehurst Cres,Toronto,M1T 2L1,M1T
537,L'Amoreaux,1599000,43.797714,-79.295837,9 Grove Hill Dr,Toronto,M1T 3C8,M1T
421,Tam O'Shanter,228000,43.780746,-79.30529,#1109 - 40 BAY MILLS BLVD,Toronto,M1T 3P5,M1T
980,Tam O'Shanter,359999,43.775997,-79.305061,#27 - 71 CASS AVE,Toronto,M1T 3P9,M1T
604,L'Amoreaux,599800,43.800545,-79.299683,#11 - 40 Wayside Ave,Toronto,M1T 3T9,M1T
881,Tam O'Shanter,499900,43.785709,-79.293724,#207 - 168 BONIS AVE,Toronto,M1T 3V6,M1T
1045,Tam O'Shanter,335000,43.786736,-79.291008,#207 - 228 BONIS AVE,Toronto,M1T 3W4,M1T
250,Tam O'Shanter,338000,43.785805,-79.292114,#1202 - 185 BONIS AVE,Toronto,M1T 3W6,M1T
546,Tam O'Shanter,285000,43.785805,-79.292114,#909 - 185 Bonis Ave,Toronto,M1T 3W6,M1T
505,Tam O'Shanter,339800,43.786015,-79.290237,#2515 - 238 Bonis Ave,Toronto,M1T 3W7,M1T
85,Milliken,25,43.807594,-79.28289,179 Carolbreen Sq,Toronto,M1V 1J1,M1V
263,L'Amoreaux,599000,43.802258,-79.298607,33 PUMA DR,Toronto,M1V 1J7,M1V
458,Milliken,699900,43.81181,-79.282883,104 Homedale Dr,Toronto,M1V 1M2,M1V
1167,Milliken,930000,43.812344,-79.287697,140 Valdor Dr,Toronto,M1V 1R5,M1V
467,Toronto,688000,43.820442,-79.263741,80 VALLEY STREAM DR,Toronto,M1V 2A5,M1V
481,Toronto,698800,43.820442,-79.263741,80 VALLEY STREAM DR,Toronto,M1V 2A5,M1V
502,Toronto,738800,43.820442,-79.263741,80 VALLEY STREAM DR,Toronto,M1V 2A5,M1V
908,Toronto,658000,43.823734,-79.26403,31 GREEN SPRING DR,Toronto,M1V 2A9,M1V
1052,Toronto,650000,43.825737,-79.264999,95 Treetops Crt,Toronto,M1V 2B9,M1V
1206,Toronto,688000,43.822731,-79.266121,111 Shady Hollow Dr,Toronto,M1V 2L9,M1V
40,Agincourt,709900,43.809811,-79.263359,1 Silbury Dr,Toronto,M1V 2P2,M1V
29,Milliken,25,43.821087,-79.314796,37 Chapel Park Sq,Toronto,M1V 2S5,M1V
1091,L'Amoreaux,899000,43.822521,-79.307266,59 New Forest Sq,Toronto,M1V 2Z6,M1V
496,Toronto,769000,43.827942,-79.273911,64 SEAMIST CRES,Toronto,M1V 3K3,M1V
995,Agincourt,129000,43.806225,-79.289284,#1 - 3290 MIDLAND AVE,Toronto,M1V 3L3,M1V
90,Toronto,25,43.824669,-79.274445,#1509 - 88 Alton Towers Circ,Toronto,M1V 5C5,M1V
751,Armdale,89900,43.819328,-79.253868,#209B - 80 Nashdene Rd,Toronto,M1V 5E4,M1V
1137,Toronto,318000,43.824078,-79.273773,#1112 - 80 Alton Towers Circ,Toronto,M1V 5E8,M1V
1176,Toronto,319900,43.824078,-79.273773,#212 - 80 Alton Towers Circ,Toronto,M1V 5E8,M1V
54,Bridlewood,145,43.796768,-79.315636,5051 Finch Ave,Toronto,M1W,M1W
601,L'Amoreaux,1999000,43.782825,-79.323822,118 Fairglen Ave,Toronto,M1W 1A7,M1W
253,L'Amoreaux,799000,43.793324,-79.327263,80 HEPSCOTT TERR,Toronto,M1W 1E1,M1W
360,Tam O'Shanter,499900,43.7897,-79.30526,#17 - 671 HUNTINGWOOD DR,Toronto,M1W 1H6,M1W
533,Bridlewood,979000,43.802124,-79.328522,10 Beverly Glen Blvd,Toronto,M1W 1V9,M1W
1254,L'Amoreaux,799000,43.801441,-79.320969,31 Hildenboro Sq,Toronto,M1W 1Y2,M1W
905,L'Amoreaux,535000,43.793533,-79.323593,324 SPRUCEWOOD CRT,Toronto,M1W 2K3,M1W
879,Milliken,575000,43.800041,-79.315277,#603 - 2330 BRIDLETOWNE CIRC,Toronto,M1W 2L3,M1W
1266,Bridlewood,50000,43.798363,-79.318466,#139 - 2900 Warden Ave,Toronto,M1W 2S8,M1W
303,Bridlewood,229900,43.794464,-79.312782,#402 - 1250 Bridletowne Circ,Toronto,M1W 2V1,M1W
585,Bridlewood,229900,43.794464,-79.312782,#611 - 1250 Bridletowne Circ,Toronto,M1W 2V1,M1W
226,L'Amoreaux,699000,43.809433,-79.324379,22 MOSSBROOK CRES,Toronto,M1W 2W9,M1W
901,Bridlewood,289000,43.79488,-79.313713,#311 - 10 STONEHILL CRT,Toronto,M1W 2X8,M1W
490,L'Amoreaux,775999,43.816643,-79.333656,71 GLENCOYNE CRES,Toronto,M1W 2Z1,M1W
227,Steeles,699900,43.818989,-79.325394,92 FRANK RIVERS DR,Toronto,M1W 3N4,M1W
1112,Milliken,399800,43.800705,-79.317162,#2002 - 2350 Bridletowne Circ,Toronto,M1W 3P6,M1W
117,Steeles,329900,43.814667,-79.326698,#1108 - 55 Bamburgh Circ,Toronto,M1W 3V4,M1W
602,Steeles,429000,43.814667,-79.326698,#1403 - 55 Bamburgh Circ,Toronto,M1W 3V4,M1W
249,Steeles,381000,43.81361,-79.32341,#108 - 275 BAMBURGH CIRC,Toronto,M1W 3X4,M1W
258,Steeles,269000,43.81361,-79.32341,#1210 - 275 BAMBURGH CIRC,Toronto,M1W 3X4,M1W
964,Steeles,368888,43.81361,-79.32341,#203 - 275 BAMBURGH CIRC,Toronto,M1W 3X4,M1W
635,Steeles,438888,43.81226,-79.324944,#1908 - 175 Bamburgh Circ,Toronto,M1W 3X8,M1W
268,Armdale,345,43.825054,-79.246819,#27 -46 - 30 IRONSIDE CRES,Toronto,M1X 1G4,M1X
949,Rouge,619900,43.823277,-79.215515,92 GRISTONE CRES,Toronto,M1X 1T6,M1X
16,Bayview Woods - Steeles,49,43.799358,-79.377914,46 Bruce Farm Dr,Toronto,M2H 1G5,M2H
640,Hillcrest Village,1850000,43.806202,-79.370438,48 Rondeau Dr,Toronto,M2H 1R6,M2H
334,Hillcrest Village,950000,43.793015,-79.361977,7 LEHAR CRES,Toronto,M2H 1T6,M2H
27,Don Valley Village,699800,43.792187,-79.365669,6 Willesden Rd,Toronto,M2H 1V5,M2H
13,Hillcrest Village,129,43.79948,-79.357445,166 Mcnicoll Ave,Toronto,M2H 2B9,M2H
216,Hillcrest Village,2000000,43.807964,-79.366913,53 ASPENWOOD DR,Toronto,M2H 2E8,M2H
1240,Hillcrest Village,1499980,43.800339,-79.352699,9 Rollingwood Dr,Toronto,M2H 2M4,M2H
121,Hillcrest Village,17,43.805328,-79.355812,44 Barkwood Cres,Toronto,M2H 3G6,M2H
646,Don Valley Village,425800,43.794937,-79.352112,#2308 - 55 Skymark Dr,Toronto,M2H 3N4,M2H
231,Bayview Village,529000,43.788269,-79.368301,6 WOODY VINEWAY WAY,Toronto,M2J,M2J
539,Don Valley Village,338800,43.774311,-79.359085,#914 - 20 Bloorview Pl,Toronto,M2J 0A6,M2J
1118,Don Valley Village,615000,43.774311,-79.359085,#1006 - 20 Bloorview Pl,Toronto,M2J 0A6,M2J
342,Don Valley Village,798000,43.773495,-79.358963,#P1 -01 - 10 BLOORVIEW PL,Toronto,M2J 0B1,M2J
914,Don Valley Village,428800,43.773495,-79.358963,#221 - 10 BLOORVIEW PL,Toronto,M2J 0B1,M2J
927,Don Valley Village,389000,43.773495,-79.358963,#210 - 10 BLOORVIEW PL,Toronto,M2J 0B1,M2J
76,Henry Farm,325000,43.773922,-79.345726,#1912 - 62 Forest Manor Rd,Toronto,M2J 0B6,M2J
886,Henry Farm,550000,43.773922,-79.345726,#215 - 62 FOREST MANOR RD,Toronto,M2J 0B6,M2J
753,Henry Farm,358000,43.774376,-79.346603,#2101 - 66 Forest Manor Rd,Toronto,M2J 0B7,M2J
423,Henry Farm,550000,43.774895,-79.345955,#2402 - 70 FOREST MANOR RD,Toronto,M2J 1G2,M2J
746,Henry Farm,364900,43.774895,-79.345955,#1207 - 70 Forest Manor Rd,Toronto,M2J 1G2,M2J
936,Henry Farm,495000,43.774895,-79.345955,#2012 - 70 FOREST MANOR RD,Toronto,M2J 1G2,M2J
396,Henry Farm,285000,43.769733,-79.345482,#1409 - 10 PARKWAY FOREST DR,Toronto,M2J 1L3,M2J
499,Henry Farm,366000,43.774746,-79.336929,#711 - 275 YORKLAND RD,Toronto,M2J 1S3,M2J
696,Henry Farm,400000,43.774746,-79.336929,#1110 - 275 Yorkland Rd,Toronto,M2J 1S3,M2J
262,Don Valley Village,669000,43.773926,-79.361595,55 LAURIE SHEPWAY WAY,Toronto,M2J 1X6,M2J
909,Don Valley Village,472000,43.779041,-79.35199,#35 - 10 ESTERBROOKE AVE,Toronto,M2J 2C2,M2J
1094,Don Valley Village,529800,43.779041,-79.35199,#44 - 10 Esterbrook Ave,Toronto,M2J 2C2,M2J
655,Bayview Village,1299000,43.788948,-79.372192,18 Bathford Cres,Toronto,M2J 2S4,M2J
874,Don Valley Village,1098000,43.785618,-79.342804,27 WADDINGTON CRES,Toronto,M2J 2Z9,M2J
75,Don Valley Village,41,43.78788,-79.351738,1 Axsmith Cres,Toronto,M2J 3K2,M2J
232,Pleasant View,599000,43.780949,-79.339569,84 MUIRHEAD RD,Toronto,M2J 3W4,M2J
1100,Pleasant View,299900,43.777275,-79.337051,#1804 - 5 Old Sheppard Ave,Toronto,M2J 4K3,M2J
397,Don Valley Village,549000,43.791603,-79.354248,#3108 - 3303 DON MILLS RD,Toronto,M2J 4T6,M2J
201,Pleasant View,385000,43.792374,-79.336693,#210 - 165 CHEROKEE BLVD,Toronto,M2J 4T7,M2J
242,Pleasant View,372000,43.792374,-79.336693,#109 - 165 CHEROKEE BLVD,Toronto,M2J 4T7,M2J
113,Bayview Village,559999,43.767937,-79.387955,#724 - 2885 Bayview Ave,Toronto,M2K 0A3,M2K
219,Bayview Village,524888,43.767937,-79.387955,#730 - 2885 BAYVIEW AVE,Toronto,M2K 0A3,M2K
982,Bayview Village,235000,43.767937,-79.387955,#731 - 2885 BAYVIEW AVE,Toronto,M2K 0A3,M2K
1003,Bayview Village,394900,43.767937,-79.387955,#1305 - 2885 BAYVIEW AVE,Toronto,M2K 0A3,M2K
63,Bayview Village,428000,43.769611,-79.368416,#711 - 33 Singer Crt,Toronto,M2K 0B4,M2K
289,Bayview Village,475000,43.769611,-79.368416,#3105 - 33 SINGER CRT,Toronto,M2K 0B4,M2K
1088,Bayview Village,649000,43.769485,-79.368919,#1001 - 15 Singer Crt,Toronto,M2K 0B4,M2K
93,Bayview Village,105,43.769722,-79.36692,#901 - 2756 Old Leslie St,Toronto,M2K 0E2,M2K
913,Bayview Village,382900,43.766087,-79.381836,#512 - 12 REAN DR,Toronto,M2K 1A5,M2K
443,Bayview Village,1050000,43.767426,-79.37751,49 Caracas Rd,Toronto,M2K 1A8,M2K
426,Bayview Village,324800,43.768475,-79.381607,#523 - 650 SHEPPARD AVE E,Toronto,M2K 1B7,M2K
122,Bayview Village,25,43.767746,-79.370918,#3006 - 121 Mcmahon Dr,Toronto,M2K 1C2,M2K
276,Bayview Village,478000,43.767746,-79.370918,#1508 - 121 MCMAHON DR,Toronto,M2K 1C2,M2K
586,Bayview Village,339900,43.767746,-79.370918,#3611 - 121 Mcmahon Dr,Toronto,M2K 1C2,M2K
197,Bayview Village,349900,43.769569,-79.369514,#1606 - 19 SINGER CRT,Toronto,M2K 1C5,M2K
932,Bayview Village,418000,43.769569,-79.369514,#1622 - 19 SINGER CRT,Toronto,M2K 1C5,M2K
962,Bayview Village,329000,43.769569,-79.369514,#1105 - 19 SINGER CRT,Toronto,M2K 1C5,M2K
59,Bayview Village,429000,43.766094,-79.385582,#203 - 17 Kenaston Gdns,Toronto,M2K 1G7,M2K
1267,Bayview Village,298000,43.766094,-79.385582,#601 - 17 Kenaston Gdns,Toronto,M2K 1G7,M2K
504,Bayview Village,1688000,43.771053,-79.387154,19 FOXWARREN DR,Toronto,M2K 1L1,M2K
534,Bayview Village,2495000,43.773731,-79.380814,44 Hawksbury Dr,Toronto,M2K 1M5,M2K
1186,Bayview Village,2375000,43.783833,-79.381851,25 Woodthrush Crt,Toronto,M2K 2A9,M2K
630,Newtonbrook,328000,43.788425,-79.390388,#404 - 17 Ruddington Dr,Toronto,M2K 2G6,M2K
243,Bayview Woods - Steeles,1369000,43.788219,-79.388046,37 GEMINI RD,Toronto,M2K 2G7,M2K
240,Newtonbrook,1599000,43.793625,-79.387253,571 CUMMER AVE,Toronto,M2K 2M5,M2K
732,Bayview Village,289999,43.766068,-79.382774,#307 - 8 Rean Dr,Toronto,M2K 3B9,M2K
916,Bayview Village,649000,43.76498,-79.383522,#Th3 - 1 REAN DR,Toronto,M2K 3C1,M2K
472,Bayview Village,312900,43.765289,-79.382339,#813 - 3 Rean Dr,Toronto,M2K 3C2,M2K
577,Bayview Village,449000,43.765289,-79.382339,#708 - 3 Rean Dr,Toronto,M2K 3C2,M2K
615,Bayview Village,316000,43.765289,-79.382339,#813 - 3 Rean Dr,Toronto,M2K 3C2,M2K
714,York Mills,3388000,43.756172,-79.385963,2656 Bayview Ave,Toronto,M2L 1B9,M2L
132,York Mills,8995000,43.743626,-79.391846,75 Highland Cres,Toronto,M2L 1G7,M2L
710,St. Andrew - Windfields,5800000,43.755501,-79.384239,32 Berkindale Dr,Toronto,M2L 1Z8,M2L
578,St. Andrew - Windfields,2080000,43.76339,-79.382515,62 Northdale Rd,Toronto,M2L 2M1,M2L
399,St. Andrew - Windfields,529900,43.76083,-79.387207,#606 - 96 FIFESHIRE RD,Toronto,M2L 2X9,M2L
1082,York Mills,2588000,43.757267,-79.391624,1 Toba Dr,Toronto,M2L 2Y1,M2L
119,Newtonbrook,389999,43.784409,-79.416061,#907 - 5791 Yonge St,Toronto,M2M 0A8,M2M
1028,Newtonbrook,498800,43.784409,-79.416061,#Ph102 - 5791 YONGE ST,Toronto,M2M 0A8,M2M
1029,Newtonbrook,458500,43.784409,-79.416061,#1202 - 5791 YONGE ST,Toronto,M2M 0A8,M2M
246,Newtonbrook,520000,43.780727,-79.419991,#49 - 49 HENDON AVE,Toronto,M2M 1A4,M2M
480,Newtonbrook,1599000,43.789005,-79.432106,159 GOULDING AVE,Toronto,M2M 1L5,M2M
935,Newtonbrook,849980,43.794113,-79.430519,34 GREEN BUSH RD,Toronto,M2M 1P3,M2M
1222,Newtonbrook,1339900,43.783802,-79.406174,135 Bishop Ave,Toronto,M2M 1Z6,M2M
1241,Newtonbrook,1450000,43.78537,-79.406464,29 Harnish Cres,Toronto,M2M 2C2,M2M
988,Newtonbrook,1390000,43.788364,-79.398079,6 TANNER CRT,Toronto,M2M 2C5,M2M
715,Newtonbrook,2888800,43.791988,-79.397247,588 Conacher Dr,Toronto,M2M 3M9,M2M
641,Newtonbrook,3288000,43.792961,-79.397667,612 Conacher Dr,Toronto,M2M 3N1,M2M
915,Newtonbrook,350000,43.781307,-79.415657,5649 YONGE ST,Toronto,M2M 3T2,M2M
631,Newtonbrook,468000,43.795891,-79.427124,#2205 - 10 Tangreen Crt,Toronto,M2M 4B9,M2M
1116,Newtonbrook,399900,43.783112,-79.415199,#1207 - 5765 Yonge St,Toronto,M2M 4H9,M2M
129,Newtonbrook,283000,43.780453,-79.413811,#201 - 3 Pemberton Ave,Toronto,M2M 4M1,M2M
1079,Newtonbrook,349000,43.787483,-79.417862,#308 - 5940 Yonge St,Toronto,M2M 4M6,M2M
124,Newtonbrook,560000,43.78017,-79.418251,#713 - 15 Greenview Ave,Toronto,M2M 4M7,M2M
678,Willowdale,484900,43.776028,-79.412056,#2209 - 18 Sommerset Way,Toronto,M2N,M2N
912,Willowdale,338800,43.776028,-79.412056,#1612 - 18 SOMMERSET WAY,Toronto,M2N,M2N
1187,Willowdale,609000,43.767891,-79.411812,#1015 - 8 Hillcrest Ave,Toronto,M2N,M2N
871,Willowdale,224800,43.75811,-79.409081,#Uph07 - 19 AVONDALE AVE,Toronto,M2N 0A6,M2N
280,Willowdale,399000,43.765842,-79.410057,#1902 - 35 HOLLYWOOD AVE,Toronto,M2N 0A9,M2N
621,Willowdale,718800,43.776451,-79.414017,#322 - 500 Doris Ave,Toronto,M2N 0C1,M2N
341,Willowdale,419800,43.761501,-79.409882,#1721 - 5 SHEPPARD AVE E,Toronto,M2N 0C8,M2N
365,Willowdale,457000,43.778435,-79.41333,#605 - 18 HOLMES AVE,Toronto,M2N 0E1,M2N
681,Willowdale,489900,43.778435,-79.41333,#2605 - 18 Holmes Ave,Toronto,M2N 0E1,M2N
931,Willowdale,279600,43.778435,-79.41333,#606 - 18 HOLMES AVE,Toronto,M2N 0E1,M2N
1007,Willowdale,288000,43.778435,-79.41333,#902 - 18 HOLMES AVE,Toronto,M2N 0E1,M2N
934,Willowdale,669000,43.769665,-79.41378,#106 - 5162 YONGE ST,Toronto,M2N 0E9,M2N
86,Willowdale,409900,43.769829,-79.413467,#2708 - 5168 Yonge St,Toronto,M2N 0G1,M2N
670,Willowdale,479800,43.769829,-79.413467,#3301 - 5168 Yonge St,Toronto,M2N 0G1,M2N
1010,Willowdale,569000,43.769829,-79.413467,#2706 - 5168 YONGE ST,Toronto,M2N 0G1,M2N
745,Willowdale,569000,43.760952,-79.410385,#3B - 4773 Yonge St,Toronto,M2N 0G3,M2N
1290,Willowdale,730000,43.760998,-79.410202,#616 - 4789 Yonge St,Toronto,M2N 0G3,M2N
60,Willowdale,559000,43.760464,-79.410248,#502 - 2 Anndale Dr,Toronto,M2N 0G5,M2N
91,Willowdale,605900,43.760464,-79.410248,#2002 - 2 Anndale Dr,Toronto,M2N 0G5,M2N
229,Willowdale,418888,43.760464,-79.410248,#1304 - 2 ANNDALE DR,Toronto,M2N 0G5,M2N
448,Willowdale,419900,43.760464,-79.410248,#1006 - 2 Anndale Dr,Toronto,M2N 0G5,M2N
508,Willowdale,638000,43.760464,-79.410248,#2307 - 2 Anndale Dr,Toronto,M2N 0G5,M2N
888,Willowdale,628800,43.760464,-79.410248,#2011 - 2 ANNDALE DR,Toronto,M2N 0G5,M2N
271,Willowdale,399800,43.763969,-79.407013,#2308 - 88 SHEPPARD AVE E,Toronto,M2N 0G9,M2N
203,Willowdale,399000,43.757988,-79.403625,#905 - 120 HARRISON GARDEN BLVD,Toronto,M2N 0H1,M2N
417,Willowdale,444000,43.757988,-79.403625,#1534 - 120 HARRISON GARDEN BLVD,Toronto,M2N 0H1,M2N
960,Willowdale,428000,43.757988,-79.403625,#421 - 120 HARRISON GARDEN BLVD,Toronto,M2N 0H1,M2N
290,Lansing,589000,43.760517,-79.411743,#602 - 11 BOGERT AVE,Toronto,M2N 0H3,M2N
691,Lansing,598000,43.760517,-79.411743,#1907 - 11 Bogert Ave,Toronto,M2N 0H3,M2N
743,Lansing,659000,43.760517,-79.411743,#3008 - 11 Bogert Ave,Toronto,M2N 0H3,M2N
1021,Lansing,629000,43.760303,-79.411621,#1202 - 9 BOGERT AVE,Toronto,M2N 0H3,M2N
1039,Lansing,688000,43.760303,-79.411621,#2902 - 9 BOGERT AVE,Toronto,M2N 0H3,M2N
1287,Lansing,599900,43.760303,-79.411621,#606 - 9 Bogert Ave,Toronto,M2N 0H3,M2N
331,Lansing,1288000,43.756256,-79.418388,175 FLORENCE AVE,Toronto,M2N 1G5,M2N
613,Lansing,3058000,43.757053,-79.420387,212 Johnston Ave,Toronto,M2N 1H3,M2N
739,Lansing,458800,43.760658,-79.41581,#2106 - 88 Sheppard Ave,Toronto,M2N 1M5,M2N
1265,Lansing,2499900,43.760494,-79.418968,153 Harlandale Ave,Toronto,M2N 1P5,M2N
1140,Willowdale,425000,43.773094,-79.415596,#301 - 30 Canterbury Pl,Toronto,M2N 1X8,M2N
579,Willowdale,399888,43.773746,-79.415512,#509 - 68 Canterbury Pl,Toronto,M2N 1Y7,M2N
654,Willowdale,420000,43.773746,-79.415512,#309 - 68 Canterbury Pl,Toronto,M2N 1Y7,M2N
486,Lansing,778800,43.755135,-79.410789,25 Linelle St,Toronto,M2N 2J3,M2N
378,Willowdale,449800,43.757233,-79.404686,#1520 - 100 Harrison Garden Blvd,Toronto,M2N 2T2,M2N
398,Willowdale,400900,43.757233,-79.404686,#1405 - 100 HARRISON GARDEN BLVD,Toronto,M2N 2T2,M2N
416,Willowdale,399900,43.757233,-79.404686,#710 - 100 HARRISON GARDEN BLVD,Toronto,M2N 2T2,M2N
584,Willowdale,929000,43.758667,-79.403778,#Th 28 - 9 Oakburn Cres,Toronto,M2N 2T5,M2N
215,Willowdale,1528000,43.761971,-79.397667,198 GLENDORA AVE,Toronto,M2N 2W5,M2N
88,Willowdale,580000,43.760136,-79.40789,#1905 - 17 Anndale Dr,Toronto,M2N 2W7,M2N
298,Willowdale,568000,43.760136,-79.40789,#1905 - 17 Anndale Dr,Toronto,M2N 2W7,M2N
1067,Willowdale,2450000,43.765537,-79.405388,130 Spring Garden Ave,Toronto,M2N 3G5,M2N
972,Willowdale,609000,43.768574,-79.389618,#Th104 - 399 SPRING GARDEN AVE,Toronto,M2N 3H6,M2N
1229,Willowdale,928000,43.768574,-79.389618,#Th115 - 399 Spring Garden Ave,Toronto,M2N 3H6,M2N
999,Willowdale,328888,43.767403,-79.410599,#601 - 188 DORIS AVE,Toronto,M2N 3T5,M2N
1108,Willowdale,2548000,43.77206,-79.40522,144 Kingsdale Ave,Toronto,M2N 3W7,M2N
1132,Willowdale,2998000,43.775429,-79.394142,350 Parkview Ave,Toronto,M2N 3Z5,M2N
51,Willowdale,3988000,43.774734,-79.405685,138 Mckee Ave,Toronto,M2N 4C5,M2N
1113,Willowdale,2699000,43.775288,-79.408012,102 Church Ave,Toronto,M2N 4G1,M2N
519,Willowdale,1998800,43.77861,-79.401772,208 Dunforest Ave,Toronto,M2N 4J7,M2N
1027,Willowdale,549990,43.771309,-79.412926,#510 - 18 PARKVIEW AVE,Toronto,M2N 5P8,M2N
755,Willowdale,26,43.7635,-79.407814,#200C - 80 Sheppard Ave,Toronto,M2N 6E8,M2N
1081,Willowdale,799000,43.76675,-79.410332,#603 - 28 Hollywood Ave,Toronto,M2N 6R6,M2N
708,Willowdale,349000,43.774658,-79.412415,#1109 - 88 Grandview Way,Toronto,M2N 6V6,M2N
977,Willowdale,425000,43.771595,-79.412178,#702 - 256 DORIS AVE,Toronto,M2N 6X8,M2N
1214,Willowdale,409000,43.771595,-79.412178,#903 - 256 Doris Ave,Toronto,M2N 6X8,M2N
1217,Willowdale,355000,43.769207,-79.412132,#2301 - 33 Empress Ave,Toronto,M2N 6Y7,M2N
366,Willowdale,419900,43.778015,-79.416656,#1908 - 23 LORRAINE DR,Toronto,M2N 6Z6,M2N
304,Willowdale,427900,43.769981,-79.411751,#302 - 28 Empress Ave,Toronto,M2N 6Z7,M2N
34,Willowdale,419000,43.779987,-79.412735,#1209 - 35 Finch Ave,Toronto,M2N 6Z8,M2N
594,Willowdale,334800,43.779987,-79.412735,#703 - 35 Finch Ave,Toronto,M2N 6Z8,M2N
938,Willowdale,334900,43.779987,-79.412735,#903 - 35 FINCH AVE E,Toronto,M2N 6Z8,M2N
247,Willowdale,335000,43.774994,-79.413467,#1008 - 5 NORTHTOWN WAY,Toronto,M2N 7A1,M2N
1093,Willowdale,648880,43.775146,-79.412666,#903 - 880 Grandview Way,Toronto,M2N 7A2,M2N
405,Willowdale,269900,43.756371,-79.408394,#1511 - 30 HARRISON GARDEN BLVD,Toronto,M2N 7A9,M2N
410,Willowdale,368800,43.756668,-79.408623,#308 - 28 HARRISON GARDEN BLVD,Toronto,M2N 7A9,M2N
65,Willowdale,348800,43.757408,-79.406853,#1127 - 5 Everson Dr,Toronto,M2N 7C3,M2N
97,Willowdale,469900,43.765537,-79.413155,#2016 - 155 Beecroft Rd,Toronto,M2N 7C5,M2N
238,Willowdale,299000,43.765537,-79.413155,#2102 - 155 BEECROFT RD,Toronto,M2N 7C5,M2N
989,Willowdale,369000,43.765537,-79.413155,#906 - 155 BEECROFT RD,Toronto,M2N 7C5,M2N
896,Willowdale,472000,43.756294,-79.406532,#216 - 80 HARRISON GARDEN BLVD,Toronto,M2N 7E2,M2N
1193,Willowdale,558000,43.7561,-79.406914,#107 - 78 Harrison Garden Blvd,Toronto,M2N 7E2,M2N
623,Willowdale,325000,43.75666,-79.407364,#207 - 55 Harrison Garden Blvd,Toronto,M2N 7G3,M2N
970,Willowdale,309900,43.779163,-79.414513,#308 - 20 OLIVE AVE,Toronto,M2N 7G5,M2N
983,Willowdale,319900,43.779163,-79.414513,#512 - 20 OLIVE AVE,Toronto,M2N 7G5,M2N
733,Willowdale,299900,43.779659,-79.414589,#2603 - 22 Olive Ave,Toronto,M2N 7G6,M2N
1024,Willowdale,369000,43.779659,-79.414589,#1102 - 22 OLIVE AVE,Toronto,M2N 7G6,M2N
1172,Willowdale,315000,43.765579,-79.41259,#2107 - 4978 Yonge St,Toronto,M2N 7G8,M2N
83,Lansing,113,43.765152,-79.412277,#2112 - 4968 Yonge St,Toronto,M2N 7G9,M2N
1117,Lansing,439000,43.765152,-79.412277,#3503 - 4968 Yonge St,Toronto,M2N 7G9,M2N
653,Willowdale,389900,43.757996,-79.409592,#812 - 1 Avondale Ave,Toronto,M2N 7J1,M2N
1259,Willowdale,369000,43.767471,-79.41127,#602 - 21 Hillcrest Ave,Toronto,M2N 7K2,M2N
1036,Willowdale,324900,43.777355,-79.41275,#1801 - 60 BYNG AVE,Toronto,M2N 7K3,M2N
1044,Willowdale,348000,43.777355,-79.41275,#1808 - 60 BYNG AVE,Toronto,M2N 7K3,M2N
31,Willowdale,25,43.757698,-79.409042,#711 - 16 Harrison Garden Blvd,Toronto,M2N 7K6,M2N
47,Willowdale,299900,43.757698,-79.409042,#1805 - 16 Harrison Garden Blvd,Toronto,M2N 7K6,M2N
99,Willowdale,515000,43.760181,-79.408218,#1016 - 35 Bales Ave,Toronto,M2N 7L7,M2N
716,York Mills,5998000,43.740791,-79.403267,1 Old Yonge St,Toronto,M2P 1A9,M2P
358,St. Andrew - Windfields,2498000,43.745895,-79.397919,33 MUNRO BLVD,Toronto,M2P 1C1,M2P
1277,York Mills,5300000,43.749496,-79.386871,187 Gordon Rd,Toronto,M2P 1E8,M2P
673,St. Andrew - Windfields,3618800,43.758785,-79.396378,66 Cotswold Cres,Toronto,M2P 1N2,M2P
15,St. Andrew - Windfields,113,43.759003,-79.392075,67 Montressor Dr,Toronto,M2P 1Z3,M2P
81,York Mills,145,43.749531,-79.407188,#320 - 18 William Carson Cres,Toronto,M2P 2A9,M2P
401,York Mills,354000,43.749531,-79.407188,#801 - 18 WILLIAM CARSON CRES,Toronto,M2P 2A9,M2P
296,Newtonbrook,688000,43.778427,-79.450531,#Th 40 - 31 CONEFLOWER CRES,Toronto,M2R 0A5,M2R
292,Willowdale,2498000,43.765755,-79.433098,278 BETTY ANN DR N,Toronto,M2R 1A8,M2R
302,Newtonbrook,949900,43.778614,-79.441551,23 Kenton Dr,Toronto,M2R 2H8,M2R
38,Newtonbrook,145,43.787003,-79.441383,44 Dewlane Dr,Toronto,M2R 2P8,M2R
251,Newtonbrook,299000,43.780666,-79.446335,#2208 - 100 ANTIBES DR,Toronto,M2R 3N1,M2R
507,Newtonbrook,348800,43.780464,-79.447006,#2108 - 80 Antibes Dr,Toronto,M2R 3N1,M2R
737,Newtonbrook,359900,43.780464,-79.447006,#Ph08 - 80 Antibes Dr,Toronto,M2R 3N1,M2R
963,Newtonbrook,395000,43.780464,-79.447006,#1207 - 80 ANTIBES DR,Toronto,M2R 3N1,M2R
409,Newtonbrook,354990,43.778614,-79.452042,#1505 - 133 TORRESDALE AVE,Toronto,M2R 3T2,M2R
1190,Parkwoods - Donalda,205000,43.762363,-79.320976,#710 - 1338 York Mills Rd,Toronto,M3A 3M3,M3A
979,Bridle Path,26800000,43.735306,-79.372612,10 HIGH POINT RD,Toronto,M3B 2A4,M3B
873,Don Mills,289900,43.747749,-79.348656,#A209 A - 16 MALLARD RD,Toronto,M3B 3N1,M3B
929,Victoria Village,299000,43.724998,-79.328636,#2301 - 181 WYNFORD DR,Toronto,M3C 0C6,M3C
432,Flemingdon Park,299900,43.711529,-79.322899,#301 - 60 PAVANE LINKWAY WAY,Toronto,M3C 1A1,M3C
1173,Flemingdon Park,320000,43.710968,-79.325294,#Ph01 - 15 Vicora Link Way,Toronto,M3C 1A9,M3C
880,Flemingdon Park,229000,43.711422,-79.333313,#2107 - 725 DON MILLS RD,Toronto,M3C 1T1,M3C
430,Flemingdon Park,354000,43.719494,-79.337746,#Lph05 - 797 DON MILLS RD,Toronto,M3C 1V1,M3C
922,Flemingdon Park,247000,43.710075,-79.331192,#2203 - 10 SUNNY GLEN WAY,Toronto,M3C 2Z3,M3C
46,Flemingdon Park,279900,43.717915,-79.326309,## 911 - 5 Shady Gfwy,Toronto,M3C 3A5,M3C
1221,Victoria Village,599500,43.730347,-79.328224,#402 - 18 Concorde Pl,Toronto,M3C 3N4,M3C
959,Victoria Village,264000,43.730324,-79.327217,#1703 - 5 CONCORDE PL,Toronto,M3C 3R8,M3C
1263,Don Mills,319000,43.730209,-79.332375,#522 - 120 Dallimore Circ,Toronto,M3C 4C5,M3C
245,Wilson Heights,319900,43.734035,-79.447968,#E 508 - 555 WILSON AVE,Toronto,M3H 0C6,M3H
702,Armour Heights,1590000,43.743423,-79.426872,112 Bombay Ave,Toronto,M3H 1C3,M3H
30,Wilson Heights,1149000,43.734875,-79.441017,49 Cadillac Ave,Toronto,M3H 1S3,M3H
252,Wilson Heights,339900,43.734478,-79.446472,#509 - 525 WILSON AVE,Toronto,M3H 1V1,M3H
279,Wilson Heights,455000,43.734478,-79.446472,#108 - 525 WILSON AVE,Toronto,M3H 1V1,M3H
541,Wilson Heights,999900,43.73904,-79.44236,79 De Quincy Blvd,Toronto,M3H 1Y8,M3H
465,Wilson Heights,1399990,43.748856,-79.453499,227 REINER Road,Toronto,M3H 2M2,M3H
1174,Bathurst Manor,510000,43.755169,-79.441742,#607 - 650 Sheppard Ave,Toronto,M3H 2S5,M3H
565,Bathurst Manor,349900,43.753578,-79.448555,#504 - 778 Sheppard Ave,Toronto,M3H 2T1,M3H
269,Wilson Heights,318000,43.752892,-79.449783,#302 - 801 SHEPPARD AVE W,Toronto,M3H 2T3,M3H
688,Bathurst Manor,1279000,43.756145,-79.45932,253 Searle Ave,Toronto,M3H 4C1,M3H
457,Bathurst Manor,998000,43.758739,-79.452705,170 ELDER ST,Toronto,M3H 4E6,M3H
660,Bathurst Manor,1420000,43.761913,-79.451271,181 Goddard St,Toronto,M3H 5E4,M3H
213,Wilson Heights,294000,43.749321,-79.437149,#513 - 4200 BATHURST ST,Toronto,M3H 6C7,M3H
207,Toronto,352500,43.75103,-79.465858,#1016 - 55 DE BOERS DR,Toronto,M3J 0G5,M3J
429,York University Heights,519000,43.750637,-79.465103,#Ph01 - 1070 SHEPPARD AVE W,Toronto,M3J 0G7,M3J
707,Downsview,348000,43.750595,-79.464058,#410 - 1060 Sheppard Ave,Toronto,M3J 0G7,M3J
875,Downsview,340000,43.750595,-79.464058,#506 - 1060 SHEPPARD AVE W,Toronto,M3J 0G7,M3J
275,Jane and Finch,599900,43.759514,-79.491844,63 COUNCIL CRES,Toronto,M3J 1J5,M3J
947,York University Heights,956000,43.749916,-79.503555,12 FULWELL CRES,Toronto,M3J 1Y3,M3J
971,Jane and Finch,273900,43.765266,-79.493652,#612 - 9 FOUR WINDS DR,Toronto,M3J 2S8,M3J
894,Jane and Finch,315000,43.764374,-79.49456,#608 - 19 FOUR WINDS DR,Toronto,M3J 2S9,M3J
940,Jane and Finch,343000,43.764614,-79.491989,#1109 - 1 FOUR WINDS DR,Toronto,M3J 2T1,M3J
930,York University Heights,79988,43.781139,-79.492851,#30 - 2901 STEELES AVE W,Toronto,M3J 3A1,M3J
685,York University Heights,799000,43.765755,-79.496803,273 Murray Ross Pkwy,Toronto,M3J 3N6,M3J
659,York University Heights,950000,43.764462,-79.504471,435 Murray Ross Pkwy,Toronto,M3J 3P1,M3J
889,York University Heights,759000,43.765575,-79.499489,8 MANSUR TERR,Toronto,M3J 3R1,M3J
287,York University Heights,779000,43.76524,-79.502808,25 DELABO DR,Toronto,M3J 3S5,M3J
957,York University Heights,699000,43.765301,-79.502525,17 DELABO DR,Toronto,M3J 3S5,M3J
606,York University Heights,499900,43.765209,-79.500168,#22 - 365 Murray Ross Pkwy,Toronto,M3J 3T7,M3J
356,Downsview,519000,43.726231,-79.514557,20 HEAVITREE DR,Toronto,M3L 1K6,M3L
497,Downsview,534900,43.727352,-79.511032,67 NEAMES CRES,Toronto,M3L 1K8,M3L
206,Downsview,619900,43.738079,-79.501282,195 GILTSPUR DR,Toronto,M3L 1N4,M3L
897,Downsview,569900,43.738796,-79.506371,51 KANARICK Crescent,Toronto,M3L 1P3,M3L
1233,Downsview,145000,43.737915,-79.51136,#327 - 2645 Jane St,Toronto,M3L 1R9,M3L
570,Jane and Finch,285000,43.740059,-79.509605,#907 - 1900 Sheppard Ave,Toronto,M3L 1Y7,M3L
1130,Jane and Finch,344800,43.740059,-79.509605,#1010 - 1900 Sheppard Ave,Toronto,M3L 1Y7,M3L
265,Jane and Finch,575000,43.74192,-79.509659,17 WHITBREAD CRES,Toronto,M3L 2A8,M3L
552,Jane and Finch,569900,43.741798,-79.508911,24 Brady Cres,Toronto,M3L 2B5,M3L
671,Downsview,339000,43.726418,-79.479942,#1012 - 15 James Finlay Way,Toronto,M3M 0B3,M3M
955,Downsview,269900,43.726418,-79.479942,#918 - 15 JAMES FINLAY WAY,Toronto,M3M 0B3,M3M
961,Downsview,349900,43.726418,-79.479942,#801 - 15 JAMES FINLAY WAY,Toronto,M3M 0B3,M3M
731,Downsview,179900,43.72578,-79.480759,#423 - 2737 Keele St,Toronto,M3M 2E9,M3M
102,Downsview,579999,43.743221,-79.488487,22 Norman Wesley Way,Toronto,M3M 3H4,M3M
1209,Jane and Finch,439000,43.744011,-79.491524,#1916 - 5 Sheppard Ave,Toronto,M3M 3J8,M3M
920,Jane and Finch,179900,43.745918,-79.515724,#109 - 5 FRITH RD,Toronto,M3N 1E9,M3N
1288,Jane and Finch,125000,43.754375,-79.510368,#410 - 15 London Green Crt,Toronto,M3N 1K4,M3N
910,Jane and Finch,689900,43.76384,-79.516586,12 LASKAY CRES,Toronto,M3N 1P3,M3N
348,Jane and Finch,647500,43.769268,-79.526489,103 BAMFORD CRES,Toronto,M3N 1T8,M3N
926,Jane and Finch,588000,43.744061,-79.521606,149 LAURA RD,Toronto,M3N 1Z8,M3N
906,Jane and Finch,575000,43.742451,-79.521774,108 LAURA RD,Toronto,M3N 1Z9,M3N
264,Jane and Finch,239900,43.753849,-79.513535,#155 - 68 DRIFTWOOD AVE,Toronto,M3N 2M5,M3N
1048,Jane and Finch,300000,43.767052,-79.514549,#3 - 380 Driftwood Ave,Toronto,M3N 2P5,M3N
223,Jane and Finch,399900,43.738815,-79.51902,43 JOHN CABOT WAY,Toronto,M3N 2T5,M3N
895,Jane and Finch,39000,43.758179,-79.519676,#130 - 1 YORK GATE BLVD,Toronto,M3N 3A1,M3N
237,Victoria Village,1388800,43.728958,-79.315933,132 ELVASTON DR,Toronto,M4A 1N6,M4A
1145,Victoria Village,359000,43.72451,-79.307022,#306 - 1785 Eglinton Ave,Toronto,M4A 2Y6,M4A
883,Woodbine Gardens,82800,43.699581,-79.297829,#3 - 94 HALSEY AVE,Toronto,M4B 1A9,M4B
336,Woodbine Gardens,679900,43.700798,-79.297798,79 CHAPMAN AVE,Toronto,M4B 1C6,M4B
532,Woodbine Gardens,699900,43.701794,-79.303581,99 Glen Albert Dr,Toronto,M4B 1J1,M4B
235,Woodbine Gardens,665000,43.703903,-79.295723,114 MEIGHEN AVE,Toronto,M4B 2H7,M4B
434,East Danforth,689900,43.68047,-79.321823,1 Currie Ave,Toronto,M4C 1C3,M4C
152,East Danforth,397500,43.685455,-79.313133,#711 - 2055 DANFORTH AVE,Toronto,M4C 1J8,M4C
841,East Danforth,479900,43.685455,-79.313133,#214 - 2055 DANFORTH AVENUE AVE,Toronto,M4C 1J8,M4C
860,East Danforth,354900,43.685455,-79.313133,#605 - 2055 DANFORTH AVE,Toronto,M4C 1J8,M4C
326,Woodbine - Lumsden,899900,43.68996,-79.304413,80 NEWMARKET AVE,Toronto,M4C 1W1,M4C
622,Woodbine - Lumsden,1130000,43.693939,-79.306885,39 Crewe Ave,Toronto,M4C 2J2,M4C
953,Woodbine - Lumsden,899000,43.693295,-79.313347,238 LUMSDEN AVE,Toronto,M4C 2K4,M4C
5,Old East York,599900,43.697842,-79.317368,3 Bracebridge Ave,Toronto,M4C 2X6,M4C
169,Woodbine - Lumsden,899900,43.690174,-79.304123,82 CHISHOLM AVE,Toronto,M4C 4V4,M4C
557,Danforth Village,499000,43.691113,-79.291534,15 Eldon Ave,Toronto,M4C 5G2,M4C
866,Old East York,1199999,43.692318,-79.291946,61 ELDON AVE,Toronto,M4C 5G2,M4C
62,Old East York,315000,43.696827,-79.293411,#701 - 3 Massey Sq,Toronto,M4C 5L5,M4C
620,Old East York,159000,43.69614,-79.294983,#219 - 1 Massey Sq,Toronto,M4C 5L5,M4C
165,The Beach,2095000,43.668625,-79.296623,4 A VIOLET AVE,Toronto,M4E 1B1,M4E
433,The Beach,569000,43.671459,-79.295059,#15 - 2112 Queen St,Toronto,M4E 1E2,M4E
1076,Upper Beaches,579000,43.685524,-79.294144,#130 - 2320 Gerrard St,Toronto,M4E 2E1,M4E
798,The Beach,799900,43.670467,-79.293976,65 HAMMERSMITH AVE,Toronto,M4E 2W3,M4E
1234,The Beach,1890000,43.670952,-79.295052,2237 Queen St,Toronto,M4E 2Z9,M4E
1236,The Beach,1890000,43.670952,-79.295052,2237 Queen St,Toronto,M4E 2Z9,M4E
322,Upper Beaches,799900,43.686947,-79.290451,51 BELLEVILLE ST,Toronto,M4E 3X9,M4E
440,Upper Beaches,899900,43.686844,-79.290771,39 Belleville St,Toronto,M4E 3X9,M4E
734,Leaside,329900,43.701004,-79.3731,#406 - 1387 Bayview Ave,Toronto,M4G 3A5,M4G
94,Leaside,25,43.7057,-79.374969,1571-73 Bayview Ave,Toronto,M4G 3B5,M4G
96,Leaside,97,43.7057,-79.374969,1571-73 Bayview Ave,Toronto,M4G 3B5,M4G
98,Leaside,25,43.714638,-79.35463,#403 - 35 Brian Peck Cres,Toronto,M4G 4J7,M4G
893,Leaside,499000,43.714638,-79.35463,#601 - 35 BRIAN PECK CRES,Toronto,M4G 4J7,M4G
742,Thorncliffe Park,200000,43.705597,-79.345993,#119 - 45 Overlea Blvd,Toronto,M4H 1C3,M4H
1260,Pape Village,299999,43.690639,-79.341721,#510 - 280 Donlands Ave,Toronto,M4J 3R4,M4J
2,Old East York,1488000,43.686375,-79.328918,254A Monarch Park Ave,Toronto,M4J 4S5,M4J
1165,Riverdale,2950000,43.669842,-79.349106,98 Riverdale Ave,Toronto,M4K 1C3,M4K
439,Riverdale,899000,43.675503,-79.344292,35 Strathcona Ave,Toronto,M4K 1K6,M4K
1291,Riverdale,149000,43.677971,-79.348907,507 Danforth Ave,Toronto,M4K 1P5,M4K
115,Riverdale,1599000,43.682064,-79.353073,90 Browning Ave,Toronto,M4K 1V9,M4K
1164,Riverdale,2639000,43.68084,-79.351707,103 Arundel Ave,Toronto,M4K 3A3,M4K
107,Leslieville,1369900,43.663742,-79.324966,#Loft 2 - 2B Minto St,Toronto,M4L 1B6,M4L
721,Upper Beaches,799000,43.67691,-79.304825,426 Kingston Rd,Toronto,M4L 1T9,M4L
1269,Upper Beaches,799000,43.67691,-79.304825,426 Kingston Rd,Toronto,M4L 1T9,M4L
1271,Upper Beaches,799000,43.67691,-79.304825,426 Kingston Rd,Toronto,M4L 1T9,M4L
1272,Upper Beaches,799000,43.67691,-79.304825,426 Kingston Rd,Toronto,M4L 1T9,M4L
141,Leslieville,29900,43.672264,-79.321289,1453 GERRARD ST E,Toronto,M4L 1Z9,M4L
310,Leslieville,599900,43.674438,-79.322563,359 ASHDALE AVE,Toronto,M4L 2Z1,M4L
836,Leslieville,649000,43.666817,-79.31765,11 RHODES AVE,Toronto,M4L 2Z8,M4L
651,The Beach,611000,43.674232,-79.307144,#105 - 60 Haslett Ave,Toronto,M4L 3R2,M4L
48,The Beach,1929000,43.668091,-79.301514,68 Kenilworth Ave,Toronto,M4L 3S5,M4L
1161,The Beach,369000,43.666252,-79.304993,#708 - 1900 Lakeshore Blvd,Toronto,M4L 6S8,M4L
316,Leslieville,699000,43.66098,-79.330055,785 EASTERN AVE,Toronto,M4M 1E9,M4M
510,Leslieville,699000,43.66098,-79.330055,785 Eastern Ave,Toronto,M4M 1E9,M4M
758,Riverdale,209000,43.659657,-79.346878,798 QUEEN ST E,Toronto,M4M 1H4,M4M
176,Leslieville,859000,43.665806,-79.334892,40 MALLON AVE W,Toronto,M4M 1P8,M4M
760,Leslieville,799000,43.671772,-79.334923,35 MYRTLE AVE,Toronto,M4M 2A4,M4M
315,Riverdale,539000,43.657417,-79.349815,#419 - 68 BROADVIEW AVE,Toronto,M4M 2E6,M4M
720,Riverside,1099000,43.664547,-79.348579,201 Boulton Ave,Toronto,M4M 2J8,M4M
573,Leslieville,747400,43.667385,-79.334412,#3 - 175 Jones Ave,Toronto,M4M 3A2,M4M
583,Leslieville,953350,43.667133,-79.334404,#8 - 169 Jones Ave,Toronto,M4M 3A2,M4M
1124,Leslieville,1313000,43.667385,-79.334412,#14 - 175 Jones Ave,Toronto,M4M 3A2,M4M
582,Leslieville,1200000,43.664089,-79.341415,#123 - 326 Carlaw Ave,Toronto,M4M 3L1,M4M
324,Leslieville,799000,43.66235,-79.342567,18 NATALIE PL,Toronto,M4M 3P7,M4M
1185,Midtown Toronto,999990,43.723293,-79.380356,#20 - 50 Hargrave Lane,Toronto,M4N 0A4,M4N
1237,Midtown Toronto,899990,43.72353,-79.379761,2166 Bayview Ave,Toronto,M4N 0A4,M4N
1280,Midtown Toronto,869900,43.723148,-79.379707,2146 Bayview Ave,Toronto,M4N 0A4,M4N
149,Midtown Toronto,2799000,43.717831,-79.395996,148 BLYTHWOOD RD,Toronto,M4N 1A4,M4N
306,Midtown Toronto,1750000,43.718014,-79.392662,255 Blythwood Rd,Toronto,M4N 1A7,M4N
1026,Midtown Toronto,2898000,43.72776,-79.389961,236 LAWRENCE AVE E,Toronto,M4N 1T2,M4N
783,Yonge and Lawrence,1589000,43.728615,-79.402267,23 BOWOOD AVE,Toronto,M4N 1Y3,M4N
704,North Toronto,2595000,43.731457,-79.394394,178 Roslin Ave,Toronto,M4N 1Z6,M4N
323,North Toronto,1480000,43.733105,-79.393219,283 SNOWDON AVE,Toronto,M4N 2B4,M4N
511,North Toronto,1480000,43.733105,-79.393219,283 Snowdon Ave,Toronto,M4N 2B4,M4N
1134,North Toronto,1399000,43.726349,-79.397461,1 Preston Pl,Toronto,M4N 2T1,M4N
270,Midtown Toronto,1148000,43.717461,-79.37886,#601 - 1888 BAYVIEW AVE,Toronto,M4N 3J5,M4N
867,Midtown Toronto,1050000,43.717461,-79.37886,#301 - 1888 BAYVIEW AVE,Toronto,M4N 3J5,M4N
730,Lawrence Park South,539900,43.707275,-79.399559,#C002 - 2300 Yonge St,Toronto,M4P 1E4,M4P
764,Midtown Toronto,330000,43.710964,-79.379158,#401 - 600 EGLINTON AVE E,Toronto,M4P 1N8,M4P
382,Midtown Toronto,789800,43.708694,-79.394318,#603 - 141 ROEHAMPTON AVE,Toronto,M4P 1P9,M4P
1126,Sherwood Park,1349000,43.712608,-79.38385,325 Broadway Ave,Toronto,M4P 1W4,M4P
387,Mount Pleasant West,467000,43.711609,-79.3955,#314 - 101 ERSKINE AVE,Toronto,M4P 1Y5,M4P
805,Mount Pleasant West,1355000,43.711609,-79.3955,#Gph2 - 101 ERSKINE AVE,Toronto,M4P 1Y5,M4P
821,Mount Pleasant West,1615000,43.711609,-79.3955,#Th03 - 101 ERSKINE AVE,Toronto,M4P 1Y5,M4P
680,Sherwood Park,2350000,43.713936,-79.396851,51B Sherwood Ave,Toronto,M4P 2A6,M4P
786,Midtown Toronto,2499000,43.710926,-79.381729,12 WALDER AVE,Toronto,M4P 2R5,M4P
154,North Toronto,380000,43.711781,-79.39164,#319 - 900 MOUNT PLEASANT RD,Toronto,M4P 3J9,M4P
590,North Toronto,414000,43.711781,-79.39164,#1006 - 900 Mount Pleasant Rd,Toronto,M4P 3J9,M4P
164,Midtown Toronto,599000,43.708008,-79.400787,#1807 - 58 ORCHARD VIEW BLVD,Toronto,M4R 0A2,M4R
791,Midtown Toronto,459000,43.708008,-79.400787,#Ph05 - 58 ORCHARD VIEW BLVD,Toronto,M4R 0A2,M4R
67,Midtown Toronto,989000,43.708542,-79.402115,112 Helendale Ave,Toronto,M4R 1C7,M4R
828,Midtown Toronto,362990,43.696835,-79.393997,#506 - 68 MERTON ST,Toronto,M4S 0A7,M4S
848,Midtown Toronto,374900,43.697487,-79.38855,#106 - 253 MERTON ST,Toronto,M4S 1A9,M4S
634,Midtown Toronto,345000,43.701252,-79.395897,#526 - 23 Glebe Rd,Toronto,M4S 1N7,M4S
444,Midtown Toronto,549000,43.707161,-79.393127,##1 - 108 Redpath Ave,Toronto,M4S 2J7,M4S
1106,Mount Pleasant East,799000,43.701283,-79.383102,3 Belle Ayre Blvd,Toronto,M4S 2P6,M4S
547,Midtown Toronto,495000,43.706772,-79.395233,#801 - 89 Dunfield Ave,Toronto,M4S 3A4,M4S
192,Davisville,415000,43.705597,-79.397453,#3010 - 2191 YONGE ST,Toronto,M4S 3H8,M4S
1258,Midtown Toronto,2150000,43.68668,-79.393684,1404 Yonge St,Toronto,M4T 1Y5,M4T
822,Midtown Toronto,849900,43.696033,-79.395668,#1708 - 1815 YONGE ST,Toronto,M4T 2A4,M4T
148,Midtown Toronto,1399000,43.68544,-79.395966,48 BALMORAL AVE,Toronto,M4V 1J4,M4V
111,Midtown Toronto,105,43.689011,-79.400002,#1 - 105 Heath St,Toronto,M4V 1T5,M4V
679,Midtown Toronto,1979000,43.691391,-79.400566,90 Lonsdale Rd,Toronto,M4V 1W5,M4V
650,Midtown Toronto,319000,43.689022,-79.402077,#804 - 581 Avenue Rd,Toronto,M4V 2K4,M4V
170,Midtown Toronto,579000,43.685623,-79.409592,#616 - 6 PARKWOOD AVE,Toronto,M4V 2W9,M4V
779,Midtown Toronto,890000,43.687538,-79.397873,#Lph906 - 1 DEER PARK CRES,Toronto,M4V 3C4,M4V
137,Midtown Toronto,699000,43.676369,-79.405739,#525 - 380 MACPHERSON AVE,Toronto,M4V 3E4,M4V
385,Midtown Toronto,359000,43.676369,-79.405739,#225 - 380 MACPHERSON AVE,Toronto,M4V 3E4,M4V
684,Midtown Toronto,449800,43.671303,-79.384689,#3708 - 8 Park Rd,Toronto,M4W 1A8,M4W
813,Midtown Toronto,3588000,43.684898,-79.375198,166 DOUGLAS DR,Toronto,M4W 2B7,M4W
142,Midtown Toronto,415000,43.674103,-79.388809,#1407 - 914 YONGE ST,Toronto,M4W 3C8,M4W
281,Downtown,419000,43.670372,-79.384468,#1414 - 85 BLOOR ST E,Toronto,M4W 3G9,M4W
795,Downtown,429000,43.670372,-79.384468,#908 - 85 BLOOR ST E,Toronto,M4W 3G9,M4W
801,Midtown Toronto,879900,43.672421,-79.387032,#708 - 20 COLLIER ST,Toronto,M4W 3Y4,M4W
842,Midtown Toronto,599000,43.672985,-79.387032,#819 - 825 CHURCH ST,Toronto,M4W 3Z4,M4W
1283,Midtown Toronto,488800,43.672985,-79.387032,#515 - 825 Church St,Toronto,M4W 3Z4,M4W
819,Downtown,819900,43.667671,-79.371513,#1 - 253 WELLESLEY ST E,Toronto,M4X 1G8,M4X
166,Downtown,375000,43.667915,-79.375679,#702 - 500 SHERBOURNE ST,Toronto,M4X 1L1,M4X
776,Downtown,538000,43.667915,-79.375679,#810 - 500 SHERBOURNE ST,Toronto,M4X 1L1,M4X
1141,Downtown,629000,43.666996,-79.373268,#112 - 179 Bleecker St,Toronto,M4X 1L9,M4X
295,Downtown,559800,43.669643,-79.380608,#2702 - 101 CHARLES ST E,Toronto,M4Y 0A9,M4Y
544,Downtown,634900,43.669643,-79.380608,#1710 - 101 Charles St,Toronto,M4Y 0A9,M4Y
597,Downtown,949900,43.669643,-79.380608,#801 - 101 Charles St,Toronto,M4Y 0A9,M4Y
725,Downtown,599000,43.669643,-79.380608,#416 - 101 Charles St,Toronto,M4Y 0A9,M4Y
1040,Downtown,599000,43.669643,-79.380608,#515 - 101 CHARLES ST E,Toronto,M4Y 0A9,M4Y
649,Downtown,549900,43.665749,-79.385513,#2405 - 5 St Joseph St,Toronto,M4Y 0B6,M4Y
127,Downtown,704900,43.661793,-79.384506,#4004 - 21 Grenville St,Toronto,M4Y 0B9,M4Y
313,Downtown,479000,43.661793,-79.384506,#Ph06 - 21 GRENVILLE ST,Toronto,M4Y 0B9,M4Y
160,Downtown,599000,43.661896,-79.38575,#4001 - 38 GRENVILLE ST,Toronto,M4Y 1A5,M4Y
784,Downtown,499000,43.661896,-79.38575,#3206 - 38 GRENVILLE ST,Toronto,M4Y 1A5,M4Y
826,Downtown,415800,43.661896,-79.38575,#304 - 38 GRENVILLE ST,Toronto,M4Y 1A5,M4Y
793,Downtown,439000,43.66544,-79.383354,#1607 - 22 WELLESLEY ST,Toronto,M4Y 1G3,M4Y
1055,Downtown,399000,43.66592,-79.386963,#2409 - 44 St Joseph St,Toronto,M4Y 1K1,M4Y
832,Church and Wellesley,244900,43.66708,-79.383156,#2007 - 30 GLOUCESTER ST,Toronto,M4Y 1L6,M4Y
125,Downtown,448888,43.668777,-79.383995,#1711 - 45 Charles St,Toronto,M4Y 1S2,M4Y
728,Downtown,629000,43.668777,-79.383995,#1901 - 45 Charles St,Toronto,M4Y 1S2,M4Y
1019,Downtown,550000,43.668777,-79.383995,#4107 - 45 CHARLES ST E,Toronto,M4Y 1S2,M4Y
1033,Downtown,578000,43.668777,-79.383995,#2809 - 45 CHARLES ST E,Toronto,M4Y 1S2,M4Y
1298,Downtown,769000,43.668777,-79.383995,#4002 - 45 CHARLES ST,Toronto,M4Y 1S2,M4Y
68,Downtown,445900,43.669151,-79.387375,#2004 - 21 Balmuto St,Toronto,M4Y 1W4,M4Y
1159,Downtown,439900,43.666752,-79.376236,#216 - 120 Homewood Ave,Toronto,M4Y 2J3,M4Y
294,Downtown,378000,43.670547,-79.380585,#3103 - 28 TED ROGERS WAY,Toronto,M4Y 2J4,M4Y
687,Downtown,429900,43.670547,-79.380585,#2506 - 28 Ted Rogers Way,Toronto,M4Y 2J4,M4Y
1023,Downtown,359900,43.665104,-79.3769,#517 - 77 MAITLAND PL,Toronto,M4Y 2V6,M4Y
580,Downtown,489000,43.664845,-79.385933,#302 - 24 Wellesley St,Toronto,M4Y 2X6,M4Y
451,Downtown,649900,43.669609,-79.384773,#108 - 35 HAYDEN ST,Toronto,M4Y 3C3,M4Y
619,Downtown,385800,43.659824,-79.362724,#2507 - 225 Sackville St,Toronto,M5A 0B9,M5A
816,Downtown,798800,43.650082,-79.357971,#2406 - 70 DISTILLERY LANE,Toronto,M5A 0E3,M5A
151,Downtown,449900,43.652714,-79.3563,#N707 - 455 FRONT ST E,Toronto,M5A 0J2,M5A
445,Downtown,374900,43.652714,-79.3563,#S608 - 455 Front St,Toronto,M5A 0J2,M5A
607,Downtown,399888,43.652222,-79.370872,#1308 - 105 George St,Toronto,M5A 0L4,M5A
1194,Downtown,409900,43.652222,-79.370872,#1902 - 105 George St,Toronto,M5A 0L4,M5A
806,East Bayfront,2860000,43.645634,-79.362335,#1116 - 1 EDGEWATER DR,Toronto,M5A 1B6,M5A
861,Downtown,449900,43.652817,-79.367737,#210 - 400 ADELAIDE ST E,Toronto,M5A 1N4,M5A
1014,Downtown,399000,43.652817,-79.367737,#619 - 400 ADELAIDE ST E,Toronto,M5A 1N4,M5A
789,Downtown,469000,43.660149,-79.360886,#2107 - 170 SUMACH ST,Toronto,M5A 2B9,M5A
1285,Downtown,379900,43.660149,-79.360886,#1701 - 170 Sumach St,Toronto,M5A 2B9,M5A
768,Downtown,272000,43.660152,-79.364891,#720 - 25 COLE ST,Toronto,M5A 2C4,M5A
817,Downtown,259000,43.660152,-79.364891,#320 - 25 COLE ST,Toronto,M5A 2C4,M5A
191,Downtown,500000,43.656715,-79.371559,#39 - 17 PEMBROKE ST,Toronto,M5A 2N6,M5A
1031,Downtown,415000,43.65097,-79.368111,#1506 - 39 SHERBOURNE ST,Toronto,M5A 2P6,M5A
1,Downtown,362000,43.651478,-79.368118,#1409 - 230 King St,Toronto,M5A 2P8,M5A
70,Downtown,25,43.660812,-79.370216,255 Seaton St,Toronto,M5A 2T5,M5A
834,Downtown,1199000,43.659206,-79.369415,183 SEATON ST,Toronto,M5A 2T5,M5A
811,Downtown,1950000,43.657051,-79.365311,300 SHUTER ST,Toronto,M5A 3A4,M5A
182,Downtown,395000,43.649731,-79.365303,#609 - 222 THE ESPLANADE,Toronto,M5A 4M8,M5A
509,Downtown,468800,43.649731,-79.365303,#914 - 222 The Esplanade,Toronto,M5A 4M8,M5A
835,Downtown,375000,43.649731,-79.365303,#310 - 222 THE ESPLANADE,Toronto,M5A 4M8,M5A
114,Old Town,337000,43.653217,-79.368378,#402 - 323 Richmond St,Toronto,M5A 4S8,M5A
309,Old Town,320000,43.653194,-79.368637,#554 - 313 RICHMOND ST E,Toronto,M5A 4S8,M5A
319,Old Town,369900,43.653194,-79.368637,#Ph62 - 313 RICHMOND ST E,Toronto,M5A 4S8,M5A
1005,Old Town,339888,43.653217,-79.368378,#1413 - 323 RICHMOND ST E,Toronto,M5A 4S8,M5A
1077,Downtown,859000,43.651722,-79.369408,#1005 - 205 Frederick St,Toronto,M5A 4V3,M5A
189,Downtown,374000,43.656807,-79.375092,#1203 - 159 DUNDAS ST E,Toronto,M5B 0A9,M5B
1004,Downtown,339970,43.656807,-79.375092,#402 - 159 DUNDAS ST E,Toronto,M5B 0A9,M5B
143,Downtown,1299000,43.6604,-79.379234,77 MCGILL ST,Toronto,M5B 1H3,M5B
489,Downtown,539900,43.661102,-79.382103,#3902 - 21 CARLTON ST,Toronto,M5B 1L3,M5B
477,Downtown,539900,43.661045,-79.38166,1404 25 Carlton Street,Toronto,M5B 1L4,M5B
592,Downtown,399000,43.661045,-79.38166,#1611 - 25 Carlton St,Toronto,M5B 1L4,M5B
785,Downtown,539900,43.661045,-79.38166,#1404 - 25 CARLTON ST,Toronto,M5B 1L4,M5B
558,Downtown,588000,43.659618,-79.379684,#804 - 44 Gerrard St,Toronto,M5B 2E8,M5B
802,Downtown,599900,43.661385,-79.380608,#1916 - 45 CARLTON ST,Toronto,M5B 2H9,M5B
155,Downtown,565000,43.65765,-79.376762,#630 - 155 DALHOUSIE ST,Toronto,M5B 2R2,M5B
1297,Downtown,1298000,43.65765,-79.376762,#Ph 5 - 155 DALHOUSIE ST,Toronto,M5B 2R2,M5B
133,Downtown,329000,43.654648,-79.37925,#816 - 210 Victoria St,Toronto,M5B 2R3,M5B
447,Downtown,748888,43.65004,-79.373352,135 King St,Toronto,M5C 1G6,M5C
788,Downtown,49000,43.652122,-79.377693,105 VICTORIA ST,Toronto,M5C 1N7,M5C
101,Downtown,438800,43.641346,-79.372421,#729 - 39 Queens Quay Way,Toronto,M5E 0A4,M5E
108,Downtown,33,43.641346,-79.372421,#815 - 39 Queens Quay Way,Toronto,M5E 0A4,M5E
596,Downtown,499900,43.641346,-79.372421,#431 - 39 Queens Quay St,Toronto,M5E 0A4,M5E
750,Downtown,589900,43.641346,-79.372421,#1020 - 39 Queens Quay,Toronto,M5E 0A4,M5E
1074,Downtown,568888,43.641346,-79.372421,#1019 - 39 Queens Quay,Toronto,M5E 0A4,M5E
383,Downtown,989000,43.64613,-79.375778,#1205 - 8 THE ESPLANADE AVE,Toronto,M5E 0A6,M5E
1047,Downtown,899000,43.64613,-79.375778,#3805 - 8 The Esplanade Ave,Toronto,M5E 0A6,M5E
761,Downtown,474900,43.645695,-79.376144,#1609 - 1 THE ESPLANADE,Toronto,M5E 0A8,M5E
763,Downtown,474900,43.645695,-79.376144,#1601 - 1 THE ESPLANADE,Toronto,M5E 0A8,M5E
171,Downtown,579000,43.649246,-79.375755,#414 - 22 LEADER LANE,Toronto,M5E 0B2,M5E
718,Downtown,458000,43.649246,-79.375755,#432 - 22 Leader Lane,Toronto,M5E 0B2,M5E
1163,Downtown,495000,43.646931,-79.374977,#1008 - 38 The Esplanade St,Toronto,M5E 1A5,M5E
829,Downtown,612000,43.642273,-79.372704,#527 - 29 QUEENS QUAY E,Toronto,M5E 1L7,M5E
1228,Downtown,588000,43.642273,-79.372704,#929 - 29 Queens Quay,Toronto,M5E 1L7,M5E
367,Downtown,695000,43.646873,-79.371078,#1904 - 1 MARKET ST,Toronto,M5E 1N1,M5E
161,Downtown,739900,43.642464,-79.375519,#411 - 10 YONGE ST,Toronto,M5E 1R4,M5E
185,Downtown,420000,43.644455,-79.376534,#3614 - 18 YONGE ST,Toronto,M5E 1Z8,M5E
777,Downtown,459000,43.660137,-79.385872,#2108 - 770 BAY ST,Toronto,M5G 0A6,M5G
808,Downtown,439800,43.656731,-79.383461,#1011 - 633 BAY ST,Toronto,M5G 1C9,M5G
412,Toronto,309900,43.653225,-79.383186,#1109 - 5 SHADY GOLFWAY GLWY,Toronto,M5G 1P5,M5G
567,Downtown,299800,43.655113,-79.384804,#1123A - 111 Elizabeth St,Toronto,M5G 1P7,M5G
1199,Downtown,425000,43.653973,-79.388565,#4102 - 426 University Ave,Toronto,M5G 1S9,M5G
146,Downtown,375000,43.658798,-79.384392,#511 - 44 GERRARD ST W,Toronto,M5G 2K2,M5G
744,Downtown,1188800,43.659534,-79.382828,#7407 - 388 Yonge St,Toronto,M5G 2K2,M5G
796,Downtown,478000,43.659328,-79.382675,#3814 - 386 YONGE ST,Toronto,M5G 2K2,M5G
1180,Downtown,798800,43.659328,-79.382675,#4415 - 386 Yonge St,Toronto,M5G 2K2,M5G
1279,Downtown,568000,43.659328,-79.382675,#817 - 386 Yonge St,Toronto,M5G 2K2,M5G
740,Downtown,748000,43.648827,-79.385551,#2702 - 180 University Ave,Toronto,M5H 3B3,M5H
1227,Downtown,1490000,43.648827,-79.385551,#2505 - 180 University Ave,Toronto,M5H 3B3,M5H
28,Downtown,325000,43.650372,-79.382347,#2705 - 70 Temperance St,Toronto,M5H 3V5,M5H
84,Downtown,459000,43.650372,-79.382347,#2709 - 70 Temperance St,Toronto,M5H 3V5,M5H
278,Downtown,593900,43.650372,-79.382347,#3501 - 70 TEMPERANCE ST,Toronto,M5H 3V5,M5H
288,Downtown,419900,43.650372,-79.382347,#5014 - 70 TEMPERANCE ST,Toronto,M5H 3V5,M5H
686,Downtown,574900,43.650372,-79.382347,#2517 - 70 Temperance St,Toronto,M5H 3V5,M5H
157,Entertainment District,573000,43.649025,-79.387138,1004 126 Simcoe Street,Toronto,M5H 4E6,M5H
473,Downtown,389900,43.639381,-79.384064,#1722 - 230 Queens Quay,Toronto,M5J,M5J
614,Downtown,349000,43.639381,-79.384064,#626 - 230 Queens Quay,Toronto,M5J,M5J
286,Downtown,299999,43.641788,-79.381874,#3511 - 14 YORK ST,Toronto,M5J 0B1,M5J
857,Downtown,419000,43.641788,-79.381874,#2407 - 14 YORK ST,Toronto,M5J 0B1,M5J
1001,Downtown,829000,43.641788,-79.381874,#5703 - 14 YORK ST,Toronto,M5J 0B1,M5J
364,Downtown,2340000,43.641247,-79.380821,#6802 - 10 YORK ST,Toronto,M5J 1B7,M5J
814,Downtown,399900,43.63932,-79.385727,#2705 - 260 QUEENS QUAY,Toronto,M5J 2N3,M5J
528,Downtown,399900,43.639095,-79.386475,#3108 - 270 Queens Quay,Toronto,M5J 2N4,M5J
1073,Downtown,810000,43.646236,-79.383324,#1110 - 33 University Ave,Toronto,M5J 2S7,M5J
1182,Downtown,343000,43.639664,-79.379272,#2705 - 77 Harbour Sq,Toronto,M5J 2T5,M5J
435,Downtown,499000,43.641632,-79.38205,#3010 - 12 York St,Toronto,M5J 2T8,M5J
748,Downtown,289000,43.641632,-79.38205,#1008 - 12 York St,Toronto,M5J 2T8,M5J
1020,Downtown,519900,43.641632,-79.38205,#4411 - 12 YORK ST,Toronto,M5J 2T8,M5J
1179,Downtown,549900,43.641632,-79.38205,#3010 - 12 York St,Toronto,M5J 2T8,M5J
1188,Downtown,495000,43.641632,-79.38205,#5009 - 12 York St,Toronto,M5J 2T8,M5J
556,Downtown,469900,43.642139,-79.37571,#514 - 10 Queens Quay W Quay,Toronto,M5J 2V7,M5J
846,Downtown,469900,43.642139,-79.37571,#514 - 10 QUEENS QUAY W QUAY,Toronto,M5J 2V7,M5J
12,Downtown,1348000,43.642578,-79.3769,#4905 - 16 Harbour St,Toronto,M5J 2Y4,M5J
738,Downtown,372000,43.639851,-79.382431,#604 - 218 Queens Quay,Toronto,M5J 2Y6,M5J
752,Downtown,68888,43.639725,-79.383247,#4 - 228 Queens Quay,Toronto,M5J 2Y6,M5J
825,Downtown,599000,43.642509,-79.377365,#4104 - 33 BAY ST,Toronto,M5J 2Z3,M5J
843,Downtown,385000,43.642509,-79.377365,#3405 - 33 BAY ST,Toronto,M5J 2Z3,M5J
178,Entertainment District,560000,43.642208,-79.383728,#810 - 51 LOWER SIMCOE ST,Toronto,M5J 3A6,M5J
823,Entertainment District,589900,43.642208,-79.383728,#712 - 51 LOWER SIMCOE ST N,Toronto,M5J 3A6,M5J
792,Downtown,549900,43.647381,-79.387276,#3305 - 224 KING ST W,Toronto,M5K 1A1,M5K
616,Nortown,1488000,43.720818,-79.425377,479 Glengarry Ave,Toronto,M5M 1E9,M5M
676,Bedford Park,2888000,43.727428,-79.410751,211 Cranbrooke Ave,Toronto,M5M 1M8,M5M
261,Nortown,2388000,43.727737,-79.42942,567 MELROSE AVE,Toronto,M5M 2A4,M5M
45,Nortown,2888000,43.733734,-79.425026,175 Haddington Ave,Toronto,M5M 2P7,M5M
199,Nortown,2698000,43.734093,-79.42907,154 DUNBLAINE AVE,Toronto,M5M 2S3,M5M
74,Nortown,1299900,43.736374,-79.430412,102 Mcgillivray Ave,Toronto,M5M 2Y4,M5M
349,Nortown,595000,43.739479,-79.42408,#1809 - 265 RIDLEY BLVD,Toronto,M5M 4N8,M5M
787,Midtown Toronto,513000,43.701771,-79.421219,#401 - 707 EGLINTON AVE W,Toronto,M5N 1C9,M5N
794,Midtown Toronto,3395000,43.714912,-79.416916,335 GLENCAIRN AVE,Toronto,M5N 1T8,M5N
878,Midtown Toronto,2395000,43.71468,-79.427269,448 GLENGROVE AVE W,Toronto,M5N 1X2,M5N
973,Midtown Toronto,2900000,43.718708,-79.421021,10 FRONTENAC AVE,Toronto,M5N 1Z5,M5N
1072,Lytton Park,4499900,43.714539,-79.416977,93 Mona Dr,Toronto,M5N 2R3,M5N
53,Midtown Toronto,5288000,43.691135,-79.415573,22 Strathearn Blvd,Toronto,M5P 1S7,M5P
320,Midtown Toronto,2399900,43.696072,-79.40477,737 AVENUE RD,Toronto,M5P 2J9,M5P
851,Midtown Toronto,2399900,43.696072,-79.40477,737 AVENUE RD,Toronto,M5P 2J9,M5P
493,Midtown Toronto,2349000,43.696522,-79.415451,4 BROWSIDE AVE,Toronto,M5P 2V1,M5P
314,Midtown Toronto,2495000,43.692696,-79.414703,482 SPADINA RD,Toronto,M5P 2W8,M5P
136,Casa Loma,35000,43.684158,-79.419075,#5 - 1500 Bathurst St,Toronto,M5P 3L3,M5P
363,Midtown Toronto,899000,43.673172,-79.389687,#1007 - 32 DAVENPORT RD,Toronto,M5R 0B5,M5R
1017,Midtown Toronto,825000,43.673172,-79.389687,#2808 - 32 DAVENPORT RD,Toronto,M5R 0B5,M5R
379,Midtown Toronto,529000,43.670319,-79.394432,#1217 - 155 YORKVILLE AVE,Toronto,M5R 1C4,M5R
391,Midtown Toronto,444900,43.670319,-79.394432,#3011 - 155 YORKVILLE AVE,Toronto,M5R 1C4,M5R
759,Midtown Toronto,434900,43.670319,-79.394432,#2811 - 155 YORKVILLE AVE,Toronto,M5R 1C4,M5R
1242,Midtown Toronto,439000,43.670319,-79.394432,#805 - 155 Yorkville Ave,Toronto,M5R 1C4,M5R
675,Midtown Toronto,539000,43.672318,-79.388817,#314 - 21 Scollard St,Toronto,M5R 1G1,M5R
327,Midtown Toronto,2629000,43.678749,-79.414062,34 AUSTIN TERR,Toronto,M5R 1Y5,M5R
849,Midtown Toronto,75000,43.670742,-79.391388,26 BELLAIR ST,Toronto,M5R 2C7,M5R
183,Midtown Toronto,1399999,43.671864,-79.393814,#2 B - 36 HAZELTON AVE,Toronto,M5R 2E2,M5R
593,Midtown Toronto,785000,43.675331,-79.397125,#1607 - 170 Avenue Rd,Toronto,M5R 2H8,M5R
1043,Midtown Toronto,409888,43.671066,-79.401443,#504 - 212 ST. GEORGE ST,Toronto,M5R 2N8,M5R
845,Midtown Toronto,364900,43.684273,-79.41111,#14 - 338 SPADINA RD,Toronto,M5R 2V8,M5R
8,Downtown,805900,43.666794,-79.388756,#710 - 1080 Bay St,Toronto,M5S 0A5,M5S
39,Downtown,312000,43.666897,-79.389038,#3010 - 65 St  Mary St,Toronto,M5S 0A6,M5S
1101,Downtown,885000,43.666897,-79.389038,#1702 - 65 St Mary St,Toronto,M5S 0A6,M5S
773,Downtown,369900,43.664471,-79.410561,#507 - 783 BATHURST ST,Toronto,M5S 0A8,M5S
95,Midtown Toronto,49,43.66571,-79.409096,#Main Fl - 454 Bloor St,Toronto,M5S 1X8,M5S
186,Downtown,1525000,43.668617,-79.389435,#703 - 1166 BAY ST,Toronto,M5S 2B4,M5S
325,Midtown Toronto,1099000,43.669445,-79.39225,#808 - 110 BLOOR ST W,Toronto,M5S 2W7,M5S
1184,Downtown,765000,43.665546,-79.387245,#2614 - 1001 Bay St,Toronto,M5S 3A6,M5S
837,Midtown Toronto,7899000,43.669788,-79.391121,#608 - 10 BELLAIR ST,Toronto,M5S 3L7,M5S
112,Downtown,33,43.652451,-79.388931,#514 - 210 Simcoe St,Toronto,M5T 0A9,M5T
158,Downtown,589000,43.652451,-79.388931,#804 - 210 SIMCOE ST,Toronto,M5T 0A9,M5T
274,Downtown,388800,43.652451,-79.388931,#1702 - 210 SIMCOE ST,Toronto,M5T 0A9,M5T
311,Downtown,519900,43.649609,-79.403625,#Th 2 - 68 CARR ST,Toronto,M5T 1B7,M5T
476,Downtown,1699000,43.655937,-79.393402,33 BALDWIN ST,Toronto,M5T 1L1,M5T
864,Downtown,799900,43.655689,-79.399826,#103 - 21 NASSAU ST,Toronto,M5T 1M2,M5T
839,Downtown,829900,43.650604,-79.390419,11 ST PATRICKS SQ,Toronto,M5T 1W8,M5T
677,Downtown,898000,43.65036,-79.393578,#P311 - 25 Soho St,Toronto,M5T 3L8,M5T
179,Niagara,309900,43.637035,-79.402863,#1231 - 38 GRAND MAGAZINE ST,Toronto,M5V 0B2,M5V
840,Niagara,369900,43.637035,-79.402863,#538 - 38 GRAND MAGAZINE ST,Toronto,M5V 0B2,M5V
1205,Downtown,630000,43.649082,-79.392082,#1107 - 318 Richmond St,Toronto,M5V 0B4,M5V
116,Downtown,438000,43.647224,-79.391098,#3307 - 21 Widmer St,Toronto,M5V 0B8,M5V
661,Downtown,465000,43.647224,-79.391098,#1906 - 21 Widmer St,Toronto,M5V 0B8,M5V
662,Downtown,409800,43.647224,-79.391098,#3108 - 21 Widmer St,Toronto,M5V 0B8,M5V
847,Downtown,628000,43.647224,-79.391098,#2101 - 21 WIDMER ST,Toronto,M5V 0B8,M5V
1248,Downtown,474000,43.647224,-79.391098,#712 - 21 Widmer St,Toronto,M5V 0B8,M5V
73,Niagara,105,43.637207,-79.403572,#512 - 35 Bastion St,Toronto,M5V 0C2,M5V
862,Niagara,399900,43.637207,-79.403572,#903 - 35 BASTION ST,Toronto,M5V 0C2,M5V
128,Downtown,389000,43.645985,-79.389938,#1310 - 8 Mercer St,Toronto,M5V 0C4,M5V
159,Downtown,299000,43.645985,-79.389938,#202 - 8 MERCER ST,Toronto,M5V 0C4,M5V
1123,Downtown,369900,43.645985,-79.389938,#517 - 8 Mercer St,Toronto,M5V 0C4,M5V
1212,Downtown,380000,43.645985,-79.389938,#1410 - 8 Mercer St,Toronto,M5V 0C4,M5V
109,Niagara,25,43.638512,-79.400894,#716 - 169 Fort York Blvd,Toronto,M5V 0C8,M5V
633,Niagara,368900,43.638512,-79.400894,#506 - 169 Fort York Blvd,Toronto,M5V 0C8,M5V
188,Downtown,449900,43.639343,-79.399841,#2111 - 170 FORT YORK BLVD,Toronto,M5V 0E6,M5V
568,Downtown,512000,43.644173,-79.38942,#808 - 300 Front St,Toronto,M5V 0E9,M5V
831,Downtown,530000,43.644173,-79.38942,#1308 - 300 FRONT ST W,Toronto,M5V 0E9,M5V
1296,Downtown,489000,43.644173,-79.38942,#1008 - 300 FRONT ST W,Toronto,M5V 0E9,M5V
727,Downtown,269900,43.647514,-79.3927,#802 - 101 Peter St,Toronto,M5V 0G6,M5V
781,Niagara,428800,43.637432,-79.401039,#2811 - 20 BRUYERES MEWS,Toronto,M5V 0G8,M5V
1056,Niagara,378800,43.637432,-79.401367,#Sph03 - 50 Bruyeres Mews,Toronto,M5V 0G8,M5V
1245,Downtown,479900,43.643764,-79.401352,#1103 - 38 Stewart St,Toronto,M5V 0H1,M5V
608,Downtown,332000,43.638477,-79.397987,#2910 - 75 Queens Wharf Rd,Toronto,M5V 0J8,M5V
1035,Downtown,417888,43.638477,-79.397987,#707 - 75 QUEENS WHARF RD,Toronto,M5V 0J8,M5V
699,Downtown,549900,43.643486,-79.392303,#102 - 352 Front St,Toronto,M5V 0K3,M5V
1042,Downtown,390900,43.643486,-79.392303,#1512 - 352 FRONT ST,Toronto,M5V 0K3,M5V
175,Downtown,1900,43.647663,-79.390419,295 Adelaide Street,Toronto,M5V 0L4,M5V
854,Downtown,469000,43.647663,-79.390419,#3105 - 295 ADELAIDE ST,Toronto,M5V 0L4,M5V
273,Downtown,401900,43.648296,-79.392952,#711 - 125 PETER ST,Toronto,M5V 0M3,M5V
643,Downtown,399900,43.648296,-79.392952,#506 - 125 Peter St,Toronto,M5V 0M3,M5V
1022,Downtown,329900,43.648296,-79.392952,#510 - 125 PETER ST,Toronto,M5V 0M3,M5V
587,Niagara,629000,43.636234,-79.403122,#1307T - 628 Fleet St,Toronto,M5V 1A8,M5V
807,Niagara,679000,43.636234,-79.403122,#1614 - 628 FLEET ST,Toronto,M5V 1A8,M5V
824,Niagara,619000,43.636234,-79.403122,#2907 - 628 FLEET ST,Toronto,M5V 1A8,M5V
852,Niagara,484900,43.636234,-79.403122,#524 - 628 FLEET ST,Toronto,M5V 1A8,M5V
1218,Niagara,539000,43.636234,-79.403122,#207 - 628 Fleet St,Toronto,M5V 1A8,M5V
693,Downtown,339000,43.638866,-79.398438,#1609 - 85 Queens Wharf Rd,Toronto,M5V 1A9,M5V
810,Downtown,348888,43.638866,-79.398438,#2511 - 85 QUEENS WHARF RD,Toronto,M5V 1A9,M5V
698,Niagara,549900,43.63641,-79.402,#1009 - 21 Grand Magazine St,Toronto,M5V 1B5,M5V
830,Niagara,323000,43.63673,-79.400505,#511 - 600 FLEET ST,Toronto,M5V 1B7,M5V
844,Niagara,549900,43.63673,-79.400505,#2801 - 600 FLEET ST,Toronto,M5V 1B7,M5V
1120,Niagara,239000,43.63673,-79.400505,#405 - 600 Fleet St,Toronto,M5V 1B7,M5V
1224,Niagara,234850,43.63673,-79.400505,#605 - 600 Fleet St,Toronto,M5V 1B7,M5V
1203,Downtown,324000,43.641346,-79.400131,#413 - 560 Front St,Toronto,M5V 1C1,M5V
853,Downtown,329000,43.643566,-79.401031,#407 - 32 STEWART ST,Toronto,M5V 1H6,M5V
52,Downtown,548000,43.645641,-79.392952,#2403 - 375 King St,Toronto,M5V 1K1,M5V
488,Downtown,335000,43.645641,-79.392952,#3001 - 375 KING ST W,Toronto,M5V 1K1,M5V
1160,Downtown,335000,43.645641,-79.392952,#3001 - 375 King St,Toronto,M5V 1K1,M5V
163,Downtown,508000,43.647942,-79.390945,#2111 - 290 ADELAIDE ST W,Toronto,M5V 1P6,M5V
566,Downtown,369900,43.64904,-79.392258,#1313 - 320 Richmond St,Toronto,M5V 1X2,M5V
827,Downtown,474900,43.648006,-79.396835,#1001 - 438 RICHMOND ST W,Toronto,M5V 1X9,M5V
581,Downtown,1599000,43.643799,-79.399605,#1101 - 75 Portland St,Toronto,M5V 2M9,M5V
307,Niagara,299900,43.642792,-79.407196,#320 - 801 KING ST W,Toronto,M5V 3C9,M5V
609,Downtown,385000,43.649597,-79.388489,#503 - 199 Richmond St,Toronto,M5V 3E5,M5V
790,Downtown,383000,43.644699,-79.390953,#1102 - 263 WELLINGTON ST W,Toronto,M5V 3E6,M5V
1046,Niagara,1279000,43.635521,-79.402435,#610 - 637 LAKE SHORE BLVD W,Toronto,M5V 3J6,M5V
863,Downtown,449900,43.645069,-79.390862,#211 - 270 WELLINGTON ST,Toronto,M5V 3P5,M5V
172,Downtown,359900,43.644932,-79.392143,#525 - 36 BLUE JAYS WAY,Toronto,M5V 3T3,M5V
767,Downtown,388000,43.640266,-79.391006,#603 - 3 NAVY WHARF CRT,Toronto,M5V 3V1,M5V
389,Entertainment District,329900,43.640247,-79.392395,#208 - 9 SPADINA AVE,Toronto,M5V 3V5,M5V
390,Entertainment District,318000,43.640247,-79.392395,#506 - 9 SPADINA AVE,Toronto,M5V 3V5,M5V
575,Downtown,849000,43.639683,-79.39212,#4309 - 35 Mariner Terr,Toronto,M5V 3V9,M5V
144,Downtown,650000,43.643845,-79.391823,#307 - 20 BLUE JAYS WAY,Toronto,M5V 3W6,M5V
820,Downtown,998000,43.646809,-79.390182,#2612 - 80 JOHN ST,Toronto,M5V 3X4,M5V
32,Downtown,97,43.6395,-79.393425,#3711 - 11 Brunel Crt,Toronto,M5V 3Y3,M5V
694,Downtown,419000,43.6395,-79.393425,#4901 - 11 Brunel Crt,Toronto,M5V 3Y3,M5V
58,Downtown,33,43.640057,-79.393967,#3706 - 15 Fort York Blvd,Toronto,M5V 3Y4,M5V
769,Downtown,399000,43.640057,-79.393967,#2608 - 15 FORT YORK BLVD,Toronto,M5V 3Y4,M5V
1002,Downtown,499900,43.64048,-79.394966,#347 - 8 TELEGRAM MEWS,Toronto,M5V 3Z4,M5V
485,Downtown,461000,43.640816,-79.395538,#1505 - 25 Capreol Crt,Toronto,M5V 3Z7,M5V
1256,Downtown,471000,43.640816,-79.395538,#1505 - 25 Capreol Crt,Toronto,M5V 3Z7,M5V
362,Niagara,539900,43.636963,-79.404671,#279 - 209 FORT YORK BLVD,Toronto,M5V 4A1,M5V
453,Niagara,349000,43.636963,-79.404671,#562 - 209 FORT YORK BLVD S,Toronto,M5V 4A1,M5V
1246,Niagara,364900,43.636963,-79.404671,#1357 - 209 Fort York Blvd,Toronto,M5V 4A1,M5V
56,Niagara,369000,43.636837,-79.406052,#1901 - 231 Fort York Blvd,Toronto,M5V 4A2,M5V
126,Niagara,399000,43.636345,-79.404808,#2011 - 215 Fort York Blvd,Toronto,M5V 4A2,M5V
150,Niagara,450000,43.636837,-79.406052,#432 - 231 FORT YORK BLVD,Toronto,M5V 4A2,M5V
177,Niagara,289000,43.636345,-79.404808,#603 - 215 FORT YORK BLVD,Toronto,M5V 4A2,M5V
285,Niagara,303400,43.636345,-79.404808,#111 - 215 FORT YORK BLVD,Toronto,M5V 4A2,M5V
663,Niagara,398880,43.636837,-79.406052,#728 - 231 Fort York Blvd,Toronto,M5V 4A2,M5V
139,Downtown,379000,43.640224,-79.39595,#725 - 10 CAPREOL CRT,Toronto,M5V 4A3,M5V
772,Downtown,354900,43.640526,-79.397102,#1211 - 15 ICEBOAT TERR,Toronto,M5V 4A5,M5V
800,Downtown,888000,43.64016,-79.396309,#G6 - 60 FORT YORK BLVD,Toronto,M5V 4A6,M5V
522,Downtown,378000,43.640381,-79.397339,#1508 - 21 Iceboat Terr,Toronto,M5V 4A9,M5V
780,Downtown,619000,43.640381,-79.397339,#3909 - 21 ICEBOAT TERR,Toronto,M5V 4A9,M5V
140,Downtown,568000,43.639782,-79.397949,#2103 - 151 DAN LECKIE WAY,Toronto,M5V 4B2,M5V
1009,Downtown,688800,43.639782,-79.397949,#352 - 151 DAN LECKIE WAY,Toronto,M5V 4B2,M5V
1142,Downtown,325000,43.639782,-79.397949,#2008 - 151 Dan Leckie Way,Toronto,M5V 4B2,M5V
135,Lawrence Heights,359000,43.714592,-79.452911,#612 - 800 Lawrence Ave,Toronto,M6A 0B1,M6A
706,Lawrence Heights,289000,43.714592,-79.452911,#821 - 800 Lawrence Ave,Toronto,M6A 0B1,M6A
1000,Lawrence Heights,328000,43.714592,-79.452911,#1217 - 800 LAWRENCE AVE W,Toronto,M6A 0B1,M6A
749,Lawrence Heights,315000,43.715069,-79.4533,#441 - 36 Via Bagnato,Toronto,M6A 0B7,M6A
1103,Lawrence Heights,364900,43.715069,-79.4533,#326 - 36 Via Bagnato,Toronto,M6A 0B7,M6A
214,Lawrence Heights,575000,43.717735,-79.442039,#25 - 21 REPLIN RD,Toronto,M6A 2M8,M6A
974,Lawrence Heights,348800,43.715202,-79.452354,#2406 - 770 LAWRENCE AVE W,Toronto,M6A 3C6,M6A
424,Englemount - Lawrence,539000,43.721115,-79.430847,#808 - 2 COVINGTON RD,Toronto,M6A 3E2,M6A
277,Lawrence Heights,357000,43.717121,-79.441757,#738 - 650 LAWRENCE AVE W,Toronto,M6A 3E8,M6A
1153,Lawrence Heights,419500,43.717121,-79.441757,#512 - 650 Lawrence Ave,Toronto,M6A 3E8,M6A
1084,Midtown Toronto,229900,43.704834,-79.439888,#211 - 360 Ridelle Ave,Toronto,M6B 1K1,M6B
757,Fairbank,949900,43.702934,-79.449738,1059 Briar Hill Ave,Toronto,M6B 1M8,M6B
1294,Fairbank,949900,43.702934,-79.449738,1059 Briar Hill Ave,Toronto,M6B 1M8,M6B
667,Glen Park,1788000,43.704937,-79.462776,1209 Glencairn Ave,Toronto,M6B 2B6,M6B
257,Midtown Toronto,1395000,43.711784,-79.43515,90 GLEN PARK AVE,Toronto,M6B 2C3,M6B
1136,Glen Park,1538800,43.707947,-79.462692,101 Glen Long Ave,Toronto,M6B 2M4,M6B
1083,Midtown Toronto,1179000,43.715977,-79.441673,140 Fairholme Ave,Toronto,M6B 2X2,M6B
917,Glen Park,899000,43.708736,-79.466133,986 CALEDONIA RD,Toronto,M6B 3Y8,M6B
1169,Fairbank,798000,43.701317,-79.444931,965 Roselawn Ave,Toronto,M6B 4M9,M6B
388,Midtown Toronto,599900,43.683372,-79.418686,#1105 - 500 ST CLAIR AVE W,Toronto,M6C 1A8,M6C
882,Midtown Toronto,449000,43.690762,-79.437408,535 VAUGHAN RD,Toronto,M6C 2R2,M6C
259,Midtown Toronto,1420000,43.688213,-79.433723,225 ATLAS AVE,Toronto,M6C 3P6,M6C
174,Midtown Toronto,1399000,43.70208,-79.437904,90 FAIRLEIGH CRES,Toronto,M6C 3R9,M6C
454,Midtown Toronto,1299000,43.700653,-79.439201,39 FAIRLEIGH CRES,Toronto,M6C 3R9,M6C
471,Midtown Toronto,1179000,43.687832,-79.436775,135 CEDRIC AVE,Toronto,M6C 3X7,M6C
1198,Midtown Toronto,799000,43.68766,-79.438766,373 Oakwood Ave,Toronto,M6E 2W1,M6E
1231,Midtown Toronto,1985000,43.686703,-79.438545,350-352 Oakwood Ave,Toronto,M6E 2W2,M6E
695,Oakwood Village,1499000,43.682838,-79.441528,298 Lauder Ave,Toronto,M6E 3H6,M6E
18,St. Clair West Village,25,43.68227,-79.44339,247 Westmount Ave,Toronto,M6E 3M9,M6E
344,Fairbank,1149000,43.693851,-79.452827,207 ENNERDALE RD,Toronto,M6E 4E1,M6E
501,Earlscourt,598000,43.682091,-79.451126,190 NAIRN AVE,Toronto,M6E 4H3,M6E
1204,Earlscourt,899900,43.68219,-79.456421,268 Mcroberts Ave,Toronto,M6E 4P6,M6E
3,Fairbank,25,43.691193,-79.461662,532 Caledonia Rd,Toronto,M6E 4V4,M6E
513,Fairbank,499000,43.691193,-79.461662,532 Caledonia Rd,Toronto,M6E 4V4,M6E
217,Briar Hill - Belgravia,650000,43.694397,-79.462372,627 CALEDONIA RD,Toronto,M6E 4V7,M6E
308,Earlscourt,625000,43.679153,-79.457504,69 GILBERT AVE,Toronto,M6E 4W2,M6E
469,Earlscourt,599000,43.679153,-79.457504,69 GILBERT AVE,Toronto,M6E 4W2,M6E
1289,Little Italy,299000,43.655308,-79.41642,656 College St,Toronto,M6G 1B8,M6G
611,Trinity - Bellwoods,508000,43.65464,-79.421013,#204 - 799 College St,Toronto,M6G 1C7,M6G
571,Midtown Toronto,719000,43.66983,-79.414742,#204 - 31 Olive Ave,Toronto,M6G 1T7,M6G
1249,Midtown Toronto,368800,43.66983,-79.414742,#211 - 31 Olive Ave,Toronto,M6G 1T7,M6G
804,Midtown Toronto,8980000,43.677525,-79.418228,82 WYCHWOOD PARK,Toronto,M6G 2V5,M6G
9,Midtown Toronto,97,43.662872,-79.423233,#A - 753 Shaw St,Toronto,M6G 3L9,M6G
812,Wallace Emerson,84990,43.659683,-79.437279,1174 BLOOR ST W,Toronto,M6H 1N1,M6H
4,Wallace Emerson,113,43.664101,-79.439751,47 Armstrong Ave,Toronto,M6H 1V9,M6H
494,Wallace Emerson,899900,43.665096,-79.439278,25 MILLICENT Street,Toronto,M6H 1W3,M6H
770,Wallace Emerson,119000,43.667503,-79.442085,1245 Dupont Street,Toronto,M6H 2A6,M6H
809,Wallace Emerson,119000,43.667503,-79.442085,1245 DUPONT ST,Toronto,M6H 2A6,M6H
318,Earlscourt,789000,43.676144,-79.443947,162 ROSEMOUNT Avenue,Toronto,M6H 2M9,M6H
153,Wallace Emerson,939000,43.661915,-79.439941,712 BROCK AVE,Toronto,M6H 3P2,M6H
833,Wallace Emerson,619000,43.661896,-79.443748,797 LANSDOWNE AVE,Toronto,M6H 3Z1,M6H
1135,Wallace Emerson,299900,43.665726,-79.447418,#509 - 816 Lansdowne Ave,Toronto,M6H 4K6,M6H
774,Davenport,499000,43.670422,-79.45005,#18 - 20 TURNTABLE CRES,Toronto,M6H 4K9,M6H
797,Little Portugal,305990,43.641697,-79.423431,#515 E - 36 LISGAR ST,Toronto,M6J 0A9,M6J
799,Little Portugal,295000,43.641697,-79.423431,#710 E - 36 LISGAR ST,Toronto,M6J 0A9,M6J
994,Little Portugal,299900,43.641697,-79.423431,#315 - 36 LISGAR ST,Toronto,M6J 0A9,M6J
1041,Little Portugal,315990,43.641697,-79.423431,#2203 E - 36 LISGAR ST,Toronto,M6J 0A9,M6J
1125,Little Portugal,274900,43.641567,-79.424606,#502 - 170 Sudbury St,Toronto,M6J 0A9,M6J
1225,Little Portugal,299900,43.641697,-79.423431,#309 - 36 Lisgar St,Toronto,M6J 0A9,M6J
683,Little Portugal,255990,43.642391,-79.424736,#825 - 68 Abell St,Toronto,M6J 0B1,M6J
762,Little Portugal,409900,43.642391,-79.424736,#917 - 68 ABELL ST,Toronto,M6J 0B1,M6J
765,Little Portugal,495000,43.642391,-79.424736,#930 - 68 ABELL ST,Toronto,M6J 0B1,M6J
625,Niagara,869900,43.644657,-79.411919,#10 - 850 Richmond St,Toronto,M6J 1C9,M6J
771,Little Portugal,398900,43.642563,-79.42572,#1601 - 1171 QUEEN ST W,Toronto,M6J 1J4,M6J
803,Little Portugal,799900,43.647221,-79.426056,18 AFTON AVE,Toronto,M6J 1R8,M6J
610,Dufferin Grove,449800,43.64962,-79.423973,#405 - 1238 Dundas St,Toronto,M6J 1X5,M6J
312,Little Italy,1098000,43.651443,-79.418373,7 HARRISON ST,Toronto,M6J 1Z7,M6J
838,Trinity - Bellwoods,624999,43.65094,-79.410881,194 MANNING AVE,Toronto,M6J 2K5,M6J
173,Trinity - Bellwoods,919000,43.647694,-79.42276,6 GROVE AVE,Toronto,M6J 3B6,M6J
1058,Little Portugal,949000,43.649033,-79.427734,169 Beaconsfield Ave,Toronto,M6J 3J7,M6J
1150,Little Portugal,1059000,43.646023,-79.427406,128 Northcote Ave,Toronto,M6J 3K5,M6J
301,Little Portugal,330000,43.641529,-79.424118,#1815 - 150 Sudbury St,Toronto,M6J 3S8,M6J
299,King West Village,636000,43.642071,-79.414581,#305 - 39 Shank St,Toronto,M6J 3X3,M6J
782,King West Village,579900,43.642071,-79.414581,#108 - 39 SHANK ST,Toronto,M6J 3X3,M6J
57,Liberty Village,420000,43.638054,-79.414818,#1010 - 65 East Liberty St,Toronto,M6K 0A2,M6K
187,Liberty Village,379900,43.638306,-79.414787,#910 - 75 EAST LIBERTY ST,Toronto,M6K 0A2,M6K
574,Liberty Village,798000,43.638306,-79.414787,#2118 - 75 East Liberty St,Toronto,M6K 0A2,M6K
778,Toronto,299900,43.640209,-79.423943,#1115 - 20 JOE SHUSTER WAY,Toronto,M6K 0A4,M6K
1299,Toronto,269900,43.640209,-79.423943,#1003 - 20 JOE SHUSTER WAY,Toronto,M6K 0A4,M6K
855,Toronto,298500,43.640335,-79.424477,#316 - 38 JOE SHUSTER WAY,Toronto,M6K 0A5,M6K
1171,Toronto,279000,43.640335,-79.424477,#308 - 38 Joe Shuster Way,Toronto,M6K 0A5,M6K
1195,Niagara,559800,43.641579,-79.415901,#843 - 1030 King St,Toronto,M6K 0B4,M6K
850,Parkdale,959900,43.634659,-79.436211,108 SPRINGHURST AVE,Toronto,M6K 1C1,M6K
1057,Parkdale,849000,43.636009,-79.427162,23 Temple Ave,Toronto,M6K 1C7,M6K
305,Toronto,749000,43.640354,-79.426109,#514 - 25 Laidlaw St,Toronto,M6K 1X3,M6K
644,Little Portugal,949000,43.647655,-79.430496,551 Dufferin St,Toronto,M6K 2B1,M6K
6,Parkdale,97,43.635578,-79.441345,#808 - 2167 Lake Shore Blvd,Toronto,M6K 3C1,M6K
7,Parkdale,49,43.635578,-79.441345,#2706 - 2167 Lake Shore Blvd,Toronto,M6K 3C1,M6K
1018,Parkdale,510000,43.635578,-79.441345,#2902 - 2167 LAKESHORE BLVD,Toronto,M6K 3C1,M6K
492,Niagara,499999,43.641571,-79.412743,#104 - 915 KING ST W,Toronto,M6K 3M2,M6K
526,Niagara,424900,43.641735,-79.41449,#411 - 1000 King St,Toronto,M6K 3N1,M6K
523,King West Village,399900,43.640839,-79.415085,#106 - 60 Douro St,Toronto,M6K 3N5,M6K
156,Niagara,349000,43.639881,-79.414192,#915 - 50 WESTERN BATTERY RD,Toronto,M6K 3P1,M6K
147,King West Village,589900,43.63818,-79.413895,#Th6 - 6 PIRANDELLO ST,Toronto,M6K 3P4,M6K
818,Liberty Village,509900,43.638607,-79.411858,#1204 - 51 EAST LIBERTY ST,Toronto,M6K 3P8,M6K
145,Liberty Village,388000,43.638775,-79.41626,#902 - 150 EAST LIBERTY ST,Toronto,M6K 3R5,M6K
184,Liberty Village,375000,43.638775,-79.41626,#1315 - 150 EAST LIBERTY ST,Toronto,M6K 3R5,M6K
524,Liberty Village,399900,43.638775,-79.41626,#3015 - 150 East Liberty St,Toronto,M6K 3R5,M6K
49,Niagara,399900,43.639946,-79.416664,#1505 - 125 Western Battery Rd,Toronto,M6K 3R8,M6K
384,Niagara,449900,43.639946,-79.416664,#1611 - 125 WESTERN BATTERY RD,Toronto,M6K 3R8,M6K
380,Niagara,389900,43.63966,-79.415771,#705 - 100 WESTERN BATTERY RD,Toronto,M6K 3S2,M6K
381,Niagara,379900,43.63966,-79.415771,#1102 - 100 WESTERN BATTERY RD,Toronto,M6K 3S2,M6K
815,Niagara,249900,43.63966,-79.415771,#1104 - 100 WESTERN BATTERY RD,Toronto,M6K 3S2,M6K
723,Maple Leaf,979900,43.713287,-79.486893,352 Maple Leaf Dr,Toronto,M6L 1P6,M6L
1089,Rustic,1289000,43.715168,-79.503197,50 Beckett Ave,Toronto,M6L 2B3,M6L
709,Maple Leaf,1264000,43.720005,-79.475037,171 Cornelius Pkwy,Toronto,M6L 2K8,M6L
333,Maple Leaf,599900,43.720924,-79.483597,210 RORY RD,Toronto,M6L 3E7,M6L
437,Maple Leaf,799000,43.720276,-79.484901,61 Rory Rd,Toronto,M6L 3E9,M6L
665,Silverthorn,559900,43.686016,-79.472282,125 Trowell Ave,Toronto,M6M 1L6,M6M
656,Mount Dennis,319000,43.686134,-79.491875,#311 - 3559 Eglinton Ave,Toronto,M6M 1V7,M6M
351,Mount Dennis,499000,43.692429,-79.498917,39 COBALT ST,Toronto,M6M 2K1,M6M
958,Brookhaven,519000,43.699989,-79.496284,83 HEARST CIRC,Toronto,M6M 2V2,M6M
550,Silverthorn,589000,43.684425,-79.462715,384 Blackthorn Ave,Toronto,M6M 3B9,M6M
255,Silverthorn,829000,43.687645,-79.477287,7 LANDOUR AVE,Toronto,M6M 4J3,M6M
1090,Mount Dennis,389000,43.692898,-79.506203,#201 - 56 Sidney Belsey Cres,Toronto,M6M 5H9,M6M
1115,Mount Dennis,409000,43.69281,-79.506653,#304 - 60 Sidney Belsey Cres,Toronto,M6M 5J2,M6M
230,Brookhaven - Amesbury,599900,43.695271,-79.497498,45 MILLENNIUM DR,Toronto,M6M 5K5,M6M
1063,Brookhaven - Amesbury,699000,43.696663,-79.494972,116 Via Cassia Dr,Toronto,M6M 5L3,M6M
1105,Mount Dennis,546666,43.686855,-79.490898,3 Bijou Walk,Toronto,M6M 5L7,M6M
105,Carleton Village,699900,43.673656,-79.455894,30 Exeter St,Toronto,M6N 1G2,M6N
859,Earlscourt,449000,43.680565,-79.465034,94 ROWNTREE AVE,Toronto,M6N 1S2,M6N
1292,Rockcliffe - Smythe,1349000,43.666817,-79.503151,165 Eileen Ave,Toronto,M6N 1W3,M6N
1054,Harwood,319900,43.678585,-79.478516,79 Cayuga Ave,Toronto,M6N 2G4,M6N
569,Rockcliffe - Smythe,599900,43.680248,-79.483566,89 Cordella Ave,Toronto,M6N 2J8,M6N
555,Rockcliffe - Smythe,322000,43.676445,-79.505966,#807 - 250 Scarlett Rd,Toronto,M6N 2M6,M6N
359,Rockcliffe - Smythe,560000,43.6833,-79.484657,30 BUSHEY AVE,Toronto,M6N 2R3,M6N
1156,Silverthorn,699900,43.680458,-79.46653,676 Old Weston Rd,Toronto,M6N 3B5,M6N
591,Earlscourt,579000,43.67762,-79.461273,142 Silverthorn Ave,Toronto,M6N 3K3,M6N
943,Silverthorn,499900,43.681828,-79.462662,311 SILVERTHORN AVE,Toronto,M6N 3K5,M6N
1119,Earlscourt,688000,43.677956,-79.463882,68 Chambers Ave,Toronto,M6N 3M2,M6N
700,Rockcliffe - Smythe,799900,43.677685,-79.472687,262 Weston Rd,Toronto,M6N 3P5,M6N
452,Harwood,699400,43.677654,-79.473663,435 MAYBANK AVE,Toronto,M6N 3S7,M6N
1170,Harwood,650000,43.677681,-79.474472,450 Maybank Ave,Toronto,M6N 3S8,M6N
500,Rockcliffe - Smythe,549900,43.66758,-79.500061,#C - 26 C SCARLETT RD,Toronto,M6N 4K1,M6N
1127,Rockcliffe - Smythe,305000,43.675777,-79.507919,#606 - 240 Scarlett Rd,Toronto,M6N 4X4,M6N
1178,Rockcliffe - Smythe,458000,43.675777,-79.507919,#1410 - 240 Scarlett Rd,Toronto,M6N 4X4,M6N
658,High Park North,1199000,43.655979,-79.455147,1602 Bloor St,Toronto,M6P 1A7,M6P
627,High Park North,1299000,43.659706,-79.464279,43 Hillsview Ave,Toronto,M6P 1J4,M6P
321,High Park North,749900,43.663395,-79.458008,17 BRAD ST,Toronto,M6P 1M9,M6P
626,High Park North,2249000,43.659157,-79.464592,199 Oakmount Rd,Toronto,M6P 2N1,M6P
317,High Park North,995000,43.662804,-79.465935,152 MEDLAND ST,Toronto,M6P 2N5,M6P
856,High Park North,795900,43.65448,-79.467651,2601 50 Quebec Avenue,Toronto,M6P 2V8,M6P
1235,High Park North,1995000,43.653122,-79.476166,292 Kennedy Ave,Toronto,M6P 3C3,M6P
525,Junction Triangle,719000,43.660889,-79.447205,198 Rankin Cres,Toronto,M6P 4H9,M6P
978,Roncesvalles Village,779000,43.645916,-79.441017,15 FERN AVE,Toronto,M6R 1J9,M6R
637,Roncesvalles Village,1450000,43.642044,-79.438721,56 Macdonell Ave,Toronto,M6R 2A2,M6R
1151,Roncesvalles Village,8500000,43.64336,-79.447777,137 Roncesvalles Ave,Toronto,M6R 2L2,M6R
193,Lambton Baby Point,404900,43.648071,-79.486664,#728 - 2 OLD MILL DR,Toronto,M6S,M6S
194,Lambton Baby Point,514900,43.648071,-79.486664,#211 - 2 OLD MILL DR,Toronto,M6S,M6S
711,Sunnyside,339900,43.636387,-79.466263,#Lph2 - 1910 Lake Shore Blvd,Toronto,M6S,M6S
713,Sunnyside,330000,43.636387,-79.466263,#Ph01 - 1910 Lake Shore Blvd,Toronto,M6S,M6S
1034,Sunnyside,389900,43.636387,-79.466263,#1203 - 1910 LAKESHORE BLVD,Toronto,M6S,M6S
868,Lambton Baby Point,799900,43.648243,-79.486626,#1105 - 1 OLD MILL DR,Toronto,M6S 0A1,M6S
529,Swansea,480000,43.63913,-79.474831,#809 - 35 Ormskirk Ave,Toronto,M6S 1A8,M6S
1295,Bloor West Village,29900,43.649807,-79.483337,2406 Bloor  St.  West St,Toronto,M6S 1P9,M6S
1075,Swansea,2950000,43.651108,-79.471924,7 Harcroft Rd,Toronto,M6S 2V8,M6S
495,Lambton,799999,43.663452,-79.490456,560 JANE ST,Toronto,M6S 4A5,M6S
692,Swansea,4995000,43.644661,-79.484764,275 Riverside Dr,Toronto,M6S 4A8,M6S
198,Lambton,959000,43.664501,-79.492035,129 WATSON AVE,Toronto,M6S 4E3,M6S
674,Swansea,639500,43.636818,-79.47419,#509 - 1 Ripley Ave,Toronto,M6S 4Z6,M6S
162,Swansea,1299900,43.652039,-79.470833,#707 - 383 ELLIS PARK RD,Toronto,M6S 5B2,M6S
72,Swansea,25,43.636292,-79.470467,#917 - 103 The Queensway Ave,Toronto,M6S 5B3,M6S
138,Swansea,789900,43.636292,-79.470467,#2704 - 103 THE QUEENSWAY WAY,Toronto,M6S 5B3,M6S
527,Swansea,498000,43.636292,-79.470467,#2005 - 103 The Queensway Ave,Toronto,M6S 5B3,M6S
551,Swansea,498000,43.636292,-79.470467,#1805 - 103 The Queensway,Toronto,M6S 5B3,M6S
735,Swansea,334000,43.636292,-79.470467,#2708 - 103 The Queensway Ave,Toronto,M6S 5B3,M6S
858,Swansea,315000,43.636292,-79.470467,#518 - 103 THE QUEENSWAY BLVD,Toronto,M6S 5B3,M6S
1149,Swansea,498000,43.636292,-79.470467,#2305 - 103 The Queensway Ave,Toronto,M6S 5B3,M6S
1270,Swansea,339000,43.636292,-79.470467,#1416 - 103 The Queensway Ave,Toronto,M6S 5B3,M6S
180,Swansea,269900,43.636173,-79.470757,#407 - 105 THE QUEENSWAY AVE,Toronto,M6S 5B5,M6S
559,Swansea,329900,43.636173,-79.470757,#1605 - 105 The Queensway Ave,Toronto,M6S 5B5,M6S
690,Mimico,329800,43.627304,-79.476868,#335 - 58 Marine Parade Dr,Toronto,M8V 0A3,M8V
1238,Mimico,1120000,43.625542,-79.477242,#2601 - 80 Marine Parade Dr,Toronto,M8V 0A3,M8V
1250,Mimico,324990,43.625542,-79.477242,#311 - 80 Marine Parade Dr,Toronto,M8V 0A3,M8V
408,Humber Bay Shores,679900,43.626965,-79.478485,#2007 - 16 BROOKERS LANE,Toronto,M8V 0A5,M8V
414,Humber Bay Shores,279999,43.626965,-79.478485,#1801 - 16 BROOKERS LANE,Toronto,M8V 0A5,M8V
636,Humber Bay Shores,339900,43.626965,-79.478485,#301 - 16 Brookers Lane,Toronto,M8V 0A5,M8V
907,Humber Bay Shores,299999,43.626965,-79.478485,#2810 - 16 BROOKERS LANE,Toronto,M8V 0A5,M8V
1284,Humber Bay Shores,419000,43.626965,-79.478485,#3008 - 16 Brookers Lane,Toronto,M8V 0A5,M8V
1253,Mimico,384900,43.625118,-79.478767,#103 - 60 Annie Craig Dr,Toronto,M8V 0A8,M8V
618,Mimico,359900,43.622589,-79.482445,#1509 - 2212 Lakeshore Blvd,Toronto,M8V 0A9,M8V
1032,Mimico,329990,43.622589,-79.482445,#2204 - 2212 LAKESHORE BLVD W,Toronto,M8V 0A9,M8V
425,Mimico,269900,43.621063,-79.483322,#209 - 2240 LAKE SHORE BLVD W,Toronto,M8V 0B1,M8V
1025,Mimico,399000,43.621376,-79.483429,#901 - 15 LEGION RD,Toronto,M8V 0B1,M8V
491,Mimico,329000,43.621616,-79.482918,#3405 - 2230 LAKESHORE BLVD W,Toronto,M8V 0B2,M8V
80,Mimico,320000,43.62273,-79.483192,#3601 - 2220 Lakeshore Blvd,Toronto,M8V 0C1,M8V
248,Mimico,425000,43.62273,-79.483192,#2504 - 2220 LAKE SHORE BLVD W,Toronto,M8V 0C1,M8V
420,Mimico,409900,43.62273,-79.483192,#2402 - 2220 LAKE SHORE BLVD W,Toronto,M8V 0C1,M8V
933,Mimico,418000,43.62273,-79.483192,#2309 - 2220 LAKE SHORE BLVD,Toronto,M8V 0C1,M8V
719,Mimico,417900,43.624969,-79.478081,#2109 - 59 Annie Craig Dr,Toronto,M8V 0C4,M8V
754,Humber Bay Shores,649900,43.624306,-79.480461,#2210 - 2175 Lake Shore Blvd,Toronto,M8V 1A2,M8V
282,Mimico,437888,43.622883,-79.481972,#2607 - 2200 LAKESHORE BLVD,Toronto,M8V 1A4,M8V
892,Mimico,343000,43.622883,-79.481972,#2908 - 2200 LAKE SHORE BLVD W,Toronto,M8V 1A4,M8V
1216,Mimico,339900,43.615078,-79.48938,#609 - 11 Superior Ave,Toronto,M8V 1C4,M8V
1066,Mimico,799900,43.613209,-79.492088,55 Mimico Ave,Toronto,M8V 1R3,M8V
1049,Mimico,799900,43.608631,-79.498894,70 Struthers St,Toronto,M8V 1Y1,M8V
35,Mimico,749000,43.609005,-79.496078,9 Struthers St,Toronto,M8V 1Y2,M8V
521,Mimico,685000,43.631432,-79.473564,#1909 - 1 Palace Pier Crt,Toronto,M8V 2Z6,M8V
588,Mimico,459000,43.631432,-79.473564,#2711 - 1 Palace Pier Crt,Toronto,M8V 2Z6,M8V
639,Mimico,1199000,43.631355,-79.474609,#4104 - 2045 Lake Shore Blvd,Toronto,M8V 2Z6,M8V
990,Mimico,999000,43.631355,-79.474609,#3704 - 2045 LAKE SHORE BLVD W,Toronto,M8V 2Z6,M8V
1110,Mimico,459900,43.631432,-79.473564,#309 - 1 Palace Pier Crt,Toronto,M8V 2Z6,M8V
100,Long Branch,25,43.600151,-79.526192,88 Twenty Sixth St,Toronto,M8V 3S1,M8V
195,Mimico,699995,43.62001,-79.483086,#902 - 2261 LAKE SHORE BLVD W,Toronto,M8V 3X1,M8V
1210,Mimico,359900,43.618755,-79.485359,#1012 - 2285 Lake Shore Blvd,Toronto,M8V 3X9,M8V
130,Mimico,579000,43.630383,-79.476273,#1103 - 3 Marine Parade Dr,Toronto,M8V 3Z4,M8V
717,Mimico,649000,43.630383,-79.476273,#1002 - 3 Marine Parade Dr,Toronto,M8V 3Z4,M8V
402,Mimico,545000,43.628983,-79.477852,#1509 - 2111 LAKE SHORE BLVD W,Toronto,M8V 4B2,M8V
538,Humber Bay Shores,349900,43.627644,-79.478188,#321 - 2121 Lake Shore Blvd,Toronto,M8V 4E9,M8V
697,Humber Bay Shores,529900,43.627644,-79.478188,#1807 - 2121 Lake Shore Blvd,Toronto,M8V 4E9,M8V
981,Humber Bay Shores,299000,43.629665,-79.477333,#402 - 2087 LAKE SHORE BLVD,Toronto,M8V 4G4,M8V
969,New Toronto,226900,43.601498,-79.510078,#1014 - 4 ELSINORE PATH,Toronto,M8V 4G7,M8V
1096,Long Branch,799000,43.595085,-79.531021,37 Thirty Second St,Toronto,M8W 1N4,M8W
1264,Long Branch,1249900,43.597946,-79.526306,40 Daisy Ave,Toronto,M8W 1S1,M8W
600,Alderwood,777000,43.6105,-79.55011,#37 - 619 Evans Ave,Toronto,M8W 2W6,M8W
347,Long Branch,1659888,43.591671,-79.537209,49 THIRTY SEVENTH ST,Toronto,M8W 3L7,M8W
1030,Alderwood,899900,43.597782,-79.552345,32 WESTLEIGH CRES,Toronto,M8W 3Z7,M8W
346,Long Branch,349000,43.590603,-79.544258,#408 - 3845 LAKE SHORE BLVD W,Toronto,M8W 4Y3,M8W
605,The Kingsway,439000,43.650345,-79.495689,#509 - 10 Old Mill Tr,Toronto,M8X 2Z4,M8X
393,The Kingsway,649900,43.661209,-79.508301,#Ph602 - 25 EARLINGTON AVE,Toronto,M8X 3A3,M8X
560,Mimico,435000,43.62381,-79.488022,#1305 - 155 Legion Rd,Toronto,M8Y 0A1,M8Y
944,Mimico,324900,43.62381,-79.488022,#2202 - 155 LEGION RD,Toronto,M8Y 0A1,M8Y
1168,Mimico,343000,43.62381,-79.488022,#1106 - 155 Legion Rd,Toronto,M8Y 0A1,M8Y
224,Mimico,314900,43.624207,-79.488228,#821 - 165 LEGION RD N,Toronto,M8Y 0B3,M8Y
562,Mimico,359900,43.624207,-79.488228,#2729 - 165 Legion Rd,Toronto,M8Y 0B3,M8Y
664,Mimico,459900,43.624207,-79.488228,#2630 - 165 Legion Rd,Toronto,M8Y 0B3,M8Y
747,Mimico,729900,43.624207,-79.488228,#3027 - 165 Legion Rd,Toronto,M8Y 0B3,M8Y
952,Mimico,344900,43.624207,-79.488228,#2429 - 165 LEGION RD N,Toronto,M8Y 0B3,M8Y
595,Humber Bay,649000,43.624374,-79.485542,#2208 - 90 Park Lawn Rd,Toronto,M8Y 0B6,M8Y
919,Humber Bay,377000,43.624374,-79.485542,#2209 - 90 PARK LAWN RD,Toronto,M8Y 0B6,M8Y
1050,Humber Bay,457000,43.624374,-79.485542,#2807 - 90 Park Lawn Rd,Toronto,M8Y 0B6,M8Y
1166,Humber Bay,369900,43.624073,-79.484917,#1109 - 88 Park Lawn Rd,Toronto,M8Y 0B6,M8Y
120,The Queensway,699900,43.628426,-79.49398,592 The Queensway,Toronto,M8Y 1J9,M8Y
442,The Queensway,649900,43.628426,-79.49398,592 The Queensway,Toronto,M8Y 1J9,M8Y
449,The Queensway,649900,43.628426,-79.49398,592 The Queensway,Toronto,M8Y 1J9,M8Y
1070,Sunnylea,950000,43.640625,-79.493217,19 Humber Ridge Dr,Toronto,M8Y 2A1,M8Y
1268,Sunnylea,1790000,43.635227,-79.500961,35 Grenview Blvd,Toronto,M8Y 3R9,M8Y
514,Mimico,367000,43.624401,-79.491013,#316 - 200 Manitoba St,Toronto,M8Y 3Y9,M8Y
1207,Mimico,549000,43.624485,-79.490479,#608 - 250 Manitoba St,Toronto,M8Y 4G8,M8Y
55,Mimico,309000,43.62421,-79.489449,#406 - 300 Manitoba St,Toronto,M8Y 4G9,M8Y
1013,Mimico,343000,43.62421,-79.489449,#427 - 300 MANITOBA ST,Toronto,M8Y 4G9,M8Y
563,The Queensway,479000,43.625931,-79.490524,#520 - 245 Dalesford Rd,Toronto,M8Y 4H7,M8Y
729,The Queensway,269999,43.623482,-79.516762,#804 - 1040 The Queensway Ave,Toronto,M8Z 0A7,M8Z
956,Mimico,849000,43.618263,-79.508858,414 MELROSE ST,Toronto,M8Z 1H2,M8Z
1122,Mimico,849000,43.618263,-79.508858,414 Melrose St,Toronto,M8Z 1H2,M8Z
1011,The Queensway,414900,43.625927,-79.504417,#201 - 760 THE QUEENSWAY AVE,Toronto,M8Z 1N1,M8Z
1230,The Queensway,309900,43.625927,-79.504417,##211 - 760 The Queensway,Toronto,M8Z 1N1,M8Z
518,The Queensway,799800,43.629925,-79.506195,5 Edgecroft Rd,Toronto,M8Z 2B6,M8Z
266,The Queensway,849500,43.631695,-79.510124,36 CASTLEBAR RD,Toronto,M8Z 2J6,M8Z
682,Islington - City Centre West,1400000,43.6381,-79.521408,2 Chauncey Ave,Toronto,M8Z 2Z2,M8Z
236,Mimico,778900,43.621113,-79.507195,821 B OXFORD ST,Toronto,M8Z 6C6,M8Z
392,Islington - City Centre West,420000,43.643925,-79.528885,#811 - 1 MICHAEL POWER PL,Toronto,M9A 0A3,M9A
645,Islington - City Centre West,359900,43.644081,-79.5289,#1508 - 5 Michael Power Pl,Toronto,M9A 0A3,M9A
672,Islington - City Centre West,287900,43.64397,-79.528503,#309 - 3 Michael Power Pl,Toronto,M9A 0A3,M9A
726,Islington - City Centre West,414900,43.643925,-79.528885,#903 - 1 Michael Power Pl,Toronto,M9A 0A3,M9A
885,Islington - City Centre West,319000,43.643925,-79.528885,#Ph 01 - 1 MICHAEL POWER PL,Toronto,M9A 0A3,M9A
373,Islington - City Centre West,359900,43.644325,-79.529732,#708 - 7 Michael Power Pl,Toronto,M9A 0A4,M9A
256,Islington,54900,43.648006,-79.529228,4937 DUNDAS ST W,Toronto,M9A 1B6,M9A
1181,Islington,429900,43.644779,-79.531929,#307 - 5101 Dundas St,Toronto,M9A 1C2,M9A
106,Islington,598000,43.649681,-79.530716,#305 - 9 Burnhamthorpe Cres,Toronto,M9A 1G4,M9A
1275,Princess - Rosethorn,2799000,43.657253,-79.537888,57 Bywood Dr,Toronto,M9A 1M1,M9A
1065,Princess - Rosethorn,1499900,43.657867,-79.540031,72 Great Oak Dr,Toronto,M9A 1N5,M9A
954,Thorncrest Village,2500000,43.663689,-79.533691,1 FRIARS LANE,Toronto,M9A 1R8,M9A
705,Eatonville,1799900,43.647533,-79.533516,52 Avonhurst Rd,Toronto,M9A 2G9,M9A
736,Chestnut Hills,2749900,43.654602,-79.5252,44 Nottingham Dr,Toronto,M9A 2W4,M9A
24,Humber Heights - Westmount,25,43.68417,-79.516685,#1002 - 61 Richview Rd,Toronto,M9A 4M8,M9A
576,Six Points,384900,43.644825,-79.53009,#503 - 15 Michael Power Pl,Toronto,M9A 5G4,M9A
967,Islington - City Centre West,339000,43.639202,-79.535423,#2603 - 15 VIKING LANE,Toronto,M9B 0A4,M9B
1278,Islington - City Centre West,479000,43.639202,-79.535423,#3302 - 15 Viking Lane,Toronto,M9B 0A4,M9B
376,Islington - City Centre West,549900,43.640156,-79.558861,#3 - 15 Valhalla Inn Rd,Toronto,M9B 0B3,M9B
244,Eatonville,1569000,43.635109,-79.543159,7 OVIDA AVE,Toronto,M9B 1E2,M9B
371,Islington - City Centre West,345000,43.640285,-79.559464,#904 - 1 Valhalla Inn Rd,Toronto,M9B 1S9,M9B
372,Islington - City Centre West,289900,43.640285,-79.559464,#2106 - 1 Valhalla Inn Rd,Toronto,M9B 1S9,M9B
411,Islington - City Centre West,259999,43.640293,-79.559761,#2009 - 5 VALHALLA INN RD,Toronto,M9B 1S9,M9B
724,Islington - City Centre West,325000,43.640293,-79.559761,#3105 - 5 Valhalla Inn Rd,Toronto,M9B 1S9,M9B
43,Princess Margaret,1049000,43.666405,-79.553543,143 Princess Margaret Blvd,Toronto,M9B 2Z4,M9B
1255,Eatonville,999900,43.648071,-79.542839,1 Lochway Crt,Toronto,M9B 4G4,M9B
335,Eatonville,929000,43.648678,-79.545883,124 ASHBOURNE DR,Toronto,M9B 4H8,M9B
898,Eringate - Centennial - West Deane,789000,43.660442,-79.568619,67 RABBIT LANE,Toronto,M9B 5S8,M9B
1155,Princess Margaret,1088000,43.674389,-79.554695,38 Warrender Ave,Toronto,M9B 5Z2,M9B
1213,Midtown Toronto,579900,43.667389,-79.401871,#2608 - 300 Bloor St,Toronto,M9B 6B7,M9B
368,Islington - City Centre West,589900,43.645439,-79.558334,#18 - 385 The East Mall,Toronto,M9B 6C6,M9B
756,Islington - City Centre West,420990,43.63802,-79.558617,Gibbs Road,Toronto,M9B 6E2,M9B
89,Islington - City Centre West,33,43.639355,-79.536949,#303 - 5229 Dundas St,Toronto,M9B 6L9,M9B
374,Islington - City Centre West,389900,43.609261,-79.558998,#906 - 235 Sherway Gardens Rd,Toronto,M9C 0A2,M9C
377,Islington - City Centre West,309900,43.609261,-79.558998,#2408 - 235 Sherway Gardens Rd,Toronto,M9C 0A2,M9C
415,Islington - City Centre West,309900,43.609261,-79.558998,235 Sherway Gardens Road,Toronto,M9C 0A2,M9C
484,Islington - City Centre West,389900,43.609261,-79.558998,#906 - 235 SHERWAY GARDENS RD,Toronto,M9C 0A2,M9C
870,Islington - City Centre West,400000,43.609573,-79.557335,#511 - 205 SHERWAY GARDENS RD,Toronto,M9C 0A5,M9C
946,Islington - City Centre West,369000,43.609993,-79.55748,#2803 - 215 SHERWAY GARDENS RD,Toronto,M9C 0A5,M9C
669,Islington - City Centre West,314900,43.609169,-79.558167,#2601 - 225 Sherway Gardens Rd,Toronto,M9C 0A8,M9C
293,Eatonville,289900,43.640301,-79.562302,#711 - 6 EVA RD,Toronto,M9C 0A9,M9C
474,Eatonville,289900,43.640301,-79.562302,#711 - 6 Eva Rd,Toronto,M9C 0A9,M9C
218,Eringate - Centennial - West Deane,259900,43.639858,-79.584564,#903 - 335 MILL RD,Toronto,M9C 1Y6,M9C
233,Eringate - Centennial - West Deane,419900,43.639858,-79.584564,#1101 - 335 MILL RD,Toronto,M9C 1Y6,M9C
1062,Etobicoke West Mall,724900,43.646446,-79.575134,11 Carsbrooke Rd,Toronto,M9C 3B9,M9C
520,Eringate - Centennial - West Deane,1047900,43.646442,-79.581795,49 Norbert Cres,Toronto,M9C 3J8,M9C
370,Markland Wood,415900,43.639656,-79.58271,#2303 - 820 Burnhamthorpe Rd Rd,Toronto,M9C 4W2,M9C
406,Markland Wood,424000,43.639656,-79.58271,#2305 - 820 BURNHAMTHORPE RD,Toronto,M9C 4W2,M9C
418,Eringate - Centennial - West Deane,374900,43.651314,-79.58139,#72 - 3 CENTENNIAL PARK RD,Toronto,M9C 4W8,M9C
375,Eringate - Centennial - West Deane,344888,43.655231,-79.570572,#801 - 627 The West Mall Dr,Toronto,M9C 4X5,M9C
272,Eatonville,274900,43.639694,-79.563148,#827 - 2 EVA RD,Toronto,M9C 4Z5,M9C
1196,Humber Summit,2189000,43.757645,-79.55954,39 Millwick Dr,Toronto,M9L 1Y4,M9L
939,Humber Summit,207000,43.750095,-79.567474,#218 - 2835 ISLINGTON AVE N,Toronto,M9L 2K2,M9L
945,Humber Summit,169900,43.750095,-79.567474,#914 - 2835 ISLINGTON AVE,Toronto,M9L 2K2,M9L
937,Humber Summit,633100,43.75555,-79.568619,2919 ISLINGTON AVE,Toronto,M9L 2K3,M9L
1281,Humber Summit,660000,43.759514,-79.571335,3011-13 Islington Ave,Toronto,M9L 2K9,M9L
1282,Humber Summit,660000,43.759514,-79.571335,3011-13 Islington Ave,Toronto,M9L 2K9,M9L
948,Humber Summit,150000,43.748459,-79.568283,#206 - 2825 ISLINGTON AVE,Toronto,M9L 2L2,M9L
1243,Humber Summit,919000,43.754292,-79.578156,12 Emily Ave,Toronto,M9L 2R1,M9L
202,Humber Summit,312900,43.757954,-79.557304,#5 - 175 TORYORK DR,Toronto,M9L 2Y7,M9L
1189,Humber Summit,849900,43.757954,-79.557304,#1 - 175 Toryork Dr,Toronto,M9L 2Y7,M9L
239,Emery,309000,43.747166,-79.564651,#1010 - 3043 FINCH WEST AVE,Toronto,M9M 0A6,M9M
1060,Emery,305000,43.747147,-79.564728,#1033 - 3045 Finch Ave,Toronto,M9M 0A6,M9M
865,Humberlea,669900,43.730122,-79.534042,33 BETTY NAGLE ST,Toronto,M9M 0B2,M9M
78,Humberlea,1049000,43.729229,-79.534203,9 Isaac Devins Blvd,Toronto,M9M 0C7,M9M
222,Emery,699800,43.736176,-79.544945,117 VEROBEACH BLVD,Toronto,M9M 1P8,M9M
337,Emery,579900,43.745102,-79.539406,52 FERNANDO RD,Toronto,M9M 2P6,M9M
210,Humberlea,599000,43.721088,-79.538445,3 JASMINE RD,Toronto,M9M 2P8,M9M
456,Emery,569900,43.745125,-79.540535,3369 Weston Rd,Toronto,M9M 2V6,M9M
1262,Emery,599900,43.745125,-79.540535,3369 Weston Rd,Toronto,M9M 2V6,M9M
984,Emery,80000,43.749187,-79.542702,#M4 - 3390 WESTON RD,Toronto,M9M 2X3,M9M
652,Humberlea,199900,43.731236,-79.531784,#3 - 125 Isaac Devins Blvd,Toronto,M9M 3A1,M9M
1157,Humberlea,200000,43.732304,-79.537003,#1807 - 3077 Weston Rd,Toronto,M9M 3A1,M9M
1232,Humberlea,219000,43.732304,-79.537003,#1006 - 3077 Weston Rd,Toronto,M9M 3A1,M9M
1085,Weston,329900,43.702106,-79.507637,#9 - 1947 Lawrence Ave,Toronto,M9N 1H2,M9N
884,Weston,300000,43.69976,-79.518494,#104 - 2088 LAWRENCE AVE,Toronto,M9N 1J1,M9N
123,Weston,319800,43.701572,-79.520187,#2604 - 1 King St,Toronto,M9N 1K8,M9N
599,Pelmo Park,899000,43.711338,-79.517265,62 Deerhurst Ave,Toronto,M9N 3A7,M9N
1114,Weston,449900,43.6996,-79.50972,#4 - 2009 Lawrence Ave,Toronto,M9N 3V2,M9N
369,Humber Heights - Westmount,439900,43.682999,-79.525726,#514 - 1403 Royal York Rd,Toronto,M9P 0A1,M9P
104,Humber Heights - Westmount,25,43.691578,-79.516853,2 La Rush Dr,Toronto,M9P 1S6,M9P
357,Humber Heights - Westmount,699000,43.697193,-79.52858,1 B BOWSPRIT AVE,Toronto,M9P 2A5,M9P
468,Richview,908800,43.687252,-79.539108,82 SUN ROW DR,Toronto,M9P 3J3,M9P
629,Kingsview Village,529900,43.698036,-79.546928,#403 - 2010 Islington Ave,Toronto,M9P 3T5,M9P
350,Richview,519000,43.684471,-79.565704,17 A HOBDEN PL,Toronto,M9R 1H7,M9R
11,Richview,850000,43.692314,-79.552635,40 Hawthorne Rd,Toronto,M9R 1P3,M9R
1068,Kingsview Village,99900,43.696312,-79.553864,#516 - 340 Dixon Rd,Toronto,M9R 1T1,M9R
918,Kingsview Village,229900,43.69582,-79.556328,#2009 - 370 DIXON RD,Toronto,M9R 1T2,M9R
0,Richview,999888,43.679882,-79.544266,86 Waterford Dr,Toronto,M9R 2N8,M9R
648,The Westway,309900,43.695362,-79.550705,#1206 - 11 Wincott Dr,Toronto,M9R 2R9,M9R
37,Richview,595500,43.687061,-79.571083,26 Waterbury Dr,Toronto,M9R 3X6,M9R
1192,Richview,479900,43.677921,-79.556534,#607 - 140 Widdicombe Hill Blvd,Toronto,M9R 4B3,M9R
345,Kingsview Village,225000,43.695709,-79.557632,#1614 - 390 DIXON RD,Toronto,M9R 4B9,M9R
941,Rexdale,129900,43.741695,-79.584373,1530 ALBION RD,Toronto,M9V 1B4,M9V
869,Rexdale,299000,43.744255,-79.604622,#30 - 1770 ALBION RD W,Toronto,M9V 1C1,M9V
254,Rexdale,200000,43.73354,-79.592949,#27 - 242 JOHN GARLAND BLVD,Toronto,M9V 1N8,M9V
450,Rexdale,195900,43.73354,-79.592949,##11 - 242 John Garland Blvd,Toronto,M9V 1N8,M9V
1219,Rexdale,639900,43.739422,-79.584854,57 Kendleton Dr,Toronto,M9V 1T9,M9V
535,Rexdale,549900,43.739346,-79.575073,239 Taysham Cres,Toronto,M9V 1X8,M9V
506,Rexdale,599900,43.751724,-79.590424,145 Silverstone Dr,Toronto,M9V 3G8,M9V
598,Silverstone,699900,43.745613,-79.600151,389 Silverstone Dr,Toronto,M9V 3K2,M9V
903,Silverstone,429900,43.74168,-79.598206,#68 - 464 SILVERSTONE DR,Toronto,M9V 3K8,M9V
904,Rexdale,139995,43.747498,-79.583305,#604 - 2645 KIPLING AVE,Toronto,M9V 3S6,M9V
924,Rexdale,314900,43.736019,-79.600555,#113 - 127 WESTMORE DR,Toronto,M9V 3Y6,M9V
211,Rexdale,59500,43.747585,-79.579842,#809 - 40 PANORAMA CRT,Toronto,M9V 4M1,M9V
531,Rexdale,45000,43.747585,-79.579842,#408 - 40 Panorama Crt,Toronto,M9V 4M1,M9V
1109,Rexdale,539900,43.755604,-79.606697,78 Provence Tr,Toronto,M9V 5A4,M9V
624,Rexdale,259999,43.75901,-79.588539,#1510 - 10 Markbrook Lane,Toronto,M9V 5E3,M9V
1183,Rexdale,189900,43.75848,-79.586617,#1810 - 41 Markbrook Lane,Toronto,M9V 5E6,M9V
110,Rexdale,254900,43.759262,-79.585342,#1605 - 61 Markbrook Lane,Toronto,M9V 5E7,M9V
628,Rexdale,289900,43.750534,-79.581467,#1705 - 3 Rowntree Rd,Toronto,M9V 5G8,M9V
69,Rexdale,319901,43.74955,-79.58075,#707 - 5 Rowntree Rd,Toronto,M9V 5G9,M9V
1012,Rexdale,689500,43.717667,-79.552467,39 RINGWAY CRES,Toronto,M9W 1X2,M9W
891,Rexdale,659900,43.717579,-79.566345,7 CLEARBROOKE CIRC,Toronto,M9W 2E2,M9W
668,Rexdale,629000,43.719517,-79.563904,40 Clearbrooke Circ,Toronto,M9W 2E4,M9W
689,Rexdale,629900,43.722485,-79.563148,121 Clearbrooke Circ,Toronto,M9W 2E9,M9W
572,The Elms,299900,43.728195,-79.549736,#885 - 36 Tandridge Cres,Toronto,M9W 2N7,M9W
343,Rexdale,349900,43.724998,-79.559105,#32 - 83 IRWIN RD,Toronto,M9W 2P8,M9W
553,Rexdale,664900,43.723648,-79.589729,56 Millview Cres,Toronto,M9W 3K5,M9W
21,Rexdale,549900,43.726189,-79.582047,47 Waterbeach Cres,Toronto,M9W 3L9,M9W
470,Rexdale,609900,43.727604,-79.564903,7 RESTEVER GATE,Toronto,M9W 4B8,M9W
741,Rexdale,109900,43.722031,-79.543945,#912 - 236 Albion Rd,Toronto,M9W 6A6,M9W
923,Rexdale,109000,43.722031,-79.543945,# 809 - 236 ALBION RD,Toronto,M9W 6A6,M9W
1223,Rexdale,115000,43.722031,-79.543945,#902 - 236 Albion Rd,Toronto,M9W 6A6,M9W
42,Rexdale,25,43.733597,-79.608871,85 Autumn Glen Circ,Toronto,M9W 6B3,M9W
1061,Rexdale,660000,43.730843,-79.604576,8 Windwood Dr,Toronto,M9W 6E7,M9W
332,Rexdale,549900,43.731327,-79.604149,6 ALBA PL,Toronto,M9W 6G6,M9W
536,Rexdale,200199,43.73069,-79.611,#420 - 6 Humberline Dr,Toronto,M9W 6X8,M9W
297,Rexdale,239900,43.724766,-79.616486,#2316 - 700 HUMBERWOOD BLVD,Toronto,M9W 7J4,M9W
428,Rexdale,289900,43.724556,-79.616455,#1506 A - 710 HUMBERWOOD BLVD,Toronto,M9W 7J4,M9W
638,Rexdale,319900,43.724766,-79.616486,#1624 - 700 Humberwood Blvd,Toronto,M9W 7J4,M9W
712,Rexdale,324900,43.724556,-79.616455,#312 - 710 Humberwood Blvd,Toronto,M9W 7J4,M9W
