Index,AreaName,Price ($),lat,lng,Address,City
1,Richview,999888,43.679882,-79.544266,86 Waterford Dr,Toronto
2,Downtown,362000,43.651478,-79.368118,#1409 - 230 King St,Toronto
3,Old East York,1488000,43.686375,-79.328918,254A Monarch Park Ave,Toronto
4,Fairbank,25,43.691193,-79.461662,532 Caledonia Rd,Toronto
5,Wallace Emerson,113,43.664101,-79.439751,47 Armstrong Ave,Toronto
6,Old East York,599900,43.697842,-79.317368,3 Bracebridge Ave,Toronto
7,Parkdale,97,43.635578,-79.441345,#808 - 2167 Lake Shore Blvd,Toronto
8,Parkdale,49,43.635578,-79.441345,#2706 - 2167 Lake Shore Blvd,Toronto
9,Downtown,805900,43.666794,-79.388756,#710 - 1080 Bay St,Toronto
10,Midtown Toronto,97,43.662872,-79.423233,#A - 753 Shaw St,Toronto
11,Dorset Park,549900,43.749599,-79.270844,160 Jenkinson Way,Toronto
12,Richview,850000,43.692314,-79.552635,40 Hawthorne Rd,Toronto
13,Downtown,1348000,43.642578,-79.3769,#4905 - 16 Harbour St,Toronto
14,Hillcrest Village,129,43.79948,-79.357445,166 Mcnicoll Ave,Toronto
15,Morningside,675000,43.788639,-79.207932,430 Military Tr,Toronto
16,St. Andrew - Windfields,113,43.759003,-79.392075,67 Montressor Dr,Toronto
17,Bayview Woods - Steeles,49,43.799358,-79.377914,46 Bruce Farm Dr,Toronto
18,Agincourt,49,43.807091,-79.265533,#1215 - 2627 Mccowan Rd,Toronto
19,St. Clair West Village,25,43.68227,-79.44339,247 Westmount Ave,Toronto
20,Ionview,499900,43.740097,-79.273987,31 Yorkshire Rd,Toronto
21,Kennedy Park,599000,43.733814,-79.25,34 Ordway Rd,Toronto
22,Rexdale,549900,43.726189,-79.582047,47 Waterbeach Cres,Toronto
23,Tam O'Shanter,698000,43.774624,-79.298141,2 Moraine Hill Dr,Toronto
24,Woburn,145,43.769413,-79.211456,11 Mid Pines Rd,Toronto
25,Humber Heights - Westmount,25,43.68417,-79.516685,#1002 - 61 Richview Rd,Toronto
26,Tam O'Shanter - Sullivan,145,43.772118,-79.309311,20 Shrewsbury Sq,Toronto
27,Malvern,338000,43.805099,-79.21196,#18 - 170 Wickson Tr,Toronto
28,Don Valley Village,699800,43.792187,-79.365669,6 Willesden Rd,Toronto
29,Downtown,325000,43.650372,-79.382347,#2705 - 70 Temperance St,Toronto
30,Milliken,25,43.821087,-79.314796,37 Chapel Park Sq,Toronto
31,Wilson Heights,1149000,43.734875,-79.441017,49 Cadillac Ave,Toronto
32,Willowdale,25,43.757698,-79.409042,#711 - 16 Harrison Garden Blvd,Toronto
33,Downtown,97,43.6395,-79.393425,#3711 - 11 Brunel Crt,Toronto
34,Wexford - Maryvale,749900,43.742485,-79.296707,4 Danube Dr,Toronto
35,Willowdale,419000,43.779987,-79.412735,#1209 - 35 Finch Ave,Toronto
36,Mimico,749000,43.609005,-79.496078,9 Struthers St,Toronto
37,Wexford - Maryvale,649900,43.763866,-79.312263,1574 Pharmacy Ave,Toronto
38,Richview,595500,43.687061,-79.571083,26 Waterbury Dr,Toronto
39,Newtonbrook,145,43.787003,-79.441383,44 Dewlane Dr,Toronto
40,Downtown,312000,43.666897,-79.389038,#3010 - 65 St  Mary St,Toronto
41,Agincourt,709900,43.809811,-79.263359,1 Silbury Dr,Toronto
42,Dorset Park,599900,43.755791,-79.28788,1465A Birchmount Rd,Toronto
43,Rexdale,25,43.733597,-79.608871,85 Autumn Glen Circ,Toronto
44,Princess Margaret,1049000,43.666405,-79.553543,143 Princess Margaret Blvd,Toronto
45,Malvern,105,43.807106,-79.227829,#9 - 42 Pinery Tr,Toronto
46,Nortown,2888000,43.733734,-79.425026,175 Haddington Ave,Toronto
47,Flemingdon Park,279900,43.717915,-79.326309,## 911 - 5 Shady Gfwy,Toronto
48,Willowdale,299900,43.757698,-79.409042,#1805 - 16 Harrison Garden Blvd,Toronto
49,The Beach,1929000,43.668091,-79.301514,68 Kenilworth Ave,Toronto
50,Niagara,399900,43.639946,-79.416664,#1505 - 125 Western Battery Rd,Toronto
51,Woburn,25,43.759617,-79.206642,110 Kirker Ave,Toronto
52,Willowdale,3988000,43.774734,-79.405685,138 Mckee Ave,Toronto
53,Downtown,548000,43.645641,-79.392952,#2403 - 375 King St,Toronto
54,Midtown Toronto,5288000,43.691135,-79.415573,22 Strathearn Blvd,Toronto
55,Bridlewood,145,43.796768,-79.315636,5051 Finch Ave,Toronto
56,Mimico,309000,43.62421,-79.489449,#406 - 300 Manitoba St,Toronto
57,Niagara,369000,43.636837,-79.406052,#1901 - 231 Fort York Blvd,Toronto
58,Liberty Village,420000,43.638054,-79.414818,#1010 - 65 East Liberty St,Toronto
59,Downtown,33,43.640057,-79.393967,#3706 - 15 Fort York Blvd,Toronto
60,Bayview Village,429000,43.766094,-79.385582,#203 - 17 Kenaston Gdns,Toronto
61,Willowdale,559000,43.760464,-79.410248,#502 - 2 Anndale Dr,Toronto
62,Bendale,699900,43.744205,-79.262428,1060 Midland Ave,Toronto
63,Old East York,315000,43.696827,-79.293411,#701 - 3 Massey Sq,Toronto
64,Bayview Village,428000,43.769611,-79.368416,#711 - 33 Singer Crt,Toronto
65,Dorset Park,113,43.769642,-79.286133,70 Dundalk Dr,Toronto
66,Willowdale,348800,43.757408,-79.406853,#1127 - 5 Everson Dr,Toronto
67,Morningside,209900,43.786037,-79.197723,#1501 - 3050 Ellesmere Rd,Toronto
68,Midtown Toronto,989000,43.708542,-79.402115,112 Helendale Ave,Toronto
69,Downtown,445900,43.669151,-79.387375,#2004 - 21 Balmuto St,Toronto
70,Rexdale,319901,43.74955,-79.58075,#707 - 5 Rowntree Rd,Toronto
71,Downtown,25,43.660812,-79.370216,255 Seaton St,Toronto
72,Birch Cliff,699000,43.688419,-79.267677,45 Valhalla Blvd,Toronto
73,Swansea,25,43.636292,-79.470467,#917 - 103 The Queensway Ave,Toronto
74,Niagara,105,43.637207,-79.403572,#512 - 35 Bastion St,Toronto
75,Nortown,1299900,43.736374,-79.430412,102 Mcgillivray Ave,Toronto
76,Don Valley Village,41,43.78788,-79.351738,1 Axsmith Cres,Toronto
77,Henry Farm,325000,43.773922,-79.345726,#1912 - 62 Forest Manor Rd,Toronto
78,Ionview,25,43.732124,-79.275276,14 Rosemount Dr,Toronto
79,Humberlea,1049000,43.729229,-79.534203,9 Isaac Devins Blvd,Toronto
80,Woburn,25,43.773827,-79.250023,#2202 - 88 Grangeway Ave,Toronto
81,Mimico,320000,43.62273,-79.483192,#3601 - 2220 Lakeshore Blvd,Toronto
82,York Mills,145,43.749531,-79.407188,#320 - 18 William Carson Cres,Toronto
83,Scarborough Junction,179000,43.72599,-79.265015,#537 - 665 Kennedy Rd,Toronto
84,Lansing,113,43.765152,-79.412277,#2112 - 4968 Yonge St,Toronto
85,Downtown,459000,43.650372,-79.382347,#2709 - 70 Temperance St,Toronto
86,Milliken,25,43.807594,-79.28289,179 Carolbreen Sq,Toronto
87,Willowdale,409900,43.769829,-79.413467,#2708 - 5168 Yonge St,Toronto
88,Downtown,105,43.660103,-79.385086,#1003 - 763 Bay St,Toronto
89,Willowdale,580000,43.760136,-79.40789,#1905 - 17 Anndale Dr,Toronto
90,Islington - City Centre West,33,43.639355,-79.536949,#303 - 5229 Dundas St,Toronto
91,Toronto,25,43.824669,-79.274445,#1509 - 88 Alton Towers Circ,Toronto
92,Willowdale,605900,43.760464,-79.410248,#2002 - 2 Anndale Dr,Toronto
93,West Hill,25,43.76638,-79.197601,#613 - 4064 Lawrence Ave,Toronto
94,Bayview Village,105,43.769722,-79.36692,#901 - 2756 Old Leslie St,Toronto
95,Leaside,25,43.7057,-79.374969,1571-73 Bayview Ave,Toronto
96,Midtown Toronto,49,43.66571,-79.409096,#Main Fl - 454 Bloor St,Toronto
97,Leaside,97,43.7057,-79.374969,1571-73 Bayview Ave,Toronto
98,Willowdale,469900,43.765537,-79.413155,#2016 - 155 Beecroft Rd,Toronto
99,Leaside,25,43.714638,-79.35463,#403 - 35 Brian Peck Cres,Toronto
100,Willowdale,515000,43.760181,-79.408218,#1016 - 35 Bales Ave,Toronto
101,Long Branch,25,43.600151,-79.526192,88 Twenty Sixth St,Toronto
102,Downtown,438800,43.641346,-79.372421,#729 - 39 Queens Quay Way,Toronto
103,Downsview,579999,43.743221,-79.488487,22 Norman Wesley Way,Toronto
104,Birch Cliff,1790000,43.685295,-79.281013,25 Parkland Rd,Toronto
105,Humber Heights - Westmount,25,43.691578,-79.516853,2 La Rush Dr,Toronto
106,Carleton Village,699900,43.673656,-79.455894,30 Exeter St,Toronto
107,Islington,598000,43.649681,-79.530716,#305 - 9 Burnhamthorpe Cres,Toronto
108,Leslieville,1369900,43.663742,-79.324966,#Loft 2 - 2B Minto St,Toronto
109,Downtown,33,43.641346,-79.372421,#815 - 39 Queens Quay Way,Toronto
110,Niagara,25,43.638512,-79.400894,#716 - 169 Fort York Blvd,Toronto
111,Rexdale,254900,43.759262,-79.585342,#1605 - 61 Markbrook Lane,Toronto
112,Midtown Toronto,105,43.689011,-79.400002,#1 - 105 Heath St,Toronto
113,Downtown,33,43.652451,-79.388931,#514 - 210 Simcoe St,Toronto
114,Bayview Village,559999,43.767937,-79.387955,#724 - 2885 Bayview Ave,Toronto
115,Old Town,337000,43.653217,-79.368378,#402 - 323 Richmond St,Toronto
116,Riverdale,1599000,43.682064,-79.353073,90 Browning Ave,Toronto
117,Downtown,438000,43.647224,-79.391098,#3307 - 21 Widmer St,Toronto
118,Steeles,329900,43.814667,-79.326698,#1108 - 55 Bamburgh Circ,Toronto
119,Malvern,849000,43.815105,-79.217415,42 Rovinelli Rd,Toronto
120,Newtonbrook,389999,43.784409,-79.416061,#907 - 5791 Yonge St,Toronto
121,The Queensway,699900,43.628426,-79.49398,592 The Queensway,Toronto
122,Hillcrest Village,17,43.805328,-79.355812,44 Barkwood Cres,Toronto
123,Bayview Village,25,43.767746,-79.370918,#3006 - 121 Mcmahon Dr,Toronto
124,Weston,319800,43.701572,-79.520187,#2604 - 1 King St,Toronto
125,Newtonbrook,560000,43.78017,-79.418251,#713 - 15 Greenview Ave,Toronto
126,Downtown,448888,43.668777,-79.383995,#1711 - 45 Charles St,Toronto
127,Niagara,399000,43.636345,-79.404808,#2011 - 215 Fort York Blvd,Toronto
128,Downtown,704900,43.661793,-79.384506,#4004 - 21 Grenville St,Toronto
129,Downtown,389000,43.645985,-79.389938,#1310 - 8 Mercer St,Toronto
130,Newtonbrook,283000,43.780453,-79.413811,#201 - 3 Pemberton Ave,Toronto
131,Mimico,579000,43.630383,-79.476273,#1103 - 3 Marine Parade Dr,Toronto
132,Rouge,3599000,43.806259,-79.158813,61 Boydwood Lane,Toronto
133,York Mills,8995000,43.743626,-79.391846,75 Highland Cres,Toronto
134,Downtown,329000,43.654648,-79.37925,#816 - 210 Victoria St,Toronto
135,White Haven,650000,43.786873,-79.256088,17 Tineta Cres,Toronto
136,Lawrence Heights,359000,43.714592,-79.452911,#612 - 800 Lawrence Ave,Toronto
137,Casa Loma,35000,43.684158,-79.419075,#5 - 1500 Bathurst St,Toronto
138,Midtown Toronto,699000,43.676369,-79.405739,#525 - 380 MACPHERSON AVE,Toronto
139,Swansea,789900,43.636292,-79.470467,#2704 - 103 THE QUEENSWAY WAY,Toronto
140,Downtown,379000,43.640224,-79.39595,#725 - 10 CAPREOL CRT,Toronto
141,Downtown,568000,43.639782,-79.397949,#2103 - 151 DAN LECKIE WAY,Toronto
142,Leslieville,29900,43.672264,-79.321289,1453 GERRARD ST E,Toronto
143,Midtown Toronto,415000,43.674103,-79.388809,#1407 - 914 YONGE ST,Toronto
144,Downtown,1299000,43.6604,-79.379234,77 MCGILL ST,Toronto
145,Downtown,650000,43.643845,-79.391823,#307 - 20 BLUE JAYS WAY,Toronto
146,Liberty Village,388000,43.638775,-79.41626,#902 - 150 EAST LIBERTY ST,Toronto
147,Downtown,375000,43.658798,-79.384392,#511 - 44 GERRARD ST W,Toronto
148,King West Village,589900,43.63818,-79.413895,#Th6 - 6 PIRANDELLO ST,Toronto
149,Midtown Toronto,1399000,43.68544,-79.395966,48 BALMORAL AVE,Toronto
150,Midtown Toronto,2799000,43.717831,-79.395996,148 BLYTHWOOD RD,Toronto
151,Niagara,450000,43.636837,-79.406052,#432 - 231 FORT YORK BLVD,Toronto
152,Downtown,449900,43.652714,-79.3563,#N707 - 455 FRONT ST E,Toronto
153,East Danforth,397500,43.685455,-79.313133,#711 - 2055 DANFORTH AVE,Toronto
154,Wallace Emerson,939000,43.661915,-79.439941,712 BROCK AVE,Toronto
155,North Toronto,380000,43.711781,-79.39164,#319 - 900 MOUNT PLEASANT RD,Toronto
156,Downtown,565000,43.65765,-79.376762,#630 - 155 DALHOUSIE ST,Toronto
157,Niagara,349000,43.639881,-79.414192,#915 - 50 WESTERN BATTERY RD,Toronto
158,Entertainment District,573000,43.649025,-79.387138,1004 126 Simcoe Street,Toronto
159,Downtown,589000,43.652451,-79.388931,#804 - 210 SIMCOE ST,Toronto
160,Downtown,299000,43.645985,-79.389938,#202 - 8 MERCER ST,Toronto
161,Downtown,599000,43.661896,-79.38575,#4001 - 38 GRENVILLE ST,Toronto
162,Downtown,739900,43.642464,-79.375519,#411 - 10 YONGE ST,Toronto
163,Swansea,1299900,43.652039,-79.470833,#707 - 383 ELLIS PARK RD,Toronto
164,Downtown,508000,43.647942,-79.390945,#2111 - 290 ADELAIDE ST W,Toronto
165,Midtown Toronto,599000,43.708008,-79.400787,#1807 - 58 ORCHARD VIEW BLVD,Toronto
166,The Beach,2095000,43.668625,-79.296623,4 A VIOLET AVE,Toronto
167,Downtown,375000,43.667915,-79.375679,#702 - 500 SHERBOURNE ST,Toronto
168,Downtown,339000,43.660103,-79.385086,#2115 - 763 BAY ST,Toronto
169,Dufferin Grove,379900,43.660225,-79.428726,#406 - 707 DOVERCOURT RD,Toronto
170,Woodbine - Lumsden,899900,43.690174,-79.304123,82 CHISHOLM AVE,Toronto
171,Midtown Toronto,579000,43.685623,-79.409592,#616 - 6 PARKWOOD AVE,Toronto
172,Downtown,579000,43.649246,-79.375755,#414 - 22 LEADER LANE,Toronto
173,Downtown,359900,43.644932,-79.392143,#525 - 36 BLUE JAYS WAY,Toronto
174,Trinity - Bellwoods,919000,43.647694,-79.42276,6 GROVE AVE,Toronto
175,Midtown Toronto,1399000,43.70208,-79.437904,90 FAIRLEIGH CRES,Toronto
176,Downtown,1900,43.647663,-79.390419,295 Adelaide Street,Toronto
177,Leslieville,859000,43.665806,-79.334892,40 MALLON AVE W,Toronto
178,Niagara,289000,43.636345,-79.404808,#603 - 215 FORT YORK BLVD,Toronto
179,Entertainment District,560000,43.642208,-79.383728,#810 - 51 LOWER SIMCOE ST,Toronto
180,Niagara,309900,43.637035,-79.402863,#1231 - 38 GRAND MAGAZINE ST,Toronto
181,Swansea,269900,43.636173,-79.470757,#407 - 105 THE QUEENSWAY AVE,Toronto
182,Downtown,425000,43.669456,-79.387474,#2407 - 35 BALMUTO ST,Toronto
183,Downtown,395000,43.649731,-79.365303,#609 - 222 THE ESPLANADE,Toronto
184,Midtown Toronto,1399999,43.671864,-79.393814,#2 B - 36 HAZELTON AVE,Toronto
185,Liberty Village,375000,43.638775,-79.41626,#1315 - 150 EAST LIBERTY ST,Toronto
186,Downtown,420000,43.644455,-79.376534,#3614 - 18 YONGE ST,Toronto
187,Downtown,1525000,43.668617,-79.389435,#703 - 1166 BAY ST,Toronto
188,Liberty Village,379900,43.638306,-79.414787,#910 - 75 EAST LIBERTY ST,Toronto
189,Downtown,449900,43.639343,-79.399841,#2111 - 170 FORT YORK BLVD,Toronto
190,Downtown,374000,43.656807,-79.375092,#1203 - 159 DUNDAS ST E,Toronto
191,Eglinton East,699900,43.742371,-79.245285,1315 DANFORTH RD,Toronto
192,Downtown,500000,43.656715,-79.371559,#39 - 17 PEMBROKE ST,Toronto
193,Davisville,415000,43.705597,-79.397453,#3010 - 2191 YONGE ST,Toronto
194,Lambton Baby Point,404900,43.648071,-79.486664,#728 - 2 OLD MILL DR,Toronto
195,Lambton Baby Point,514900,43.648071,-79.486664,#211 - 2 OLD MILL DR,Toronto
196,Mimico,699995,43.62001,-79.483086,#902 - 2261 LAKE SHORE BLVD W,Toronto
197,Henry Farm,399000,43.775208,-79.336426,#3005 - 2015 SHEPPARD AVE E,Toronto
198,Bayview Village,349900,43.769569,-79.369514,#1606 - 19 SINGER CRT,Toronto
199,Lambton,959000,43.664501,-79.492035,129 WATSON AVE,Toronto
200,Nortown,2698000,43.734093,-79.42907,154 DUNBLAINE AVE,Toronto
201,West Hill,669000,43.760899,-79.191841,24 CORONATION DR,Toronto
202,Pleasant View,385000,43.792374,-79.336693,#210 - 165 CHEROKEE BLVD,Toronto
203,Humber Summit,312900,43.757954,-79.557304,#5 - 175 TORYORK DR,Toronto
204,Willowdale,399000,43.757988,-79.403625,#905 - 120 HARRISON GARDEN BLVD,Toronto
205,Scarborough Junction,678000,43.701309,-79.27533,93 DAIRY DR,Toronto
206,Morningside,255999,43.786823,-79.19548,#2010 - 100 MORNELLE CRT,Toronto
207,Downsview,619900,43.738079,-79.501282,195 GILTSPUR DR,Toronto
208,Toronto,352500,43.75103,-79.465858,#1016 - 55 DE BOERS DR,Toronto
209,Kingsview Village,479900,43.697365,-79.546089,#2308 - 2000 ISLINGTON AVE,Toronto
210,Dorset Park,688888,43.764812,-79.280273,#13 - 1415 KENNEDY RD,Toronto
211,Humberlea,599000,43.721088,-79.538445,3 JASMINE RD,Toronto
212,Rexdale,59500,43.747585,-79.579842,#809 - 40 PANORAMA CRT,Toronto
213,Kennedy Park,749000,43.720936,-79.254662,35 MAGNOLIA AVE,Toronto
214,Wilson Heights,294000,43.749321,-79.437149,#513 - 4200 BATHURST ST,Toronto
215,Lawrence Heights,575000,43.717735,-79.442039,#25 - 21 REPLIN RD,Toronto
216,Willowdale,1528000,43.761971,-79.397667,198 GLENDORA AVE,Toronto
217,Hillcrest Village,2000000,43.807964,-79.366913,53 ASPENWOOD DR,Toronto
218,Briar Hill - Belgravia,650000,43.694397,-79.462372,627 CALEDONIA RD,Toronto
219,Eringate - Centennial - West Deane,259900,43.639858,-79.584564,#903 - 335 MILL RD,Toronto
220,Bayview Village,524888,43.767937,-79.387955,#730 - 2885 BAYVIEW AVE,Toronto
221,Eglinton East,699800,43.743881,-79.231148,124 GREENWICH SQ,Toronto
222,Agincourt,293900,43.779205,-79.281517,#2813 - 181 VILLAGE GREEN SQ,Toronto
223,Emery,699800,43.736176,-79.544945,117 VEROBEACH BLVD,Toronto
224,Jane and Finch,399900,43.738815,-79.51902,43 JOHN CABOT WAY,Toronto
225,Mimico,314900,43.624207,-79.488228,#821 - 165 LEGION RD N,Toronto
226,Bendale,639000,43.764198,-79.241608,63 JARWICK DR,Toronto
227,L'Amoreaux,699000,43.809433,-79.324379,22 MOSSBROOK CRES,Toronto
228,Steeles,699900,43.818989,-79.325394,92 FRANK RIVERS DR,Toronto
229,Malvern,549000,43.81366,-79.234749,90 CRITTENDEN SQ,Toronto
230,Willowdale,418888,43.760464,-79.410248,#1304 - 2 ANNDALE DR,Toronto
231,Brookhaven - Amesbury,599900,43.695271,-79.497498,45 MILLENNIUM DR,Toronto
232,Bayview Village,529000,43.788269,-79.368301,6 WOODY VINEWAY WAY,Toronto
233,Pleasant View,599000,43.780949,-79.339569,84 MUIRHEAD RD,Toronto
234,Eringate - Centennial - West Deane,419900,43.639858,-79.584564,#1101 - 335 MILL RD,Toronto
235,Woburn,355000,43.780956,-79.249779,#2611 - 88 CORPORATE DR,Toronto
236,Woodbine Gardens,665000,43.703903,-79.295723,114 MEIGHEN AVE,Toronto
237,Mimico,778900,43.621113,-79.507195,821 B OXFORD ST,Toronto
238,Victoria Village,1388800,43.728958,-79.315933,132 ELVASTON DR,Toronto
239,Willowdale,299000,43.765537,-79.413155,#2102 - 155 BEECROFT RD,Toronto
240,Emery,309000,43.747166,-79.564651,#1010 - 3043 FINCH WEST AVE,Toronto
241,Newtonbrook,1599000,43.793625,-79.387253,571 CUMMER AVE,Toronto
242,Port Union,756900,43.777721,-79.137276,31 VESSEL CRES,Toronto
243,Pleasant View,372000,43.792374,-79.336693,#109 - 165 CHEROKEE BLVD,Toronto
244,Bayview Woods - Steeles,1369000,43.788219,-79.388046,37 GEMINI RD,Toronto
245,Eatonville,1569000,43.635109,-79.543159,7 OVIDA AVE,Toronto
246,Wilson Heights,319900,43.734035,-79.447968,#E 508 - 555 WILSON AVE,Toronto
247,Newtonbrook,520000,43.780727,-79.419991,#49 - 49 HENDON AVE,Toronto
248,Willowdale,335000,43.774994,-79.413467,#1008 - 5 NORTHTOWN WAY,Toronto
249,Mimico,425000,43.62273,-79.483192,#2504 - 2220 LAKE SHORE BLVD W,Toronto
250,Steeles,381000,43.81361,-79.32341,#108 - 275 BAMBURGH CIRC,Toronto
251,Tam O'Shanter,338000,43.785805,-79.292114,#1202 - 185 BONIS AVE,Toronto
252,Newtonbrook,299000,43.780666,-79.446335,#2208 - 100 ANTIBES DR,Toronto
253,Wilson Heights,339900,43.734478,-79.446472,#509 - 525 WILSON AVE,Toronto
254,L'Amoreaux,799000,43.793324,-79.327263,80 HEPSCOTT TERR,Toronto
255,Rexdale,200000,43.73354,-79.592949,#27 - 242 JOHN GARLAND BLVD,Toronto
256,Silverthorn,829000,43.687645,-79.477287,7 LANDOUR AVE,Toronto
257,Islington,54900,43.648006,-79.529228,4937 DUNDAS ST W,Toronto
258,Midtown Toronto,1395000,43.711784,-79.43515,90 GLEN PARK AVE,Toronto
259,Steeles,269000,43.81361,-79.32341,#1210 - 275 BAMBURGH CIRC,Toronto
260,Midtown Toronto,1420000,43.688213,-79.433723,225 ATLAS AVE,Toronto
261,Birch Cliff,455000,43.701328,-79.264549,108 AYLESWORTH AVE,Toronto
262,Nortown,2388000,43.727737,-79.42942,567 MELROSE AVE,Toronto
263,Don Valley Village,669000,43.773926,-79.361595,55 LAURIE SHEPWAY WAY,Toronto
264,L'Amoreaux,599000,43.802258,-79.298607,33 PUMA DR,Toronto
265,Jane and Finch,239900,43.753849,-79.513535,#155 - 68 DRIFTWOOD AVE,Toronto
266,Jane and Finch,575000,43.74192,-79.509659,17 WHITBREAD CRES,Toronto
267,The Queensway,849500,43.631695,-79.510124,36 CASTLEBAR RD,Toronto
268,Birch Cliff,2348900,43.678131,-79.280182,92 BLANTYRE AVE,Toronto
269,Armdale,345,43.825054,-79.246819,#27 -46 - 30 IRONSIDE CRES,Toronto
270,Wilson Heights,318000,43.752892,-79.449783,#302 - 801 SHEPPARD AVE W,Toronto
271,Midtown Toronto,1148000,43.717461,-79.37886,#601 - 1888 BAYVIEW AVE,Toronto
272,Willowdale,399800,43.763969,-79.407013,#2308 - 88 SHEPPARD AVE E,Toronto
273,Eatonville,274900,43.639694,-79.563148,#827 - 2 EVA RD,Toronto
274,Downtown,401900,43.648296,-79.392952,#711 - 125 PETER ST,Toronto
275,Downtown,388800,43.652451,-79.388931,#1702 - 210 SIMCOE ST,Toronto
276,Jane and Finch,599900,43.759514,-79.491844,63 COUNCIL CRES,Toronto
277,Bayview Village,478000,43.767746,-79.370918,#1508 - 121 MCMAHON DR,Toronto
278,Lawrence Heights,357000,43.717121,-79.441757,#738 - 650 LAWRENCE AVE W,Toronto
279,Downtown,593900,43.650372,-79.382347,#3501 - 70 TEMPERANCE ST,Toronto
280,Wilson Heights,455000,43.734478,-79.446472,#108 - 525 WILSON AVE,Toronto
281,Willowdale,399000,43.765842,-79.410057,#1902 - 35 HOLLYWOOD AVE,Toronto
282,Downtown,419000,43.670372,-79.384468,#1414 - 85 BLOOR ST E,Toronto
283,Mimico,437888,43.622883,-79.481972,#2607 - 2200 LAKESHORE BLVD,Toronto
284,Dorset Park,229000,43.751743,-79.266388,#1207 - 2550 LAWRENCE AVE E,Toronto
285,Port Hope,497250,43.960762,-78.323914,#207 - 55 ANN O&#39;REILLY RD,Toronto
286,Niagara,303400,43.636345,-79.404808,#111 - 215 FORT YORK BLVD,Toronto
287,Downtown,299999,43.641788,-79.381874,#3511 - 14 YORK ST,Toronto
288,York University Heights,779000,43.76524,-79.502808,25 DELABO DR,Toronto
289,Downtown,419900,43.650372,-79.382347,#5014 - 70 TEMPERANCE ST,Toronto
290,Bayview Village,475000,43.769611,-79.368416,#3105 - 33 SINGER CRT,Toronto
291,Lansing,589000,43.760517,-79.411743,#602 - 11 BOGERT AVE,Toronto
292,Rouge,899900,43.808025,-79.189018,9 ANTELOPE DR,Toronto
293,Willowdale,2498000,43.765755,-79.433098,278 BETTY ANN DR N,Toronto
294,Eatonville,289900,43.640301,-79.562302,#711 - 6 EVA RD,Toronto
295,Downtown,378000,43.670547,-79.380585,#3103 - 28 TED ROGERS WAY,Toronto
296,Downtown,559800,43.669643,-79.380608,#2702 - 101 CHARLES ST E,Toronto
297,Newtonbrook,688000,43.778427,-79.450531,#Th 40 - 31 CONEFLOWER CRES,Toronto
298,Rexdale,239900,43.724766,-79.616486,#2316 - 700 HUMBERWOOD BLVD,Toronto
299,Willowdale,568000,43.760136,-79.40789,#1905 - 17 Anndale Dr,Toronto
300,King West Village,636000,43.642071,-79.414581,#305 - 39 Shank St,Toronto
301,Cliffcrest,599000,43.721256,-79.245033,9 Andrew Ave,Toronto
302,Little Portugal,330000,43.641529,-79.424118,#1815 - 150 Sudbury St,Toronto
303,Newtonbrook,949900,43.778614,-79.441551,23 Kenton Dr,Toronto
304,Bridlewood,229900,43.794464,-79.312782,#402 - 1250 Bridletowne Circ,Toronto
305,Willowdale,427900,43.769981,-79.411751,#302 - 28 Empress Ave,Toronto
306,Toronto,749000,43.640354,-79.426109,#514 - 25 Laidlaw St,Toronto
307,Midtown Toronto,1750000,43.718014,-79.392662,255 Blythwood Rd,Toronto
308,Niagara,299900,43.642792,-79.407196,#320 - 801 KING ST W,Toronto
309,Earlscourt,625000,43.679153,-79.457504,69 GILBERT AVE,Toronto
310,Old Town,320000,43.653194,-79.368637,#554 - 313 RICHMOND ST E,Toronto
311,Leslieville,599900,43.674438,-79.322563,359 ASHDALE AVE,Toronto
312,Downtown,519900,43.649609,-79.403625,#Th 2 - 68 CARR ST,Toronto
313,Little Italy,1098000,43.651443,-79.418373,7 HARRISON ST,Toronto
314,Downtown,479000,43.661793,-79.384506,#Ph06 - 21 GRENVILLE ST,Toronto
315,Midtown Toronto,2495000,43.692696,-79.414703,482 SPADINA RD,Toronto
316,Riverdale,539000,43.657417,-79.349815,#419 - 68 BROADVIEW AVE,Toronto
317,Leslieville,699000,43.66098,-79.330055,785 EASTERN AVE,Toronto
318,High Park North,995000,43.662804,-79.465935,152 MEDLAND ST,Toronto
319,Earlscourt,789000,43.676144,-79.443947,162 ROSEMOUNT Avenue,Toronto
320,Old Town,369900,43.653194,-79.368637,#Ph62 - 313 RICHMOND ST E,Toronto
321,Midtown Toronto,2399900,43.696072,-79.40477,737 AVENUE RD,Toronto
322,High Park North,749900,43.663395,-79.458008,17 BRAD ST,Toronto
323,Upper Beaches,799900,43.686947,-79.290451,51 BELLEVILLE ST,Toronto
324,North Toronto,1480000,43.733105,-79.393219,283 SNOWDON AVE,Toronto
325,Leslieville,799000,43.66235,-79.342567,18 NATALIE PL,Toronto
326,Midtown Toronto,1099000,43.669445,-79.39225,#808 - 110 BLOOR ST W,Toronto
327,Woodbine - Lumsden,899900,43.68996,-79.304413,80 NEWMARKET AVE,Toronto
328,Midtown Toronto,2629000,43.678749,-79.414062,34 AUSTIN TERR,Toronto
329,Agincourt,249888,43.778614,-79.281258,#2010 - 151 VILLAGE GREEN SQ,Toronto
330,West Hill,599900,43.758068,-79.191078,97 CULTRA SQ,Toronto
331,Woburn,649000,43.779556,-79.225761,1 PEGASUS TR,Toronto
332,Lansing,1288000,43.756256,-79.418388,175 FLORENCE AVE,Toronto
333,Rexdale,549900,43.731327,-79.604149,6 ALBA PL,Toronto
334,Maple Leaf,599900,43.720924,-79.483597,210 RORY RD,Toronto
335,Hillcrest Village,950000,43.793015,-79.361977,7 LEHAR CRES,Toronto
336,Eatonville,929000,43.648678,-79.545883,124 ASHBOURNE DR,Toronto
337,Woodbine Gardens,679900,43.700798,-79.297798,79 CHAPMAN AVE,Toronto
338,Emery,579900,43.745102,-79.539406,52 FERNANDO RD,Toronto
339,Highland Creek,734900,43.791893,-79.180328,42 PARADE SQ,Toronto
340,Highland Creek,699900,43.790642,-79.176041,103 FISHERY RD,Toronto
341,Victoria Village,36000,43.73098,-79.30584,#5 - 1646 VICTORIA PARK AVE,Toronto
342,Willowdale,419800,43.761501,-79.409882,#1721 - 5 SHEPPARD AVE E,Toronto
343,Don Valley Village,798000,43.773495,-79.358963,#P1 -01 - 10 BLOORVIEW PL,Toronto
344,Rexdale,349900,43.724998,-79.559105,#32 - 83 IRWIN RD,Toronto
345,Fairbank,1149000,43.693851,-79.452827,207 ENNERDALE RD,Toronto
346,Kingsview Village,225000,43.695709,-79.557632,#1614 - 390 DIXON RD,Toronto
347,Long Branch,349000,43.590603,-79.544258,#408 - 3845 LAKE SHORE BLVD W,Toronto
348,Long Branch,1659888,43.591671,-79.537209,49 THIRTY SEVENTH ST,Toronto
349,Jane and Finch,647500,43.769268,-79.526489,103 BAMFORD CRES,Toronto
350,Nortown,595000,43.739479,-79.42408,#1809 - 265 RIDLEY BLVD,Toronto
351,Richview,519000,43.684471,-79.565704,17 A HOBDEN PL,Toronto
352,Mount Dennis,499000,43.692429,-79.498917,39 COBALT ST,Toronto
353,Woburn,599999,43.761688,-79.221779,22 TOULON RD,Toronto
354,Wexford,649000,43.747566,-79.290649,11 ELLINGTON DR,Toronto
355,Scarborough Village,479000,43.743988,-79.223457,137 CONN SMYTHE DR,Toronto
356,Bendale,649900,43.753349,-79.264595,41 ARCHIBALD MEWS,Toronto
357,Downsview,519000,43.726231,-79.514557,20 HEAVITREE DR,Toronto
358,Humber Heights - Westmount,699000,43.697193,-79.52858,1 B BOWSPRIT AVE,Toronto
359,St. Andrew - Windfields,2498000,43.745895,-79.397919,33 MUNRO BLVD,Toronto
360,Rockcliffe - Smythe,560000,43.6833,-79.484657,30 BUSHEY AVE,Toronto
361,Tam O'Shanter,499900,43.7897,-79.30526,#17 - 671 HUNTINGWOOD DR,Toronto
362,Toronto,299000,43.761047,-79.410904,#335 - 4750 YONGE ST,Toronto
363,Niagara,539900,43.636963,-79.404671,#279 - 209 FORT YORK BLVD,Toronto
364,Midtown Toronto,899000,43.673172,-79.389687,#1007 - 32 DAVENPORT RD,Toronto
365,Downtown,2340000,43.641247,-79.380821,#6802 - 10 YORK ST,Toronto
366,Willowdale,457000,43.778435,-79.41333,#605 - 18 HOLMES AVE,Toronto
367,Willowdale,419900,43.778015,-79.416656,#1908 - 23 LORRAINE DR,Toronto
368,Downtown,695000,43.646873,-79.371078,#1904 - 1 MARKET ST,Toronto
369,Islington - City Centre West,589900,43.645439,-79.558334,#18 - 385 The East Mall,Toronto
370,Humber Heights - Westmount,439900,43.682999,-79.525726,#514 - 1403 Royal York Rd,Toronto
371,Markland Wood,415900,43.639656,-79.58271,#2303 - 820 Burnhamthorpe Rd Rd,Toronto
372,Islington - City Centre West,345000,43.640285,-79.559464,#904 - 1 Valhalla Inn Rd,Toronto
373,Islington - City Centre West,289900,43.640285,-79.559464,#2106 - 1 Valhalla Inn Rd,Toronto
374,Islington - City Centre West,359900,43.644325,-79.529732,#708 - 7 Michael Power Pl,Toronto
375,Islington - City Centre West,389900,43.609261,-79.558998,#906 - 235 Sherway Gardens Rd,Toronto
376,Eringate - Centennial - West Deane,344888,43.655231,-79.570572,#801 - 627 The West Mall Dr,Toronto
377,Islington - City Centre West,549900,43.640156,-79.558861,#3 - 15 Valhalla Inn Rd,Toronto
378,Islington - City Centre West,309900,43.609261,-79.558998,#2408 - 235 Sherway Gardens Rd,Toronto
379,Willowdale,449800,43.757233,-79.404686,#1520 - 100 Harrison Garden Blvd,Toronto
380,Midtown Toronto,529000,43.670319,-79.394432,#1217 - 155 YORKVILLE AVE,Toronto
381,Niagara,389900,43.63966,-79.415771,#705 - 100 WESTERN BATTERY RD,Toronto
382,Niagara,379900,43.63966,-79.415771,#1102 - 100 WESTERN BATTERY RD,Toronto
383,Midtown Toronto,789800,43.708694,-79.394318,#603 - 141 ROEHAMPTON AVE,Toronto
384,Downtown,989000,43.64613,-79.375778,#1205 - 8 THE ESPLANADE AVE,Toronto
385,Niagara,449900,43.639946,-79.416664,#1611 - 125 WESTERN BATTERY RD,Toronto
386,Midtown Toronto,359000,43.676369,-79.405739,#225 - 380 MACPHERSON AVE,Toronto
387,Dufferin Grove,259000,43.660225,-79.428726,#415 - 707 DOVERCOURT RD,Toronto
388,Mount Pleasant West,467000,43.711609,-79.3955,#314 - 101 ERSKINE AVE,Toronto
389,Midtown Toronto,599900,43.683372,-79.418686,#1105 - 500 ST CLAIR AVE W,Toronto
390,Entertainment District,329900,43.640247,-79.392395,#208 - 9 SPADINA AVE,Toronto
391,Entertainment District,318000,43.640247,-79.392395,#506 - 9 SPADINA AVE,Toronto
392,Midtown Toronto,444900,43.670319,-79.394432,#3011 - 155 YORKVILLE AVE,Toronto
393,Islington - City Centre West,420000,43.643925,-79.528885,#811 - 1 MICHAEL POWER PL,Toronto
394,The Kingsway,649900,43.661209,-79.508301,#Ph602 - 25 EARLINGTON AVE,Toronto
395,Etobicoke West Mall,299000,43.651909,-79.569687,#1406 - 551 THE WEST MALL RD,Toronto
396,Scarborough Village,249900,43.744297,-79.209541,#104 - 50 SCARBOROUGH GOLF CLUB RD,Toronto
397,Henry Farm,285000,43.769733,-79.345482,#1409 - 10 PARKWAY FOREST DR,Toronto
398,Don Valley Village,549000,43.791603,-79.354248,#3108 - 3303 DON MILLS RD,Toronto
399,Willowdale,400900,43.757233,-79.404686,#1405 - 100 HARRISON GARDEN BLVD,Toronto
400,St. Andrew - Windfields,529900,43.76083,-79.387207,#606 - 96 FIFESHIRE RD,Toronto
401,Clairlea - Birchmount,779000,43.705589,-79.275879,#3 - 80 BELL ESTATE RD E,Toronto
402,York Mills,354000,43.749531,-79.407188,#801 - 18 WILLIAM CARSON CRES,Toronto
403,Mimico,545000,43.628983,-79.477852,#1509 - 2111 LAKE SHORE BLVD W,Toronto
404,Agincourt,378000,43.777565,-79.281006,#2324 - 135 VILLAGE GREEN SQ,Toronto
405,Agincourt,383000,43.778614,-79.281258,#907 - 151 VILLAGE GREEN SQ,Toronto
406,Willowdale,269900,43.756371,-79.408394,#1511 - 30 HARRISON GARDEN BLVD,Toronto
407,Markland Wood,424000,43.639656,-79.58271,#2305 - 820 BURNHAMTHORPE RD,Toronto
408,Highland Creek,1174900,43.791302,-79.158119,#Block - 6443 KINGSTON RD,Toronto
409,Humber Bay Shores,679900,43.626965,-79.478485,#2007 - 16 BROOKERS LANE,Toronto
410,Newtonbrook,354990,43.778614,-79.452042,#1505 - 133 TORRESDALE AVE,Toronto
411,Willowdale,368800,43.756668,-79.408623,#308 - 28 HARRISON GARDEN BLVD,Toronto
412,Islington - City Centre West,259999,43.640293,-79.559761,#2009 - 5 VALHALLA INN RD,Toronto
413,Toronto,309900,43.653225,-79.383186,#1109 - 5 SHADY GOLFWAY GLWY,Toronto
414,Scarborough Village,209900,43.744812,-79.214561,#808 - 3380 EGLINTON AVE E,Toronto
415,Humber Bay Shores,279999,43.626965,-79.478485,#1801 - 16 BROOKERS LANE,Toronto
416,Islington - City Centre West,309900,43.609261,-79.558998,235 Sherway Gardens Road,Toronto
417,Willowdale,399900,43.757233,-79.404686,#710 - 100 HARRISON GARDEN BLVD,Toronto
418,Willowdale,444000,43.757988,-79.403625,#1534 - 120 HARRISON GARDEN BLVD,Toronto
419,Eringate - Centennial - West Deane,374900,43.651314,-79.58139,#72 - 3 CENTENNIAL PARK RD,Toronto
420,Bendale,286000,43.773582,-79.258919,#1508 - 50 BRIAN HARRISON WAY,Toronto
421,Mimico,409900,43.62273,-79.483192,#2402 - 2220 LAKE SHORE BLVD W,Toronto
422,Tam O'Shanter,228000,43.780746,-79.30529,#1109 - 40 BAY MILLS BLVD,Toronto
423,Scarborough Village,299900,43.744297,-79.209541,#120 - 50 SCARBOROUGH GOLF CLUB RD,Toronto
424,Henry Farm,550000,43.774895,-79.345955,#2402 - 70 FOREST MANOR RD,Toronto
425,Englemount - Lawrence,539000,43.721115,-79.430847,#808 - 2 COVINGTON RD,Toronto
426,Mimico,269900,43.621063,-79.483322,#209 - 2240 LAKE SHORE BLVD W,Toronto
427,Bayview Village,324800,43.768475,-79.381607,#523 - 650 SHEPPARD AVE E,Toronto
428,Agincourt,970000,43.788311,-79.268082,#3107 -3- 4438 SHEPPARD AVE E,Toronto
429,Rexdale,289900,43.724556,-79.616455,#1506 A - 710 HUMBERWOOD BLVD,Toronto
430,York University Heights,519000,43.750637,-79.465103,#Ph01 - 1070 SHEPPARD AVE W,Toronto
431,Flemingdon Park,354000,43.719494,-79.337746,#Lph05 - 797 DON MILLS RD,Toronto
432,Agincourt,268000,43.78344,-79.283562,#2004 - 4101 SHEPPARD AVE E,Toronto
433,Flemingdon Park,299900,43.711529,-79.322899,#301 - 60 PAVANE LINKWAY WAY,Toronto
434,The Beach,569000,43.671459,-79.295059,#15 - 2112 Queen St,Toronto
435,East Danforth,689900,43.68047,-79.321823,1 Currie Ave,Toronto
436,Downtown,499000,43.641632,-79.38205,#3010 - 12 York St,Toronto
437,Cliffcrest,699900,43.734875,-79.22728,80 Martindale Rd,Toronto
438,Maple Leaf,799000,43.720276,-79.484901,61 Rory Rd,Toronto
439,Woburn,525000,43.758507,-79.212791,26 Angora St,Toronto
440,Riverdale,899000,43.675503,-79.344292,35 Strathcona Ave,Toronto
441,Upper Beaches,899900,43.686844,-79.290771,39 Belleville St,Toronto
442,Malvern,379900,43.792198,-79.232147,#92 - 100 Burrows Hall Blvd,Toronto
443,The Queensway,649900,43.628426,-79.49398,592 The Queensway,Toronto
444,Bayview Village,1050000,43.767426,-79.37751,49 Caracas Rd,Toronto
445,Midtown Toronto,549000,43.707161,-79.393127,##1 - 108 Redpath Ave,Toronto
446,Downtown,374900,43.652714,-79.3563,#S608 - 455 Front St,Toronto
447,Bendale,499900,43.765526,-79.253128,29 Bromton Dr,Toronto
448,Downtown,748888,43.65004,-79.373352,135 King St,Toronto
449,Willowdale,419900,43.760464,-79.410248,#1006 - 2 Anndale Dr,Toronto
450,The Queensway,649900,43.628426,-79.49398,592 The Queensway,Toronto
451,Rexdale,195900,43.73354,-79.592949,##11 - 242 John Garland Blvd,Toronto
452,Downtown,649900,43.669609,-79.384773,#108 - 35 HAYDEN ST,Toronto
453,Harwood,699400,43.677654,-79.473663,435 MAYBANK AVE,Toronto
454,Niagara,349000,43.636963,-79.404671,#562 - 209 FORT YORK BLVD S,Toronto
455,Midtown Toronto,1299000,43.700653,-79.439201,39 FAIRLEIGH CRES,Toronto
456,Kennedy Park,628000,43.726383,-79.270432,114 Roebuck Dr,Toronto
457,Emery,569900,43.745125,-79.540535,3369 Weston Rd,Toronto
458,Bathurst Manor,998000,43.758739,-79.452705,170 ELDER ST,Toronto
459,Milliken,699900,43.81181,-79.282883,104 Homedale Dr,Toronto
460,Scarborough Village,698000,43.748539,-79.208725,14 Saunders Rd,Toronto
461,Rouge,465000,43.80365,-79.172356,99 Red River Cres,Toronto
462,Tam O'Shanter,788888,43.774624,-79.298141,2 Moraine Hill Dr,Toronto
463,Rouge,599000,43.800362,-79.177345,10 Sudbury Hall Dr,Toronto
464,Rouge,439000,43.802834,-79.172585,9 Red River Cres,Toronto
465,Clairlea - Birchmount,799900,43.704266,-79.293152,82 PITT AVE,Toronto
466,Wilson Heights,1399990,43.748856,-79.453499,227 REINER Road,Toronto
467,Milliken,429000,43.811077,-79.279678,# 74 - 20 BRIMWOOD BLVD,Toronto
468,Toronto,688000,43.820442,-79.263741,80 VALLEY STREAM DR,Toronto
469,Richview,908800,43.687252,-79.539108,82 SUN ROW DR,Toronto
470,Earlscourt,599000,43.679153,-79.457504,69 GILBERT AVE,Toronto
471,Rexdale,609900,43.727604,-79.564903,7 RESTEVER GATE,Toronto
472,Midtown Toronto,1179000,43.687832,-79.436775,135 CEDRIC AVE,Toronto
473,Bayview Village,312900,43.765289,-79.382339,#813 - 3 Rean Dr,Toronto
474,Downtown,389900,43.639381,-79.384064,#1722 - 230 Queens Quay,Toronto
475,Eatonville,289900,43.640301,-79.562302,#711 - 6 Eva Rd,Toronto
476,Agincourt,868888,43.794025,-79.285156,39 Stainforth Dr,Toronto
477,Downtown,1699000,43.655937,-79.393402,33 BALDWIN ST,Toronto
478,Downtown,539900,43.661045,-79.38166,1404 25 Carlton Street,Toronto
479,West Hill,675000,43.773659,-79.196533,127 WEIR CRES,Toronto
480,West Hill,469500,43.765007,-79.19281,60 IGNATIUS LANE,Toronto
481,Newtonbrook,1599000,43.789005,-79.432106,159 GOULDING AVE,Toronto
482,Toronto,698800,43.820442,-79.263741,80 VALLEY STREAM DR,Toronto
483,Clairlea - Birchmount,629000,43.702591,-79.272026,19 LILY CUP AVE,Toronto
484,Milliken,319000,43.800648,-79.307007,#1709 - 45 SILVER SPRINGS BLVD,Toronto
485,Islington - City Centre West,389900,43.609261,-79.558998,#906 - 235 SHERWAY GARDENS RD,Toronto
486,Downtown,461000,43.640816,-79.395538,#1505 - 25 Capreol Crt,Toronto
487,Lansing,778800,43.755135,-79.410789,25 Linelle St,Toronto
488,Dorset Park,599000,43.752731,-79.277641,209 Ellendale Dr,Toronto
489,Downtown,335000,43.645641,-79.392952,#3001 - 375 KING ST W,Toronto
490,Downtown,539900,43.661102,-79.382103,#3902 - 21 CARLTON ST,Toronto
491,L'Amoreaux,775999,43.816643,-79.333656,71 GLENCOYNE CRES,Toronto
492,Mimico,329000,43.621616,-79.482918,#3405 - 2230 LAKESHORE BLVD W,Toronto
493,Niagara,499999,43.641571,-79.412743,#104 - 915 KING ST W,Toronto
494,Midtown Toronto,2349000,43.696522,-79.415451,4 BROWSIDE AVE,Toronto
495,Wallace Emerson,899900,43.665096,-79.439278,25 MILLICENT Street,Toronto
496,Lambton,799999,43.663452,-79.490456,560 JANE ST,Toronto
497,Toronto,769000,43.827942,-79.273911,64 SEAMIST CRES,Toronto
498,Downsview,534900,43.727352,-79.511032,67 NEAMES CRES,Toronto
499,Malvern,571300,43.814308,-79.215759,1 ROVINELLI RD,Toronto
500,Henry Farm,366000,43.774746,-79.336929,#711 - 275 YORKLAND RD,Toronto
501,Rockcliffe - Smythe,549900,43.66758,-79.500061,#C - 26 C SCARLETT RD,Toronto
502,Earlscourt,598000,43.682091,-79.451126,190 NAIRN AVE,Toronto
503,Toronto,738800,43.820442,-79.263741,80 VALLEY STREAM DR,Toronto
504,Birch Cliff,1599900,43.685364,-79.280182,40 Clonmore Dr,Toronto
505,Bayview Village,1688000,43.771053,-79.387154,19 FOXWARREN DR,Toronto
506,Tam O'Shanter,339800,43.786015,-79.290237,#2515 - 238 Bonis Ave,Toronto
507,Rexdale,599900,43.751724,-79.590424,145 Silverstone Dr,Toronto
508,Newtonbrook,348800,43.780464,-79.447006,#2108 - 80 Antibes Dr,Toronto
509,Willowdale,638000,43.760464,-79.410248,#2307 - 2 Anndale Dr,Toronto
510,Downtown,468800,43.649731,-79.365303,#914 - 222 The Esplanade,Toronto
511,Leslieville,699000,43.66098,-79.330055,785 Eastern Ave,Toronto
512,North Toronto,1480000,43.733105,-79.393219,283 Snowdon Ave,Toronto
513,Guildwood,715000,43.743652,-79.20015,229 Catalina Dr,Toronto
514,Fairbank,499000,43.691193,-79.461662,532 Caledonia Rd,Toronto
515,Mimico,367000,43.624401,-79.491013,#316 - 200 Manitoba St,Toronto
516,Tam O'Shanter,999900,43.788258,-79.306534,9 Gablehurst Cres,Toronto
517,Dorset Park,619900,43.74728,-79.274452,1026 Kennedy Rd,Toronto
518,Rouge,559999,43.807819,-79.180832,198 Rouge River Dr,Toronto
519,The Queensway,799800,43.629925,-79.506195,5 Edgecroft Rd,Toronto
520,Willowdale,1998800,43.77861,-79.401772,208 Dunforest Ave,Toronto
521,Eringate - Centennial - West Deane,1047900,43.646442,-79.581795,49 Norbert Cres,Toronto
522,Mimico,685000,43.631432,-79.473564,#1909 - 1 Palace Pier Crt,Toronto
523,Downtown,378000,43.640381,-79.397339,#1508 - 21 Iceboat Terr,Toronto
524,King West Village,399900,43.640839,-79.415085,#106 - 60 Douro St,Toronto
525,Liberty Village,399900,43.638775,-79.41626,#3015 - 150 East Liberty St,Toronto
526,Junction Triangle,719000,43.660889,-79.447205,198 Rankin Cres,Toronto
527,Niagara,424900,43.641735,-79.41449,#411 - 1000 King St,Toronto
528,Swansea,498000,43.636292,-79.470467,#2005 - 103 The Queensway Ave,Toronto
529,Downtown,399900,43.639095,-79.386475,#3108 - 270 Queens Quay,Toronto
530,Swansea,480000,43.63913,-79.474831,#809 - 35 Ormskirk Ave,Toronto
531,Downtown,438000,43.648983,-79.365219,#721 - 65 Scadding Ave,Toronto
532,Rexdale,45000,43.747585,-79.579842,#408 - 40 Panorama Crt,Toronto
533,Woodbine Gardens,699900,43.701794,-79.303581,99 Glen Albert Dr,Toronto
534,Bridlewood,979000,43.802124,-79.328522,10 Beverly Glen Blvd,Toronto
535,Bayview Village,2495000,43.773731,-79.380814,44 Hawksbury Dr,Toronto
536,Rexdale,549900,43.739346,-79.575073,239 Taysham Cres,Toronto
537,Rexdale,200199,43.73069,-79.611,#420 - 6 Humberline Dr,Toronto
538,L'Amoreaux,1599000,43.797714,-79.295837,9 Grove Hill Dr,Toronto
539,Humber Bay Shores,349900,43.627644,-79.478188,#321 - 2121 Lake Shore Blvd,Toronto
540,Don Valley Village,338800,43.774311,-79.359085,#914 - 20 Bloorview Pl,Toronto
541,Cliffcrest,629900,43.734875,-79.22728,80 Martindale Rd,Toronto
542,Wilson Heights,999900,43.73904,-79.44236,79 De Quincy Blvd,Toronto
543,Port Union,649900,43.782429,-79.145828,27 Conference Blvd,Toronto
544,Malvern,539000,43.808029,-79.229721,58 Horseley Hill Dr,Toronto
545,Downtown,634900,43.669643,-79.380608,#1710 - 101 Charles St,Toronto
546,Dorset Park,588000,43.767147,-79.271454,#102 - 1075 Ellesmere Rd,Toronto
547,Tam O'Shanter,285000,43.785805,-79.292114,#909 - 185 Bonis Ave,Toronto
548,Midtown Toronto,495000,43.706772,-79.395233,#801 - 89 Dunfield Ave,Toronto
549,Malvern,498000,43.792122,-79.235725,#508 - 28 Rosebank Dr,Toronto
550,Woburn,529000,43.749329,-79.226715,39 Chestermere Blvd,Toronto
551,Silverthorn,589000,43.684425,-79.462715,384 Blackthorn Ave,Toronto
552,Swansea,498000,43.636292,-79.470467,#1805 - 103 The Queensway,Toronto
553,Jane and Finch,569900,43.741798,-79.508911,24 Brady Cres,Toronto
554,Rexdale,664900,43.723648,-79.589729,56 Millview Cres,Toronto
555,Wexford - Maryvale,649000,43.755215,-79.309769,1336 Pharmacy Ave,Toronto
556,Rockcliffe - Smythe,322000,43.676445,-79.505966,#807 - 250 Scarlett Rd,Toronto
557,Downtown,469900,43.642139,-79.37571,#514 - 10 Queens Quay W Quay,Toronto
558,Danforth Village,499000,43.691113,-79.291534,15 Eldon Ave,Toronto
559,Downtown,588000,43.659618,-79.379684,#804 - 44 Gerrard St,Toronto
560,Swansea,329900,43.636173,-79.470757,#1605 - 105 The Queensway Ave,Toronto
561,Mimico,435000,43.62381,-79.488022,#1305 - 155 Legion Rd,Toronto
562,Malvern,799000,43.819778,-79.211075,51 Old Finch Ave,Toronto
563,Mimico,359900,43.624207,-79.488228,#2729 - 165 Legion Rd,Toronto
564,The Queensway,479000,43.625931,-79.490524,#520 - 245 Dalesford Rd,Toronto
565,Scarborough Junction,699900,43.723095,-79.260643,65 Hart Ave,Toronto
566,Bathurst Manor,349900,43.753578,-79.448555,#504 - 778 Sheppard Ave,Toronto
567,Downtown,369900,43.64904,-79.392258,#1313 - 320 Richmond St,Toronto
568,Downtown,299800,43.655113,-79.384804,#1123A - 111 Elizabeth St,Toronto
569,Downtown,512000,43.644173,-79.38942,#808 - 300 Front St,Toronto
570,Rockcliffe - Smythe,599900,43.680248,-79.483566,89 Cordella Ave,Toronto
571,Jane and Finch,285000,43.740059,-79.509605,#907 - 1900 Sheppard Ave,Toronto
572,Midtown Toronto,719000,43.66983,-79.414742,#204 - 31 Olive Ave,Toronto
573,The Elms,299900,43.728195,-79.549736,#885 - 36 Tandridge Cres,Toronto
574,Leslieville,747400,43.667385,-79.334412,#3 - 175 Jones Ave,Toronto
575,Liberty Village,798000,43.638306,-79.414787,#2118 - 75 East Liberty St,Toronto
576,Downtown,849000,43.639683,-79.39212,#4309 - 35 Mariner Terr,Toronto
577,Six Points,384900,43.644825,-79.53009,#503 - 15 Michael Power Pl,Toronto
578,Bayview Village,449000,43.765289,-79.382339,#708 - 3 Rean Dr,Toronto
579,St. Andrew - Windfields,2080000,43.76339,-79.382515,62 Northdale Rd,Toronto
580,Willowdale,399888,43.773746,-79.415512,#509 - 68 Canterbury Pl,Toronto
581,Downtown,489000,43.664845,-79.385933,#302 - 24 Wellesley St,Toronto
582,Downtown,1599000,43.643799,-79.399605,#1101 - 75 Portland St,Toronto
583,Leslieville,1200000,43.664089,-79.341415,#123 - 326 Carlaw Ave,Toronto
584,Leslieville,953350,43.667133,-79.334404,#8 - 169 Jones Ave,Toronto
585,Willowdale,929000,43.758667,-79.403778,#Th 28 - 9 Oakburn Cres,Toronto
586,Bridlewood,229900,43.794464,-79.312782,#611 - 1250 Bridletowne Circ,Toronto
587,Bayview Village,339900,43.767746,-79.370918,#3611 - 121 Mcmahon Dr,Toronto
588,Niagara,629000,43.636234,-79.403122,#1307T - 628 Fleet St,Toronto
589,Mimico,459000,43.631432,-79.473564,#2711 - 1 Palace Pier Crt,Toronto
590,Clairlea,1090000,43.715702,-79.286171,2 Monastery Lane,Toronto
591,North Toronto,414000,43.711781,-79.39164,#1006 - 900 Mount Pleasant Rd,Toronto
592,Earlscourt,579000,43.67762,-79.461273,142 Silverthorn Ave,Toronto
593,Downtown,399000,43.661045,-79.38166,#1611 - 25 Carlton St,Toronto
594,Midtown Toronto,785000,43.675331,-79.397125,#1607 - 170 Avenue Rd,Toronto
595,Willowdale,334800,43.779987,-79.412735,#703 - 35 Finch Ave,Toronto
596,Humber Bay,649000,43.624374,-79.485542,#2208 - 90 Park Lawn Rd,Toronto
597,Downtown,499900,43.641346,-79.372421,#431 - 39 Queens Quay St,Toronto
598,Downtown,949900,43.669643,-79.380608,#801 - 101 Charles St,Toronto
599,Silverstone,699900,43.745613,-79.600151,389 Silverstone Dr,Toronto
600,Pelmo Park,899000,43.711338,-79.517265,62 Deerhurst Ave,Toronto
601,Alderwood,777000,43.6105,-79.55011,#37 - 619 Evans Ave,Toronto
602,L'Amoreaux,1999000,43.782825,-79.323822,118 Fairglen Ave,Toronto
603,Steeles,429000,43.814667,-79.326698,#1403 - 55 Bamburgh Circ,Toronto
604,Woburn,343900,43.773685,-79.249619,#1611 - 68 Grangeway Ave,Toronto
605,L'Amoreaux,599800,43.800545,-79.299683,#11 - 40 Wayside Ave,Toronto
606,The Kingsway,439000,43.650345,-79.495689,#509 - 10 Old Mill Tr,Toronto
607,York University Heights,499900,43.765209,-79.500168,#22 - 365 Murray Ross Pkwy,Toronto
608,Downtown,399888,43.652222,-79.370872,#1308 - 105 George St,Toronto
609,Downtown,332000,43.638477,-79.397987,#2910 - 75 Queens Wharf Rd,Toronto
610,Downtown,385000,43.649597,-79.388489,#503 - 199 Richmond St,Toronto
611,Dufferin Grove,449800,43.64962,-79.423973,#405 - 1238 Dundas St,Toronto
612,Trinity - Bellwoods,508000,43.65464,-79.421013,#204 - 799 College St,Toronto
613,Victoria Village,1088000,43.735703,-79.312378,174 Sloane Ave,Toronto
614,Lansing,3058000,43.757053,-79.420387,212 Johnston Ave,Toronto
615,Downtown,349000,43.639381,-79.384064,#626 - 230 Queens Quay,Toronto
616,Bayview Village,316000,43.765289,-79.382339,#813 - 3 Rean Dr,Toronto
617,Nortown,1488000,43.720818,-79.425377,479 Glengarry Ave,Toronto
618,Woburn,275000,43.780956,-79.249779,#2819 - 88 Corporate Dr,Toronto
619,Mimico,359900,43.622589,-79.482445,#1509 - 2212 Lakeshore Blvd,Toronto
620,Downtown,385800,43.659824,-79.362724,#2507 - 225 Sackville St,Toronto
621,Old East York,159000,43.69614,-79.294983,#219 - 1 Massey Sq,Toronto
622,Willowdale,718800,43.776451,-79.414017,#322 - 500 Doris Ave,Toronto
623,Woodbine - Lumsden,1130000,43.693939,-79.306885,39 Crewe Ave,Toronto
624,Willowdale,325000,43.75666,-79.407364,#207 - 55 Harrison Garden Blvd,Toronto
625,Rexdale,259999,43.75901,-79.588539,#1510 - 10 Markbrook Lane,Toronto
626,Niagara,869900,43.644657,-79.411919,#10 - 850 Richmond St,Toronto
627,High Park North,2249000,43.659157,-79.464592,199 Oakmount Rd,Toronto
628,High Park North,1299000,43.659706,-79.464279,43 Hillsview Ave,Toronto
629,Rexdale,289900,43.750534,-79.581467,#1705 - 3 Rowntree Rd,Toronto
630,Kingsview Village,529900,43.698036,-79.546928,#403 - 2010 Islington Ave,Toronto
631,Newtonbrook,328000,43.788425,-79.390388,#404 - 17 Ruddington Dr,Toronto
632,Newtonbrook,468000,43.795891,-79.427124,#2205 - 10 Tangreen Crt,Toronto
633,Malvern,269000,43.809708,-79.221169,#1002 - 400 Mclevin Ave,Toronto
634,Niagara,368900,43.638512,-79.400894,#506 - 169 Fort York Blvd,Toronto
635,Midtown Toronto,345000,43.701252,-79.395897,#526 - 23 Glebe Rd,Toronto
636,Steeles,438888,43.81226,-79.324944,#1908 - 175 Bamburgh Circ,Toronto
637,Humber Bay Shores,339900,43.626965,-79.478485,#301 - 16 Brookers Lane,Toronto
638,Roncesvalles Village,1450000,43.642044,-79.438721,56 Macdonell Ave,Toronto
639,Rexdale,319900,43.724766,-79.616486,#1624 - 700 Humberwood Blvd,Toronto
640,Mimico,1199000,43.631355,-79.474609,#4104 - 2045 Lake Shore Blvd,Toronto
641,Hillcrest Village,1850000,43.806202,-79.370438,48 Rondeau Dr,Toronto
642,Newtonbrook,3288000,43.792961,-79.397667,612 Conacher Dr,Toronto
643,Agincourt,332000,43.778614,-79.281258,#1603 - 151 Village Green Sq,Toronto
644,Downtown,399900,43.648296,-79.392952,#506 - 125 Peter St,Toronto
645,Little Portugal,949000,43.647655,-79.430496,551 Dufferin St,Toronto
646,Islington - City Centre West,359900,43.644081,-79.5289,#1508 - 5 Michael Power Pl,Toronto
647,Don Valley Village,425800,43.794937,-79.352112,#2308 - 55 Skymark Dr,Toronto
648,Downtown,719000,43.669456,-79.387474,#1908 - 35 Balmuto St,Toronto
649,The Westway,309900,43.695362,-79.550705,#1206 - 11 Wincott Dr,Toronto
650,Downtown,549900,43.665749,-79.385513,#2405 - 5 St Joseph St,Toronto
651,Midtown Toronto,319000,43.689022,-79.402077,#804 - 581 Avenue Rd,Toronto
652,The Beach,611000,43.674232,-79.307144,#105 - 60 Haslett Ave,Toronto
653,Humberlea,199900,43.731236,-79.531784,#3 - 125 Isaac Devins Blvd,Toronto
654,Willowdale,389900,43.757996,-79.409592,#812 - 1 Avondale Ave,Toronto
655,Willowdale,420000,43.773746,-79.415512,#309 - 68 Canterbury Pl,Toronto
656,Bayview Village,1299000,43.788948,-79.372192,18 Bathford Cres,Toronto
657,Mount Dennis,319000,43.686134,-79.491875,#311 - 3559 Eglinton Ave,Toronto
658,Malvern,419990,43.79277,-79.229561,#134 - 150 Burrows Hall Blvd,Toronto
659,High Park North,1199000,43.655979,-79.455147,1602 Bloor St,Toronto
660,York University Heights,950000,43.764462,-79.504471,435 Murray Ross Pkwy,Toronto
661,Bathurst Manor,1420000,43.761913,-79.451271,181 Goddard St,Toronto
662,Downtown,465000,43.647224,-79.391098,#1906 - 21 Widmer St,Toronto
663,Downtown,409800,43.647224,-79.391098,#3108 - 21 Widmer St,Toronto
664,Niagara,398880,43.636837,-79.406052,#728 - 231 Fort York Blvd,Toronto
665,Mimico,459900,43.624207,-79.488228,#2630 - 165 Legion Rd,Toronto
666,Silverthorn,559900,43.686016,-79.472282,125 Trowell Ave,Toronto
667,Woburn,319000,43.78167,-79.247215,#3311 - 36 Lee Centre Dr,Toronto
668,Glen Park,1788000,43.704937,-79.462776,1209 Glencairn Ave,Toronto
669,Rexdale,629000,43.719517,-79.563904,40 Clearbrooke Circ,Toronto
670,Islington - City Centre West,314900,43.609169,-79.558167,#2601 - 225 Sherway Gardens Rd,Toronto
671,Willowdale,479800,43.769829,-79.413467,#3301 - 5168 Yonge St,Toronto
672,Downsview,339000,43.726418,-79.479942,#1012 - 15 James Finlay Way,Toronto
673,Islington - City Centre West,287900,43.64397,-79.528503,#309 - 3 Michael Power Pl,Toronto
674,St. Andrew - Windfields,3618800,43.758785,-79.396378,66 Cotswold Cres,Toronto
675,Swansea,639500,43.636818,-79.47419,#509 - 1 Ripley Ave,Toronto
676,Midtown Toronto,539000,43.672318,-79.388817,#314 - 21 Scollard St,Toronto
677,Bedford Park,2888000,43.727428,-79.410751,211 Cranbrooke Ave,Toronto
678,Downtown,898000,43.65036,-79.393578,#P311 - 25 Soho St,Toronto
679,Willowdale,484900,43.776028,-79.412056,#2209 - 18 Sommerset Way,Toronto
680,Midtown Toronto,1979000,43.691391,-79.400566,90 Lonsdale Rd,Toronto
681,Sherwood Park,2350000,43.713936,-79.396851,51B Sherwood Ave,Toronto
682,Willowdale,489900,43.778435,-79.41333,#2605 - 18 Holmes Ave,Toronto
683,Islington - City Centre West,1400000,43.6381,-79.521408,2 Chauncey Ave,Toronto
684,Little Portugal,255990,43.642391,-79.424736,#825 - 68 Abell St,Toronto
685,Midtown Toronto,449800,43.671303,-79.384689,#3708 - 8 Park Rd,Toronto
686,York University Heights,799000,43.765755,-79.496803,273 Murray Ross Pkwy,Toronto
687,Downtown,574900,43.650372,-79.382347,#2517 - 70 Temperance St,Toronto
688,Downtown,429900,43.670547,-79.380585,#2506 - 28 Ted Rogers Way,Toronto
689,Bathurst Manor,1279000,43.756145,-79.45932,253 Searle Ave,Toronto
690,Rexdale,629900,43.722485,-79.563148,121 Clearbrooke Circ,Toronto
691,Mimico,329800,43.627304,-79.476868,#335 - 58 Marine Parade Dr,Toronto
692,Lansing,598000,43.760517,-79.411743,#1907 - 11 Bogert Ave,Toronto
693,Swansea,4995000,43.644661,-79.484764,275 Riverside Dr,Toronto
694,Downtown,339000,43.638866,-79.398438,#1609 - 85 Queens Wharf Rd,Toronto
695,Downtown,419000,43.6395,-79.393425,#4901 - 11 Brunel Crt,Toronto
696,Oakwood Village,1499000,43.682838,-79.441528,298 Lauder Ave,Toronto
697,Henry Farm,400000,43.774746,-79.336929,#1110 - 275 Yorkland Rd,Toronto
698,Humber Bay Shores,529900,43.627644,-79.478188,#1807 - 2121 Lake Shore Blvd,Toronto
699,Niagara,549900,43.63641,-79.402,#1009 - 21 Grand Magazine St,Toronto
700,Downtown,549900,43.643486,-79.392303,#102 - 352 Front St,Toronto
701,Rockcliffe - Smythe,799900,43.677685,-79.472687,262 Weston Rd,Toronto
702,Agincourt,279500,43.779205,-79.281517,#516 - 181 Village Green Sq,Toronto
703,Armour Heights,1590000,43.743423,-79.426872,112 Bombay Ave,Toronto
704,Downtown,838000,43.668785,-79.384766,#2606 - 33 Charles St,Toronto
705,North Toronto,2595000,43.731457,-79.394394,178 Roslin Ave,Toronto
706,Eatonville,1799900,43.647533,-79.533516,52 Avonhurst Rd,Toronto
707,Lawrence Heights,289000,43.714592,-79.452911,#821 - 800 Lawrence Ave,Toronto
708,Downsview,348000,43.750595,-79.464058,#410 - 1060 Sheppard Ave,Toronto
709,Willowdale,349000,43.774658,-79.412415,#1109 - 88 Grandview Way,Toronto
710,Maple Leaf,1264000,43.720005,-79.475037,171 Cornelius Pkwy,Toronto
711,St. Andrew - Windfields,5800000,43.755501,-79.384239,32 Berkindale Dr,Toronto
712,Sunnyside,339900,43.636387,-79.466263,#Lph2 - 1910 Lake Shore Blvd,Toronto
713,Rexdale,324900,43.724556,-79.616455,#312 - 710 Humberwood Blvd,Toronto
714,Sunnyside,330000,43.636387,-79.466263,#Ph01 - 1910 Lake Shore Blvd,Toronto
715,York Mills,3388000,43.756172,-79.385963,2656 Bayview Ave,Toronto
716,Newtonbrook,2888800,43.791988,-79.397247,588 Conacher Dr,Toronto
717,York Mills,5998000,43.740791,-79.403267,1 Old Yonge St,Toronto
718,Mimico,649000,43.630383,-79.476273,#1002 - 3 Marine Parade Dr,Toronto
719,Downtown,458000,43.649246,-79.375755,#432 - 22 Leader Lane,Toronto
720,Mimico,417900,43.624969,-79.478081,#2109 - 59 Annie Craig Dr,Toronto
721,Riverside,1099000,43.664547,-79.348579,201 Boulton Ave,Toronto
722,Upper Beaches,799000,43.67691,-79.304825,426 Kingston Rd,Toronto
723,Kennedy Park,319900,43.724361,-79.251663,#1822 - 3 Greystone Walk Dr,Toronto
724,Maple Leaf,979900,43.713287,-79.486893,352 Maple Leaf Dr,Toronto
725,Islington - City Centre West,325000,43.640293,-79.559761,#3105 - 5 Valhalla Inn Rd,Toronto
726,Downtown,599000,43.669643,-79.380608,#416 - 101 Charles St,Toronto
727,Islington - City Centre West,414900,43.643925,-79.528885,#903 - 1 Michael Power Pl,Toronto
728,Downtown,269900,43.647514,-79.3927,#802 - 101 Peter St,Toronto
729,Downtown,629000,43.668777,-79.383995,#1901 - 45 Charles St,Toronto
730,The Queensway,269999,43.623482,-79.516762,#804 - 1040 The Queensway Ave,Toronto
731,Lawrence Park South,539900,43.707275,-79.399559,#C002 - 2300 Yonge St,Toronto
732,Downsview,179900,43.72578,-79.480759,#423 - 2737 Keele St,Toronto
733,Bayview Village,289999,43.766068,-79.382774,#307 - 8 Rean Dr,Toronto
734,Willowdale,299900,43.779659,-79.414589,#2603 - 22 Olive Ave,Toronto
735,Leaside,329900,43.701004,-79.3731,#406 - 1387 Bayview Ave,Toronto
736,Swansea,334000,43.636292,-79.470467,#2708 - 103 The Queensway Ave,Toronto
737,Chestnut Hills,2749900,43.654602,-79.5252,44 Nottingham Dr,Toronto
738,Newtonbrook,359900,43.780464,-79.447006,#Ph08 - 80 Antibes Dr,Toronto
739,Downtown,372000,43.639851,-79.382431,#604 - 218 Queens Quay,Toronto
740,Lansing,458800,43.760658,-79.41581,#2106 - 88 Sheppard Ave,Toronto
741,Downtown,748000,43.648827,-79.385551,#2702 - 180 University Ave,Toronto
742,Rexdale,109900,43.722031,-79.543945,#912 - 236 Albion Rd,Toronto
743,Thorncliffe Park,200000,43.705597,-79.345993,#119 - 45 Overlea Blvd,Toronto
744,Lansing,659000,43.760517,-79.411743,#3008 - 11 Bogert Ave,Toronto
745,Downtown,1188800,43.659534,-79.382828,#7407 - 388 Yonge St,Toronto
746,Willowdale,569000,43.760952,-79.410385,#3B - 4773 Yonge St,Toronto
747,Henry Farm,364900,43.774895,-79.345955,#1207 - 70 Forest Manor Rd,Toronto
748,Mimico,729900,43.624207,-79.488228,#3027 - 165 Legion Rd,Toronto
749,Downtown,289000,43.641632,-79.38205,#1008 - 12 York St,Toronto
750,Lawrence Heights,315000,43.715069,-79.4533,#441 - 36 Via Bagnato,Toronto
751,Downtown,589900,43.641346,-79.372421,#1020 - 39 Queens Quay,Toronto
752,Armdale,89900,43.819328,-79.253868,#209B - 80 Nashdene Rd,Toronto
753,Downtown,68888,43.639725,-79.383247,#4 - 228 Queens Quay,Toronto
754,Henry Farm,358000,43.774376,-79.346603,#2101 - 66 Forest Manor Rd,Toronto
755,Humber Bay Shores,649900,43.624306,-79.480461,#2210 - 2175 Lake Shore Blvd,Toronto
756,Willowdale,26,43.7635,-79.407814,#200C - 80 Sheppard Ave,Toronto
757,Islington - City Centre West,420990,43.63802,-79.558617,Gibbs Road,Toronto
758,Fairbank,949900,43.702934,-79.449738,1059 Briar Hill Ave,Toronto
759,Riverdale,209000,43.659657,-79.346878,798 QUEEN ST E,Toronto
760,Midtown Toronto,434900,43.670319,-79.394432,#2811 - 155 YORKVILLE AVE,Toronto
761,Leslieville,799000,43.671772,-79.334923,35 MYRTLE AVE,Toronto
762,Downtown,474900,43.645695,-79.376144,#1609 - 1 THE ESPLANADE,Toronto
763,Little Portugal,409900,43.642391,-79.424736,#917 - 68 ABELL ST,Toronto
764,Downtown,474900,43.645695,-79.376144,#1601 - 1 THE ESPLANADE,Toronto
765,Midtown Toronto,330000,43.710964,-79.379158,#401 - 600 EGLINTON AVE E,Toronto
766,Little Portugal,495000,43.642391,-79.424736,#930 - 68 ABELL ST,Toronto
767,Malvern,399000,43.793896,-79.234688,#311 - 1088 PROGRESS AVE,Toronto
768,Downtown,388000,43.640266,-79.391006,#603 - 3 NAVY WHARF CRT,Toronto
769,Downtown,272000,43.660152,-79.364891,#720 - 25 COLE ST,Toronto
770,Downtown,399000,43.640057,-79.393967,#2608 - 15 FORT YORK BLVD,Toronto
771,Wallace Emerson,119000,43.667503,-79.442085,1245 Dupont Street,Toronto
772,Little Portugal,398900,43.642563,-79.42572,#1601 - 1171 QUEEN ST W,Toronto
773,Downtown,354900,43.640526,-79.397102,#1211 - 15 ICEBOAT TERR,Toronto
774,Downtown,369900,43.664471,-79.410561,#507 - 783 BATHURST ST,Toronto
775,Davenport,499000,43.670422,-79.45005,#18 - 20 TURNTABLE CRES,Toronto
776,Downtown,375000,43.64286,-79.38073,#1211 - 65 BREMNER BLVD,Toronto
777,Downtown,538000,43.667915,-79.375679,#810 - 500 SHERBOURNE ST,Toronto
778,Downtown,459000,43.660137,-79.385872,#2108 - 770 BAY ST,Toronto
779,Toronto,299900,43.640209,-79.423943,#1115 - 20 JOE SHUSTER WAY,Toronto
780,Midtown Toronto,890000,43.687538,-79.397873,#Lph906 - 1 DEER PARK CRES,Toronto
781,Downtown,619000,43.640381,-79.397339,#3909 - 21 ICEBOAT TERR,Toronto
782,Niagara,428800,43.637432,-79.401039,#2811 - 20 BRUYERES MEWS,Toronto
783,King West Village,579900,43.642071,-79.414581,#108 - 39 SHANK ST,Toronto
784,Yonge and Lawrence,1589000,43.728615,-79.402267,23 BOWOOD AVE,Toronto
785,Downtown,499000,43.661896,-79.38575,#3206 - 38 GRENVILLE ST,Toronto
786,Downtown,539900,43.661045,-79.38166,#1404 - 25 CARLTON ST,Toronto
787,Midtown Toronto,2499000,43.710926,-79.381729,12 WALDER AVE,Toronto
788,Midtown Toronto,513000,43.701771,-79.421219,#401 - 707 EGLINTON AVE W,Toronto
789,Downtown,49000,43.652122,-79.377693,105 VICTORIA ST,Toronto
790,Downtown,469000,43.660149,-79.360886,#2107 - 170 SUMACH ST,Toronto
791,Downtown,383000,43.644699,-79.390953,#1102 - 263 WELLINGTON ST W,Toronto
792,Midtown Toronto,459000,43.708008,-79.400787,#Ph05 - 58 ORCHARD VIEW BLVD,Toronto
793,Downtown,549900,43.647381,-79.387276,#3305 - 224 KING ST W,Toronto
794,Downtown,439000,43.66544,-79.383354,#1607 - 22 WELLESLEY ST,Toronto
795,Midtown Toronto,3395000,43.714912,-79.416916,335 GLENCAIRN AVE,Toronto
796,Downtown,429000,43.670372,-79.384468,#908 - 85 BLOOR ST E,Toronto
797,Downtown,478000,43.659328,-79.382675,#3814 - 386 YONGE ST,Toronto
798,Little Portugal,305990,43.641697,-79.423431,#515 E - 36 LISGAR ST,Toronto
799,The Beach,799900,43.670467,-79.293976,65 HAMMERSMITH AVE,Toronto
800,Little Portugal,295000,43.641697,-79.423431,#710 E - 36 LISGAR ST,Toronto
801,Downtown,888000,43.64016,-79.396309,#G6 - 60 FORT YORK BLVD,Toronto
802,Midtown Toronto,879900,43.672421,-79.387032,#708 - 20 COLLIER ST,Toronto
803,Downtown,599900,43.661385,-79.380608,#1916 - 45 CARLTON ST,Toronto
804,Little Portugal,799900,43.647221,-79.426056,18 AFTON AVE,Toronto
805,Midtown Toronto,8980000,43.677525,-79.418228,82 WYCHWOOD PARK,Toronto
806,Mount Pleasant West,1355000,43.711609,-79.3955,#Gph2 - 101 ERSKINE AVE,Toronto
807,East Bayfront,2860000,43.645634,-79.362335,#1116 - 1 EDGEWATER DR,Toronto
808,Niagara,679000,43.636234,-79.403122,#1614 - 628 FLEET ST,Toronto
809,Downtown,439800,43.656731,-79.383461,#1011 - 633 BAY ST,Toronto
810,Wallace Emerson,119000,43.667503,-79.442085,1245 DUPONT ST,Toronto
811,Downtown,348888,43.638866,-79.398438,#2511 - 85 QUEENS WHARF RD,Toronto
812,Downtown,1950000,43.657051,-79.365311,300 SHUTER ST,Toronto
813,Wallace Emerson,84990,43.659683,-79.437279,1174 BLOOR ST W,Toronto
814,Midtown Toronto,3588000,43.684898,-79.375198,166 DOUGLAS DR,Toronto
815,Downtown,399900,43.63932,-79.385727,#2705 - 260 QUEENS QUAY,Toronto
816,Niagara,249900,43.63966,-79.415771,#1104 - 100 WESTERN BATTERY RD,Toronto
817,Downtown,798800,43.650082,-79.357971,#2406 - 70 DISTILLERY LANE,Toronto
818,Downtown,259000,43.660152,-79.364891,#320 - 25 COLE ST,Toronto
819,Liberty Village,509900,43.638607,-79.411858,#1204 - 51 EAST LIBERTY ST,Toronto
820,Downtown,819900,43.667671,-79.371513,#1 - 253 WELLESLEY ST E,Toronto
821,Downtown,998000,43.646809,-79.390182,#2612 - 80 JOHN ST,Toronto
822,Mount Pleasant West,1615000,43.711609,-79.3955,#Th03 - 101 ERSKINE AVE,Toronto
823,Midtown Toronto,849900,43.696033,-79.395668,#1708 - 1815 YONGE ST,Toronto
824,Entertainment District,589900,43.642208,-79.383728,#712 - 51 LOWER SIMCOE ST N,Toronto
825,Niagara,619000,43.636234,-79.403122,#2907 - 628 FLEET ST,Toronto
826,Downtown,599000,43.642509,-79.377365,#4104 - 33 BAY ST,Toronto
827,Downtown,415800,43.661896,-79.38575,#304 - 38 GRENVILLE ST,Toronto
828,Downtown,474900,43.648006,-79.396835,#1001 - 438 RICHMOND ST W,Toronto
829,Midtown Toronto,362990,43.696835,-79.393997,#506 - 68 MERTON ST,Toronto
830,Downtown,612000,43.642273,-79.372704,#527 - 29 QUEENS QUAY E,Toronto
831,Niagara,323000,43.63673,-79.400505,#511 - 600 FLEET ST,Toronto
832,Downtown,530000,43.644173,-79.38942,#1308 - 300 FRONT ST W,Toronto
833,Church and Wellesley,244900,43.66708,-79.383156,#2007 - 30 GLOUCESTER ST,Toronto
834,Wallace Emerson,619000,43.661896,-79.443748,797 LANSDOWNE AVE,Toronto
835,Downtown,1199000,43.659206,-79.369415,183 SEATON ST,Toronto
836,Downtown,375000,43.649731,-79.365303,#310 - 222 THE ESPLANADE,Toronto
837,Leslieville,649000,43.666817,-79.31765,11 RHODES AVE,Toronto
838,Midtown Toronto,7899000,43.669788,-79.391121,#608 - 10 BELLAIR ST,Toronto
839,Trinity - Bellwoods,624999,43.65094,-79.410881,194 MANNING AVE,Toronto
840,Downtown,829900,43.650604,-79.390419,11 ST PATRICKS SQ,Toronto
841,Niagara,369900,43.637035,-79.402863,#538 - 38 GRAND MAGAZINE ST,Toronto
842,East Danforth,479900,43.685455,-79.313133,#214 - 2055 DANFORTH AVENUE AVE,Toronto
843,Midtown Toronto,599000,43.672985,-79.387032,#819 - 825 CHURCH ST,Toronto
844,Downtown,385000,43.642509,-79.377365,#3405 - 33 BAY ST,Toronto
845,Niagara,549900,43.63673,-79.400505,#2801 - 600 FLEET ST,Toronto
846,Midtown Toronto,364900,43.684273,-79.41111,#14 - 338 SPADINA RD,Toronto
847,Downtown,469900,43.642139,-79.37571,#514 - 10 QUEENS QUAY W QUAY,Toronto
848,Downtown,628000,43.647224,-79.391098,#2101 - 21 WIDMER ST,Toronto
849,Midtown Toronto,374900,43.697487,-79.38855,#106 - 253 MERTON ST,Toronto
850,Midtown Toronto,75000,43.670742,-79.391388,26 BELLAIR ST,Toronto
851,Parkdale,959900,43.634659,-79.436211,108 SPRINGHURST AVE,Toronto
852,Midtown Toronto,2399900,43.696072,-79.40477,737 AVENUE RD,Toronto
853,Niagara,484900,43.636234,-79.403122,#524 - 628 FLEET ST,Toronto
854,Downtown,329000,43.643566,-79.401031,#407 - 32 STEWART ST,Toronto
855,Downtown,469000,43.647663,-79.390419,#3105 - 295 ADELAIDE ST,Toronto
856,Toronto,298500,43.640335,-79.424477,#316 - 38 JOE SHUSTER WAY,Toronto
857,High Park North,795900,43.65448,-79.467651,2601 50 Quebec Avenue,Toronto
858,Downtown,419000,43.641788,-79.381874,#2407 - 14 YORK ST,Toronto
859,Swansea,315000,43.636292,-79.470467,#518 - 103 THE QUEENSWAY BLVD,Toronto
860,Earlscourt,449000,43.680565,-79.465034,94 ROWNTREE AVE,Toronto
861,East Danforth,354900,43.685455,-79.313133,#605 - 2055 DANFORTH AVE,Toronto
862,Downtown,449900,43.652817,-79.367737,#210 - 400 ADELAIDE ST E,Toronto
863,Niagara,399900,43.637207,-79.403572,#903 - 35 BASTION ST,Toronto
864,Downtown,449900,43.645069,-79.390862,#211 - 270 WELLINGTON ST,Toronto
865,Downtown,799900,43.655689,-79.399826,#103 - 21 NASSAU ST,Toronto
866,Humberlea,669900,43.730122,-79.534042,33 BETTY NAGLE ST,Toronto
867,Old East York,1199999,43.692318,-79.291946,61 ELDON AVE,Toronto
868,Midtown Toronto,1050000,43.717461,-79.37886,#301 - 1888 BAYVIEW AVE,Toronto
869,Lambton Baby Point,799900,43.648243,-79.486626,#1105 - 1 OLD MILL DR,Toronto
870,Rexdale,299000,43.744255,-79.604622,#30 - 1770 ALBION RD W,Toronto
871,Islington - City Centre West,400000,43.609573,-79.557335,#511 - 205 SHERWAY GARDENS RD,Toronto
872,Willowdale,224800,43.75811,-79.409081,#Uph07 - 19 AVONDALE AVE,Toronto
873,Kennedy Park,319000,43.724361,-79.251663,#1531 - 3 GREYSTONE WALK DR,Toronto
874,Don Mills,289900,43.747749,-79.348656,#A209 A - 16 MALLARD RD,Toronto
875,Don Valley Village,1098000,43.785618,-79.342804,27 WADDINGTON CRES,Toronto
876,Downsview,340000,43.750595,-79.464058,#506 - 1060 SHEPPARD AVE W,Toronto
877,Wexford - Maryvale,674900,43.732147,-79.300087,924 PHARMACY AVE,Toronto
878,Woburn,630000,43.771046,-79.209915,959 BRIMORTON DR,Toronto
879,Midtown Toronto,2395000,43.71468,-79.427269,448 GLENGROVE AVE W,Toronto
880,Milliken,575000,43.800041,-79.315277,#603 - 2330 BRIDLETOWNE CIRC,Toronto
881,Flemingdon Park,229000,43.711422,-79.333313,#2107 - 725 DON MILLS RD,Toronto
882,Tam O'Shanter,499900,43.785709,-79.293724,#207 - 168 BONIS AVE,Toronto
883,Midtown Toronto,449000,43.690762,-79.437408,535 VAUGHAN RD,Toronto
884,Woodbine Gardens,82800,43.699581,-79.297829,#3 - 94 HALSEY AVE,Toronto
885,Weston,300000,43.69976,-79.518494,#104 - 2088 LAWRENCE AVE,Toronto
886,Islington - City Centre West,319000,43.643925,-79.528885,#Ph 01 - 1 MICHAEL POWER PL,Toronto
887,Henry Farm,550000,43.773922,-79.345726,#215 - 62 FOREST MANOR RD,Toronto
888,Bendale,699000,43.746624,-79.253967,26 PANMURE CRES,Toronto
889,Willowdale,628800,43.760464,-79.410248,#2011 - 2 ANNDALE DR,Toronto
890,York University Heights,759000,43.765575,-79.499489,8 MANSUR TERR,Toronto
891,Woburn,335000,43.780956,-79.249779,#708 - 88 CORPORATE DR,Toronto
892,Rexdale,659900,43.717579,-79.566345,7 CLEARBROOKE CIRC,Toronto
893,Mimico,343000,43.622883,-79.481972,#2908 - 2200 LAKE SHORE BLVD W,Toronto
894,Leaside,499000,43.714638,-79.35463,#601 - 35 BRIAN PECK CRES,Toronto
895,Jane and Finch,315000,43.764374,-79.49456,#608 - 19 FOUR WINDS DR,Toronto
896,Jane and Finch,39000,43.758179,-79.519676,#130 - 1 YORK GATE BLVD,Toronto
897,Willowdale,472000,43.756294,-79.406532,#216 - 80 HARRISON GARDEN BLVD,Toronto
898,Downsview,569900,43.738796,-79.506371,51 KANARICK Crescent,Toronto
899,Eringate - Centennial - West Deane,789000,43.660442,-79.568619,67 RABBIT LANE,Toronto
900,South Cedarbrae,599000,43.745686,-79.236183,16 RADISSON ST,Toronto
901,Birch Cliff,989000,43.698494,-79.263435,11 AYLESWORTH AVE,Toronto
902,Bridlewood,289000,43.79488,-79.313713,#311 - 10 STONEHILL CRT,Toronto
903,Scarborough Village,249500,43.742031,-79.213844,#Ph24 - 3650 KINGSTON RD,Toronto
904,Silverstone,429900,43.74168,-79.598206,#68 - 464 SILVERSTONE DR,Toronto
905,Rexdale,139995,43.747498,-79.583305,#604 - 2645 KIPLING AVE,Toronto
906,L'Amoreaux,535000,43.793533,-79.323593,324 SPRUCEWOOD CRT,Toronto
907,Jane and Finch,575000,43.742451,-79.521774,108 LAURA RD,Toronto
908,Humber Bay Shores,299999,43.626965,-79.478485,#2810 - 16 BROOKERS LANE,Toronto
909,Toronto,658000,43.823734,-79.26403,31 GREEN SPRING DR,Toronto
910,Don Valley Village,472000,43.779041,-79.35199,#35 - 10 ESTERBROOKE AVE,Toronto
911,Jane and Finch,689900,43.76384,-79.516586,12 LASKAY CRES,Toronto
912,Port Union,999900,43.790985,-79.152229,361 CENTENNIAL RD,Toronto
913,Willowdale,338800,43.776028,-79.412056,#1612 - 18 SOMMERSET WAY,Toronto
914,Bayview Village,382900,43.766087,-79.381836,#512 - 12 REAN DR,Toronto
915,Don Valley Village,428800,43.773495,-79.358963,#221 - 10 BLOORVIEW PL,Toronto
916,Newtonbrook,350000,43.781307,-79.415657,5649 YONGE ST,Toronto
917,Bayview Village,649000,43.76498,-79.383522,#Th3 - 1 REAN DR,Toronto
918,Glen Park,899000,43.708736,-79.466133,986 CALEDONIA RD,Toronto
919,Kingsview Village,229900,43.69582,-79.556328,#2009 - 370 DIXON RD,Toronto
920,Humber Bay,377000,43.624374,-79.485542,#2209 - 90 PARK LAWN RD,Toronto
921,Jane and Finch,179900,43.745918,-79.515724,#109 - 5 FRITH RD,Toronto
922,Malvern,649000,43.810703,-79.234848,5 LIGHTHALL CRES,Toronto
923,Flemingdon Park,247000,43.710075,-79.331192,#2203 - 10 SUNNY GLEN WAY,Toronto
924,Rexdale,109000,43.722031,-79.543945,# 809 - 236 ALBION RD,Toronto
925,Rexdale,314900,43.736019,-79.600555,#113 - 127 WESTMORE DR,Toronto
926,Malvern,369900,43.796494,-79.237122,#20 - 50 VERNE CRES,Toronto
927,Jane and Finch,588000,43.744061,-79.521606,149 LAURA RD,Toronto
928,Don Valley Village,389000,43.773495,-79.358963,#210 - 10 BLOORVIEW PL,Toronto
929,Woburn,259000,43.78167,-79.247215,#1512 - 36 LEE CENTRE DR,Toronto
930,Victoria Village,299000,43.724998,-79.328636,#2301 - 181 WYNFORD DR,Toronto
931,York University Heights,79988,43.781139,-79.492851,#30 - 2901 STEELES AVE W,Toronto
932,Willowdale,279600,43.778435,-79.41333,#606 - 18 HOLMES AVE,Toronto
933,Bayview Village,418000,43.769569,-79.369514,#1622 - 19 SINGER CRT,Toronto
934,Mimico,418000,43.62273,-79.483192,#2309 - 2220 LAKE SHORE BLVD,Toronto
935,Willowdale,669000,43.769665,-79.41378,#106 - 5162 YONGE ST,Toronto
936,Newtonbrook,849980,43.794113,-79.430519,34 GREEN BUSH RD,Toronto
937,Henry Farm,495000,43.774895,-79.345955,#2012 - 70 FOREST MANOR RD,Toronto
938,Humber Summit,633100,43.75555,-79.568619,2919 ISLINGTON AVE,Toronto
939,Willowdale,334900,43.779987,-79.412735,#903 - 35 FINCH AVE E,Toronto
940,Humber Summit,207000,43.750095,-79.567474,#218 - 2835 ISLINGTON AVE N,Toronto
941,Jane and Finch,343000,43.764614,-79.491989,#1109 - 1 FOUR WINDS DR,Toronto
942,Rexdale,129900,43.741695,-79.584373,1530 ALBION RD,Toronto
943,Bendale,329000,43.773582,-79.258919,#2407 - 50 BRIAN HARRISON WAY,Toronto
944,Silverthorn,499900,43.681828,-79.462662,311 SILVERTHORN AVE,Toronto
945,Mimico,324900,43.62381,-79.488022,#2202 - 155 LEGION RD,Toronto
946,Humber Summit,169900,43.750095,-79.567474,#914 - 2835 ISLINGTON AVE,Toronto
947,Islington - City Centre West,369000,43.609993,-79.55748,#2803 - 215 SHERWAY GARDENS RD,Toronto
948,York University Heights,956000,43.749916,-79.503555,12 FULWELL CRES,Toronto
949,Humber Summit,150000,43.748459,-79.568283,#206 - 2825 ISLINGTON AVE,Toronto
950,Rouge,619900,43.823277,-79.215515,92 GRISTONE CRES,Toronto
951,Rouge,650000,43.782482,-79.131035,140 MABERLEY CRES,Toronto
952,McGregor Park,699999,43.743446,-79.278091,52 LEAHANN DR,Toronto
953,Mimico,344900,43.624207,-79.488228,#2429 - 165 LEGION RD N,Toronto
954,Woodbine - Lumsden,899000,43.693295,-79.313347,238 LUMSDEN AVE,Toronto
955,Thorncrest Village,2500000,43.663689,-79.533691,1 FRIARS LANE,Toronto
956,Downsview,269900,43.726418,-79.479942,#918 - 15 JAMES FINLAY WAY,Toronto
957,Mimico,849000,43.618263,-79.508858,414 MELROSE ST,Toronto
958,York University Heights,699000,43.765301,-79.502525,17 DELABO DR,Toronto
959,Brookhaven,519000,43.699989,-79.496284,83 HEARST CIRC,Toronto
960,Victoria Village,264000,43.730324,-79.327217,#1703 - 5 CONCORDE PL,Toronto
961,Willowdale,428000,43.757988,-79.403625,#421 - 120 HARRISON GARDEN BLVD,Toronto
962,Downsview,349900,43.726418,-79.479942,#801 - 15 JAMES FINLAY WAY,Toronto
963,Bayview Village,329000,43.769569,-79.369514,#1105 - 19 SINGER CRT,Toronto
964,Newtonbrook,395000,43.780464,-79.447006,#1207 - 80 ANTIBES DR,Toronto
965,Steeles,368888,43.81361,-79.32341,#203 - 275 BAMBURGH CIRC,Toronto
966,Malvern,899000,43.815502,-79.216034,18 MIDDLEPORT CRES,Toronto
967,Wexford,849900,43.755329,-79.302849,3 PRINCEMERE CRES,Toronto
968,Islington - City Centre West,339000,43.639202,-79.535423,#2603 - 15 VIKING LANE,Toronto
969,Malvern,148000,43.803925,-79.216507,#504 - 8 SILVER BELL GRVE,Toronto
970,New Toronto,226900,43.601498,-79.510078,#1014 - 4 ELSINORE PATH,Toronto
971,Willowdale,309900,43.779163,-79.414513,#308 - 20 OLIVE AVE,Toronto
972,Jane and Finch,273900,43.765266,-79.493652,#612 - 9 FOUR WINDS DR,Toronto
973,Willowdale,609000,43.768574,-79.389618,#Th104 - 399 SPRING GARDEN AVE,Toronto
974,Midtown Toronto,2900000,43.718708,-79.421021,10 FRONTENAC AVE,Toronto
975,Lawrence Heights,348800,43.715202,-79.452354,#2406 - 770 LAWRENCE AVE W,Toronto
976,Malvern,619000,43.815937,-79.223,18 SWALLOWTAIL RD,Toronto
977,Clairlea - Birchmount,699000,43.702419,-79.274368,38 BELANGER CRES,Toronto
978,Willowdale,425000,43.771595,-79.412178,#702 - 256 DORIS AVE,Toronto
979,Roncesvalles Village,779000,43.645916,-79.441017,15 FERN AVE,Toronto
980,Bridle Path,26800000,43.735306,-79.372612,10 HIGH POINT RD,Toronto
981,Tam O'Shanter,359999,43.775997,-79.305061,#27 - 71 CASS AVE,Toronto
982,Humber Bay Shores,299000,43.629665,-79.477333,#402 - 2087 LAKE SHORE BLVD,Toronto
983,Bayview Village,235000,43.767937,-79.387955,#731 - 2885 BAYVIEW AVE,Toronto
984,Willowdale,319900,43.779163,-79.414513,#512 - 20 OLIVE AVE,Toronto
985,Emery,80000,43.749187,-79.542702,#M4 - 3390 WESTON RD,Toronto
986,Rouge,469900,43.796883,-79.154869,6 HUXTABLE LANE,Toronto
987,Bendale,292000,43.773251,-79.255272,#1703 - 50 TOWN CENTRE CRT,Toronto
988,White Haven,279900,43.791035,-79.239006,#816 - 39 KIMBERCROFT CRT,Toronto
989,Newtonbrook,1390000,43.788364,-79.398079,6 TANNER CRT,Toronto
990,Willowdale,369000,43.765537,-79.413155,#906 - 155 BEECROFT RD,Toronto
991,Mimico,999000,43.631355,-79.474609,#3704 - 2045 LAKE SHORE BLVD W,Toronto
992,Bendale,429900,43.773403,-79.254951,#2908 - 25 TOWN CENTRE CRT,Toronto
993,Henry Farm,299000,43.775208,-79.336426,#405 - 2015 SHEPPARD AVE,Toronto
994,Bendale,149000,43.751389,-79.263054,2655 LAWRENCE AVE E,Toronto
995,Little Portugal,299900,43.641697,-79.423431,#315 - 36 LISGAR ST,Toronto
996,Agincourt,129000,43.806225,-79.289284,#1 - 3290 MIDLAND AVE,Toronto
997,Port Hope,722000,43.960762,-78.323914,#Ph63 - 60 ANN O&#39;REILLY RD,Toronto
998,Agincourt,109988,43.788311,-79.268082,#238 - 4438 SHEPPARD AVE E,Toronto
999,Golden Mile,159000,43.726879,-79.28846,#8 G - 1921 EGLINTON AVE E,Toronto
1000,Willowdale,328888,43.767403,-79.410599,#601 - 188 DORIS AVE,Toronto
1001,Lawrence Heights,328000,43.714592,-79.452911,#1217 - 800 LAWRENCE AVE W,Toronto
1002,Downtown,829000,43.641788,-79.381874,#5703 - 14 YORK ST,Toronto
1003,Downtown,499900,43.64048,-79.394966,#347 - 8 TELEGRAM MEWS,Toronto
1004,Bayview Village,394900,43.767937,-79.387955,#1305 - 2885 BAYVIEW AVE,Toronto
1005,Downtown,339970,43.656807,-79.375092,#402 - 159 DUNDAS ST E,Toronto
1006,Old Town,339888,43.653217,-79.368378,#1413 - 323 RICHMOND ST E,Toronto
1007,Agincourt,299000,43.779205,-79.281517,#517 - 181 VILLAGE GREEN SQ,Toronto
1008,Willowdale,288000,43.778435,-79.41333,#902 - 18 HOLMES AVE,Toronto
1009,Agincourt,269000,43.78344,-79.283562,#705 - 4101 SHEPPARD AVE E,Toronto
1010,Downtown,688800,43.639782,-79.397949,#352 - 151 DAN LECKIE WAY,Toronto
1011,Willowdale,569000,43.769829,-79.413467,#2706 - 5168 YONGE ST,Toronto
1012,The Queensway,414900,43.625927,-79.504417,#201 - 760 THE QUEENSWAY AVE,Toronto
1013,Rexdale,689500,43.717667,-79.552467,39 RINGWAY CRES,Toronto
1014,Mimico,343000,43.62421,-79.489449,#427 - 300 MANITOBA ST,Toronto
1015,Downtown,399000,43.652817,-79.367737,#619 - 400 ADELAIDE ST E,Toronto
1016,Agincourt,258000,43.783657,-79.284416,#Ph05 - 4091 SHEPPARD AVE E,Toronto
1017,Malvern,289000,43.804581,-79.227768,#6 - 200 MCLEVIN AVE,Toronto
1018,Midtown Toronto,825000,43.673172,-79.389687,#2808 - 32 DAVENPORT RD,Toronto
1019,Parkdale,510000,43.635578,-79.441345,#2902 - 2167 LAKESHORE BLVD,Toronto
1020,Downtown,550000,43.668777,-79.383995,#4107 - 45 CHARLES ST E,Toronto
1021,Downtown,519900,43.641632,-79.38205,#4411 - 12 YORK ST,Toronto
1022,Lansing,629000,43.760303,-79.411621,#1202 - 9 BOGERT AVE,Toronto
1023,Downtown,329900,43.648296,-79.392952,#510 - 125 PETER ST,Toronto
1024,Downtown,359900,43.665104,-79.3769,#517 - 77 MAITLAND PL,Toronto
1025,Willowdale,369000,43.779659,-79.414589,#1102 - 22 OLIVE AVE,Toronto
1026,Mimico,399000,43.621376,-79.483429,#901 - 15 LEGION RD,Toronto
1027,Midtown Toronto,2898000,43.72776,-79.389961,236 LAWRENCE AVE E,Toronto
1028,Willowdale,549990,43.771309,-79.412926,#510 - 18 PARKVIEW AVE,Toronto
1029,Newtonbrook,498800,43.784409,-79.416061,#Ph102 - 5791 YONGE ST,Toronto
1030,Newtonbrook,458500,43.784409,-79.416061,#1202 - 5791 YONGE ST,Toronto
1031,Alderwood,899900,43.597782,-79.552345,32 WESTLEIGH CRES,Toronto
1032,Downtown,415000,43.65097,-79.368111,#1506 - 39 SHERBOURNE ST,Toronto
1033,Mimico,329990,43.622589,-79.482445,#2204 - 2212 LAKESHORE BLVD W,Toronto
1034,Downtown,578000,43.668777,-79.383995,#2809 - 45 CHARLES ST E,Toronto
1035,Sunnyside,389900,43.636387,-79.466263,#1203 - 1910 LAKESHORE BLVD,Toronto
1036,Downtown,417888,43.638477,-79.397987,#707 - 75 QUEENS WHARF RD,Toronto
1037,Willowdale,324900,43.777355,-79.41275,#1801 - 60 BYNG AVE,Toronto
1038,Agincourt,408000,43.779129,-79.281883,#3323 - 275 VILLAGE GREEN SQ,Toronto
1039,Eglinton East,199999,43.739429,-79.237755,2906 EGLINTON AVE,Toronto
1040,Lansing,688000,43.760303,-79.411621,#2902 - 9 BOGERT AVE,Toronto
1041,Downtown,599000,43.669643,-79.380608,#515 - 101 CHARLES ST E,Toronto
1042,Little Portugal,315990,43.641697,-79.423431,#2203 E - 36 LISGAR ST,Toronto
1043,Downtown,390900,43.643486,-79.392303,#1512 - 352 FRONT ST,Toronto
1044,Midtown Toronto,409888,43.671066,-79.401443,#504 - 212 ST. GEORGE ST,Toronto
1045,Willowdale,348000,43.777355,-79.41275,#1808 - 60 BYNG AVE,Toronto
1046,Tam O'Shanter,335000,43.786736,-79.291008,#207 - 228 BONIS AVE,Toronto
1047,Niagara,1279000,43.635521,-79.402435,#610 - 637 LAKE SHORE BLVD W,Toronto
1048,Downtown,899000,43.64613,-79.375778,#3805 - 8 The Esplanade Ave,Toronto
1049,Jane and Finch,300000,43.767052,-79.514549,#3 - 380 Driftwood Ave,Toronto
1050,Mimico,799900,43.608631,-79.498894,70 Struthers St,Toronto
1051,Humber Bay,457000,43.624374,-79.485542,#2807 - 90 Park Lawn Rd,Toronto
1052,Highland Creek,699900,43.790642,-79.176041,103 Fishery Rd,Toronto
1053,Toronto,650000,43.825737,-79.264999,95 Treetops Crt,Toronto
1054,Rouge,674900,43.783424,-79.131348,21 Wheeling Dr,Toronto
1055,Harwood,319900,43.678585,-79.478516,79 Cayuga Ave,Toronto
1056,Downtown,399000,43.66592,-79.386963,#2409 - 44 St Joseph St,Toronto
1057,Niagara,378800,43.637432,-79.401367,#Sph03 - 50 Bruyeres Mews,Toronto
1058,Parkdale,849000,43.636009,-79.427162,23 Temple Ave,Toronto
1059,Little Portugal,949000,43.649033,-79.427734,169 Beaconsfield Ave,Toronto
1060,Highland Creek,999999,43.788246,-79.17627,64 Windrush Tr,Toronto
1061,Emery,305000,43.747147,-79.564728,#1033 - 3045 Finch Ave,Toronto
1062,Rexdale,660000,43.730843,-79.604576,8 Windwood Dr,Toronto
1063,Etobicoke West Mall,724900,43.646446,-79.575134,11 Carsbrooke Rd,Toronto
1064,Brookhaven - Amesbury,699000,43.696663,-79.494972,116 Via Cassia Dr,Toronto
1065,Bendale,799000,43.749783,-79.250481,41 Gage Ave,Toronto
1066,Princess - Rosethorn,1499900,43.657867,-79.540031,72 Great Oak Dr,Toronto
1067,Mimico,799900,43.613209,-79.492088,55 Mimico Ave,Toronto
1068,Willowdale,2450000,43.765537,-79.405388,130 Spring Garden Ave,Toronto
1069,Kingsview Village,99900,43.696312,-79.553864,#516 - 340 Dixon Rd,Toronto
1070,Wexford,575000,43.754829,-79.296417,7 Willowhurst Cres,Toronto
1071,Sunnylea,950000,43.640625,-79.493217,19 Humber Ridge Dr,Toronto
1072,Malvern,144900,43.806709,-79.217133,#410 - 15 Sewells Rd,Toronto
1073,Lytton Park,4499900,43.714539,-79.416977,93 Mona Dr,Toronto
1074,Downtown,810000,43.646236,-79.383324,#1110 - 33 University Ave,Toronto
1075,Downtown,568888,43.641346,-79.372421,#1019 - 39 Queens Quay,Toronto
1076,Swansea,2950000,43.651108,-79.471924,7 Harcroft Rd,Toronto
1077,Upper Beaches,579000,43.685524,-79.294144,#130 - 2320 Gerrard St,Toronto
1078,Downtown,859000,43.651722,-79.369408,#1005 - 205 Frederick St,Toronto
1079,Cliffside,549900,43.709721,-79.255051,75 Vanbrugh Ave,Toronto
1080,Newtonbrook,349000,43.787483,-79.417862,#308 - 5940 Yonge St,Toronto
1081,West Hill,550000,43.774227,-79.187302,24 Amiens Rd,Toronto
1082,Willowdale,799000,43.76675,-79.410332,#603 - 28 Hollywood Ave,Toronto
1083,York Mills,2588000,43.757267,-79.391624,1 Toba Dr,Toronto
1084,Midtown Toronto,1179000,43.715977,-79.441673,140 Fairholme Ave,Toronto
1085,Midtown Toronto,229900,43.704834,-79.439888,#211 - 360 Ridelle Ave,Toronto
1086,Weston,329900,43.702106,-79.507637,#9 - 1947 Lawrence Ave,Toronto
1087,Ionview,519900,43.725605,-79.273972,33 Chelwood Rd,Toronto
1088,West Hill,588000,43.774265,-79.181625,4609 Kingston Rd,Toronto
1089,Bayview Village,649000,43.769485,-79.368919,#1001 - 15 Singer Crt,Toronto
1090,Rustic,1289000,43.715168,-79.503197,50 Beckett Ave,Toronto
1091,Mount Dennis,389000,43.692898,-79.506203,#201 - 56 Sidney Belsey Cres,Toronto
1092,L'Amoreaux,899000,43.822521,-79.307266,59 New Forest Sq,Toronto
1093,West Hill,669900,43.760811,-79.18306,4 Dubarry Ave,Toronto
1094,Willowdale,648880,43.775146,-79.412666,#903 - 880 Grandview Way,Toronto
1095,Don Valley Village,529800,43.779041,-79.35199,#44 - 10 Esterbrook Ave,Toronto
1096,Bendale,649900,43.753349,-79.264595,41 Archibald Mews,Toronto
1097,Long Branch,799000,43.595085,-79.531021,37 Thirty Second St,Toronto
1098,Rouge,699000,43.792217,-79.134521,326 Jaybell Grve,Toronto
1099,Birch Cliff,599000,43.694736,-79.26387,161 Harding Blvd,Toronto
1100,Port Union,529800,43.794605,-79.14389,138 Andona Cres,Toronto
1101,Pleasant View,299900,43.777275,-79.337051,#1804 - 5 Old Sheppard Ave,Toronto
1102,Downtown,885000,43.666897,-79.389038,#1702 - 65 St Mary St,Toronto
1103,Cliffside,599900,43.703186,-79.251564,7 East Haven Dr,Toronto
1104,Lawrence Heights,364900,43.715069,-79.4533,#326 - 36 Via Bagnato,Toronto
1105,Dorset Park,174900,43.769417,-79.28241,#201 - 2 Glamorgan Ave,Toronto
1106,Mount Dennis,546666,43.686855,-79.490898,3 Bijou Walk,Toronto
1107,Mount Pleasant East,799000,43.701283,-79.383102,3 Belle Ayre Blvd,Toronto
1108,Downtown,789900,43.646164,-79.375038,#304 - 25 The Esplanade St,Toronto
1109,Willowdale,2548000,43.77206,-79.40522,144 Kingsdale Ave,Toronto
1110,Rexdale,539900,43.755604,-79.606697,78 Provence Tr,Toronto
1111,Mimico,459900,43.631432,-79.473564,#309 - 1 Palace Pier Crt,Toronto
1112,Rouge,290000,43.799522,-79.148201,#922 - 11753 Sheppard Ave,Toronto
1113,Milliken,399800,43.800705,-79.317162,#2002 - 2350 Bridletowne Circ,Toronto
1114,Willowdale,2699000,43.775288,-79.408012,102 Church Ave,Toronto
1115,Weston,449900,43.6996,-79.50972,#4 - 2009 Lawrence Ave,Toronto
1116,Mount Dennis,409000,43.69281,-79.506653,#304 - 60 Sidney Belsey Cres,Toronto
1117,Newtonbrook,399900,43.783112,-79.415199,#1207 - 5765 Yonge St,Toronto
1118,Lansing,439000,43.765152,-79.412277,#3503 - 4968 Yonge St,Toronto
1119,Don Valley Village,615000,43.774311,-79.359085,#1006 - 20 Bloorview Pl,Toronto
1120,Earlscourt,688000,43.677956,-79.463882,68 Chambers Ave,Toronto
1121,Niagara,239000,43.63673,-79.400505,#405 - 600 Fleet St,Toronto
1122,Bendale,829900,43.758427,-79.259102,39 Lyon Heights Rd,Toronto
1123,Mimico,849000,43.618263,-79.508858,414 Melrose St,Toronto
1124,Downtown,369900,43.645985,-79.389938,#517 - 8 Mercer St,Toronto
1125,Leslieville,1313000,43.667385,-79.334412,#14 - 175 Jones Ave,Toronto
1126,Little Portugal,274900,43.641567,-79.424606,#502 - 170 Sudbury St,Toronto
1127,Sherwood Park,1349000,43.712608,-79.38385,325 Broadway Ave,Toronto
1128,Rockcliffe - Smythe,305000,43.675777,-79.507919,#606 - 240 Scarlett Rd,Toronto
1129,West Hill,349900,43.767723,-79.174797,#114 - 275 Manse Rd,Toronto
1130,Eglinton East,269900,43.737576,-79.238251,#1512 - 330 Mccowan Rd,Toronto
1131,Jane and Finch,344800,43.740059,-79.509605,#1010 - 1900 Sheppard Ave,Toronto
1132,Bendale,849800,43.767342,-79.257347,22 Hathway Dr,Toronto
1133,Willowdale,2998000,43.775429,-79.394142,350 Parkview Ave,Toronto
1134,Scarborough Village,999000,43.741905,-79.213821,444 Kingston Road,Toronto
1135,North Toronto,1399000,43.726349,-79.397461,1 Preston Pl,Toronto
1136,Wallace Emerson,299900,43.665726,-79.447418,#509 - 816 Lansdowne Ave,Toronto
1137,Glen Park,1538800,43.707947,-79.462692,101 Glen Long Ave,Toronto
1138,Toronto,318000,43.824078,-79.273773,#1112 - 80 Alton Towers Circ,Toronto
1139,West Hill,598800,43.773823,-79.188538,320 Morningside Ave,Toronto
1140,Wexford - Maryvale,600000,43.746807,-79.298882,3 Honey Dr,Toronto
1141,Willowdale,425000,43.773094,-79.415596,#301 - 30 Canterbury Pl,Toronto
1142,Downtown,629000,43.666996,-79.373268,#112 - 179 Bleecker St,Toronto
1143,Downtown,325000,43.639782,-79.397949,#2008 - 151 Dan Leckie Way,Toronto
1144,Newtonbrook,434900,43.794613,-79.427216,#1105 - 175 Hilda Ave,Toronto
1145,Downtown,339900,43.651169,-79.384987,#502 - 127 Queen St,Toronto
1146,Victoria Village,359000,43.72451,-79.307022,#306 - 1785 Eglinton Ave,Toronto
1147,Highland Creek,719888,43.796654,-79.179451,17 Grover Dr,Toronto
1148,Toronto,229000,43.8269,-79.27565,#703 - 160 Alton Towers Circ,Toronto
1149,Downtown,899000,43.652138,-79.371483,#Th110 - 116 George St,Toronto
1150,Swansea,498000,43.636292,-79.470467,#2305 - 103 The Queensway Ave,Toronto
1151,Little Portugal,1059000,43.646023,-79.427406,128 Northcote Ave,Toronto
1152,Roncesvalles Village,8500000,43.64336,-79.447777,137 Roncesvalles Ave,Toronto
1153,Malvern,599900,43.807312,-79.227303,38 Pinery Tr,Toronto
1154,Lawrence Heights,419500,43.717121,-79.441757,#512 - 650 Lawrence Ave,Toronto
1155,Clairlea - Birchmount,584900,43.702419,-79.274368,32 Belanger Cres,Toronto
1156,Princess Margaret,1088000,43.674389,-79.554695,38 Warrender Ave,Toronto
1157,Silverthorn,699900,43.680458,-79.46653,676 Old Weston Rd,Toronto
1158,Humberlea,200000,43.732304,-79.537003,#1807 - 3077 Weston Rd,Toronto
1159,Woburn,278000,43.78167,-79.247215,#2215 - 36 Lee Centre St,Toronto
1160,Downtown,439900,43.666752,-79.376236,#216 - 120 Homewood Ave,Toronto
1161,Downtown,335000,43.645641,-79.392952,#3001 - 375 King St,Toronto
1162,The Beach,369000,43.666252,-79.304993,#708 - 1900 Lakeshore Blvd,Toronto
1163,Kennedy Park,675000,43.728794,-79.254074,23 Commonwealth Ave,Toronto
1164,Downtown,495000,43.646931,-79.374977,#1008 - 38 The Esplanade St,Toronto
1165,Riverdale,2639000,43.68084,-79.351707,103 Arundel Ave,Toronto
1166,Riverdale,2950000,43.669842,-79.349106,98 Riverdale Ave,Toronto
1167,Humber Bay,369900,43.624073,-79.484917,#1109 - 88 Park Lawn Rd,Toronto
1168,Milliken,930000,43.812344,-79.287697,140 Valdor Dr,Toronto
1169,Mimico,343000,43.62381,-79.488022,#1106 - 155 Legion Rd,Toronto
1170,Fairbank,798000,43.701317,-79.444931,965 Roselawn Ave,Toronto
1171,Harwood,650000,43.677681,-79.474472,450 Maybank Ave,Toronto
1172,Toronto,279000,43.640335,-79.424477,#308 - 38 Joe Shuster Way,Toronto
1173,Willowdale,315000,43.765579,-79.41259,#2107 - 4978 Yonge St,Toronto
1174,Flemingdon Park,320000,43.710968,-79.325294,#Ph01 - 15 Vicora Link Way,Toronto
1175,Bathurst Manor,510000,43.755169,-79.441742,#607 - 650 Sheppard Ave,Toronto
1176,Bendale,599000,43.750469,-79.244263,1503 Danforth Rd,Toronto
1177,Toronto,319900,43.824078,-79.273773,#212 - 80 Alton Towers Circ,Toronto
1178,Midtown Toronto,729000,43.686378,-79.415024,#1605 - 260 Heath St,Toronto
1179,Rockcliffe - Smythe,458000,43.675777,-79.507919,#1410 - 240 Scarlett Rd,Toronto
1180,Downtown,549900,43.641632,-79.38205,#3010 - 12 York St,Toronto
1181,Downtown,798800,43.659328,-79.382675,#4415 - 386 Yonge St,Toronto
1182,Islington,429900,43.644779,-79.531929,#307 - 5101 Dundas St,Toronto
1183,Downtown,343000,43.639664,-79.379272,#2705 - 77 Harbour Sq,Toronto
1184,Rexdale,189900,43.75848,-79.586617,#1810 - 41 Markbrook Lane,Toronto
1185,Downtown,765000,43.665546,-79.387245,#2614 - 1001 Bay St,Toronto
1186,Midtown Toronto,999990,43.723293,-79.380356,#20 - 50 Hargrave Lane,Toronto
1187,Bayview Village,2375000,43.783833,-79.381851,25 Woodthrush Crt,Toronto
1188,Willowdale,609000,43.767891,-79.411812,#1015 - 8 Hillcrest Ave,Toronto
1189,Downtown,495000,43.641632,-79.38205,#5009 - 12 York St,Toronto
1190,Humber Summit,849900,43.757954,-79.557304,#1 - 175 Toryork Dr,Toronto
1191,Parkwoods - Donalda,205000,43.762363,-79.320976,#710 - 1338 York Mills Rd,Toronto
1192,Agincourt,499000,43.779129,-79.281883,#Th47 - 315 Village Green Sq,Toronto
1193,Richview,479900,43.677921,-79.556534,#607 - 140 Widdicombe Hill Blvd,Toronto
1194,Willowdale,558000,43.7561,-79.406914,#107 - 78 Harrison Garden Blvd,Toronto
1195,Downtown,409900,43.652222,-79.370872,#1902 - 105 George St,Toronto
1196,Niagara,559800,43.641579,-79.415901,#843 - 1030 King St,Toronto
1197,Humber Summit,2189000,43.757645,-79.55954,39 Millwick Dr,Toronto
1198,Wynford-Concorde,399900,43.724548,-79.325432,#907 - 205 Wynford Dr,Toronto
1199,Midtown Toronto,799000,43.68766,-79.438766,373 Oakwood Ave,Toronto
1200,Downtown,425000,43.653973,-79.388565,#4102 - 426 University Ave,Toronto
1201,Kingsview Village,439000,43.697365,-79.546089,#308 - 2000 Islington Ave,Toronto
1202,Morningside,329000,43.785278,-79.204994,#88 - 21 Livonia Pl,Toronto
1203,Downtown,388800,43.646164,-79.375038,#312 - 25 The Esplanade,Toronto
1204,Downtown,324000,43.641346,-79.400131,#413 - 560 Front St,Toronto
1205,Earlscourt,899900,43.68219,-79.456421,268 Mcroberts Ave,Toronto
1206,Downtown,630000,43.649082,-79.392082,#1107 - 318 Richmond St,Toronto
1207,Toronto,688000,43.822731,-79.266121,111 Shady Hollow Dr,Toronto
1208,Mimico,549000,43.624485,-79.490479,#608 - 250 Manitoba St,Toronto
1209,Bendale,260000,43.772751,-79.260788,#410 - 83 Borough Dr,Toronto
1210,Jane and Finch,439000,43.744011,-79.491524,#1916 - 5 Sheppard Ave,Toronto
1211,Mimico,359900,43.618755,-79.485359,#1012 - 2285 Lake Shore Blvd,Toronto
1212,Woburn,649999,43.769974,-79.228714,24 Bailey Cres,Toronto
1213,Downtown,380000,43.645985,-79.389938,#1410 - 8 Mercer St,Toronto
1214,Midtown Toronto,579900,43.667389,-79.401871,#2608 - 300 Bloor St,Toronto
1215,Willowdale,409000,43.771595,-79.412178,#903 - 256 Doris Ave,Toronto
1216,Woburn,799800,43.779442,-79.223587,5 Portico Dr,Toronto
1217,Mimico,339900,43.615078,-79.48938,#609 - 11 Superior Ave,Toronto
1218,Willowdale,355000,43.769207,-79.412132,#2301 - 33 Empress Ave,Toronto
1219,Niagara,539000,43.636234,-79.403122,#207 - 628 Fleet St,Toronto
1220,Rexdale,639900,43.739422,-79.584854,57 Kendleton Dr,Toronto
1221,Downtown,1699000,43.659836,-79.384956,#12 - 761 Bay St,Toronto
1222,Victoria Village,599500,43.730347,-79.328224,#402 - 18 Concorde Pl,Toronto
1223,Newtonbrook,1339900,43.783802,-79.406174,135 Bishop Ave,Toronto
1224,Rexdale,115000,43.722031,-79.543945,#902 - 236 Albion Rd,Toronto
1225,Niagara,234850,43.63673,-79.400505,#605 - 600 Fleet St,Toronto
1226,Little Portugal,299900,43.641697,-79.423431,#309 - 36 Lisgar St,Toronto
1227,Morningside,449200,43.790234,-79.197525,743 Military Tr,Toronto
1228,Downtown,1490000,43.648827,-79.385551,#2505 - 180 University Ave,Toronto
1229,Downtown,588000,43.642273,-79.372704,#929 - 29 Queens Quay,Toronto
1230,Willowdale,928000,43.768574,-79.389618,#Th115 - 399 Spring Garden Ave,Toronto
1231,The Queensway,309900,43.625927,-79.504417,##211 - 760 The Queensway,Toronto
1232,Midtown Toronto,1985000,43.686703,-79.438545,350-352 Oakwood Ave,Toronto
1233,Humberlea,219000,43.732304,-79.537003,#1006 - 3077 Weston Rd,Toronto
1234,Downsview,145000,43.737915,-79.51136,#327 - 2645 Jane St,Toronto
1235,The Beach,1890000,43.670952,-79.295052,2237 Queen St,Toronto
1236,High Park North,1995000,43.653122,-79.476166,292 Kennedy Ave,Toronto
1237,The Beach,1890000,43.670952,-79.295052,2237 Queen St,Toronto
1238,Midtown Toronto,899990,43.72353,-79.379761,2166 Bayview Ave,Toronto
1239,Mimico,1120000,43.625542,-79.477242,#2601 - 80 Marine Parade Dr,Toronto
1240,Scarborough Village,212000,43.744812,-79.214561,#1002 - 3380 Eglinton Ave,Toronto
1241,Hillcrest Village,1499980,43.800339,-79.352699,9 Rollingwood Dr,Toronto
1242,Newtonbrook,1450000,43.78537,-79.406464,29 Harnish Cres,Toronto
1243,Midtown Toronto,439000,43.670319,-79.394432,#805 - 155 Yorkville Ave,Toronto
1244,Humber Summit,919000,43.754292,-79.578156,12 Emily Ave,Toronto
1245,Port Union,724900,43.776131,-79.13604,49 Wharfside Lane,Toronto
1246,Downtown,479900,43.643764,-79.401352,#1103 - 38 Stewart St,Toronto
1247,Niagara,364900,43.636963,-79.404671,#1357 - 209 Fort York Blvd,Toronto
1248,Malvern,114900,43.803925,-79.216507,#105 - 8 Silverbell Grve,Toronto
1249,Downtown,474000,43.647224,-79.391098,#712 - 21 Widmer St,Toronto
1250,Midtown Toronto,368800,43.66983,-79.414742,#211 - 31 Olive Ave,Toronto
1251,Mimico,324990,43.625542,-79.477242,#311 - 80 Marine Parade Dr,Toronto
1252,West Hill,175000,43.775818,-79.182098,##5-213 - 50 Old Kingston Rd,Toronto
1253,Little Italy,3500000,43.654957,-79.415512,640 College St,Toronto
1254,Mimico,384900,43.625118,-79.478767,#103 - 60 Annie Craig Dr,Toronto
1255,L'Amoreaux,799000,43.801441,-79.320969,31 Hildenboro Sq,Toronto
1256,Eatonville,999900,43.648071,-79.542839,1 Lochway Crt,Toronto
1257,Downtown,471000,43.640816,-79.395538,#1505 - 25 Capreol Crt,Toronto
1258,Toronto,220000,43.8269,-79.27565,#513 - 160 Alton Towers Circ,Toronto
1259,Midtown Toronto,2150000,43.68668,-79.393684,1404 Yonge St,Toronto
1260,Willowdale,369000,43.767471,-79.41127,#602 - 21 Hillcrest Ave,Toronto
1261,Pape Village,299999,43.690639,-79.341721,#510 - 280 Donlands Ave,Toronto
1262,Malvern,369500,43.791836,-79.237404,#17M - 8 Rosebank Dr,Toronto
1263,Emery,599900,43.745125,-79.540535,3369 Weston Rd,Toronto
1264,Don Mills,319000,43.730209,-79.332375,#522 - 120 Dallimore Circ,Toronto
1265,Long Branch,1249900,43.597946,-79.526306,40 Daisy Ave,Toronto
1266,Lansing,2499900,43.760494,-79.418968,153 Harlandale Ave,Toronto
1267,Bridlewood,50000,43.798363,-79.318466,#139 - 2900 Warden Ave,Toronto
1268,Bayview Village,298000,43.766094,-79.385582,#601 - 17 Kenaston Gdns,Toronto
1269,Sunnylea,1790000,43.635227,-79.500961,35 Grenview Blvd,Toronto
1270,Upper Beaches,799000,43.67691,-79.304825,426 Kingston Rd,Toronto
1271,Swansea,339000,43.636292,-79.470467,#1416 - 103 The Queensway Ave,Toronto
1272,Upper Beaches,799000,43.67691,-79.304825,426 Kingston Rd,Toronto
1273,Upper Beaches,799000,43.67691,-79.304825,426 Kingston Rd,Toronto
1274,Morningside,39000,43.784046,-79.204781,2856 Ellesmere Rd,Toronto
1275,Bendale,284800,43.773312,-79.258728,#3005 - 60 Brian Harrison Way,Toronto
1276,Princess - Rosethorn,2799000,43.657253,-79.537888,57 Bywood Dr,Toronto
1277,Port Union,289000,43.783237,-79.169342,#9 - 6063 Kingston Rd,Toronto
1278,York Mills,5300000,43.749496,-79.386871,187 Gordon Rd,Toronto
1279,Islington - City Centre West,479000,43.639202,-79.535423,#3302 - 15 Viking Lane,Toronto
1280,Downtown,568000,43.659328,-79.382675,#817 - 386 Yonge St,Toronto
1281,Midtown Toronto,869900,43.723148,-79.379707,2146 Bayview Ave,Toronto
1282,Humber Summit,660000,43.759514,-79.571335,3011-13 Islington Ave,Toronto
1283,Humber Summit,660000,43.759514,-79.571335,3011-13 Islington Ave,Toronto
1284,Midtown Toronto,488800,43.672985,-79.387032,#515 - 825 Church St,Toronto
1285,Humber Bay Shores,419000,43.626965,-79.478485,#3008 - 16 Brookers Lane,Toronto
1286,Downtown,379900,43.660149,-79.360886,#1701 - 170 Sumach St,Toronto
1287,Bendale,59000,43.767159,-79.270447,#5 - 1157 Ellesmere Rd,Toronto
1288,Lansing,599900,43.760303,-79.411621,#606 - 9 Bogert Ave,Toronto
1289,Jane and Finch,125000,43.754375,-79.510368,#410 - 15 London Green Crt,Toronto
1290,Little Italy,299000,43.655308,-79.41642,656 College St,Toronto
1291,Willowdale,730000,43.760998,-79.410202,#616 - 4789 Yonge St,Toronto
1292,Riverdale,149000,43.677971,-79.348907,507 Danforth Ave,Toronto
1293,Rockcliffe - Smythe,1349000,43.666817,-79.503151,165 Eileen Ave,Toronto
1294,Clairlea - Birchmount,129000,43.71006,-79.261116,72 Moira Ave,Toronto
1295,Fairbank,949900,43.702934,-79.449738,1059 Briar Hill Ave,Toronto
1296,Bloor West Village,29900,43.649807,-79.483337,2406 Bloor  St.  West St,Toronto
1297,Downtown,489000,43.644173,-79.38942,#1008 - 300 FRONT ST W,Toronto
1298,Downtown,1298000,43.65765,-79.376762,#Ph 5 - 155 DALHOUSIE ST,Toronto
1299,Downtown,769000,43.668777,-79.383995,#4002 - 45 CHARLES ST,Toronto
1300,Toronto,269900,43.640209,-79.423943,#1003 - 20 JOE SHUSTER WAY,Toronto
