Index,AreaName,Price ($),lat,lng,Address,City
1301,Midtown Toronto,549000,43.672318,-79.388817,#307 - 21 SCOLLARD ST,Toronto
1302,Downtown,398900,43.656807,-79.375092,#3604 - 159 DUNDAS ST E,Toronto
1303,Niagara,309900,43.63715,-79.400604,#1211 - 15 BRUYERES MEWS,Toronto
1304,Old Town,254900,43.653126,-79.369339,#807 - 311 RICHMOND ST E,Toronto
1305,Downtown,449900,43.651878,-79.375999,#2505 - 50 LOMBARD ST,Toronto
1306,Downtown,999999,43.654991,-79.363922,161 PARLIAMENT ST,Toronto
1307,Downtown,329900,43.660149,-79.360886,#1304 - 170 SUMACH ST,Toronto
1308,Toronto,245000,43.640335,-79.424477,#1619 - 38 JOE SHUSTER WAY,Toronto
1309,Downtown,798000,43.650143,-79.371605,#609 - 39 JARVIS ST,Toronto
1310,Midtown Toronto,549000,43.687836,-79.413376,#506 - 60 MONTCLAIR AVE,Toronto
1311,Downtown,149713,43.65094,-79.381958,#0103 - 67 RICHMOND ST W,Toronto
1312,Downtown,3749000,43.659191,-79.36776,396 -400 DUNDAS ST,Toronto
1313,Downtown,569800,43.660103,-79.385086,#3511 - 763 BAY ST,Toronto
1314,Upper Beaches,700000,43.680573,-79.291595,2 HANNAFORD ST,Toronto
1315,Toronto,229000,43.640335,-79.424477,#320 - 38 JOE SHUSTER WAY,Toronto
1316,Midtown Toronto,525000,43.675552,-79.377808,#112 - 30 ELM AVE,Toronto
1317,Riverdale,1650000,43.671024,-79.347015,616 LOGAN AVE,Toronto
1318,Downtown,499900,43.654587,-79.386658,#502 - 55 CENTRE AVE,Toronto
1319,Downtown,1519000,43.666897,-79.389038,#4001 - 65 ST MARY ST,Toronto
1320,Downtown,438000,43.638477,-79.397987,#3202 - 75 QUEENS WHARF RD,Toronto
1321,Downtown,59000,43.657394,-79.383034,#1 - 27 ELM ST,Toronto
1322,Downtown,99000,43.647537,-79.386871,214 KING ST W,Toronto
1323,Midtown Toronto,3800000,43.672955,-79.398491,66 TRANBY AVE,Toronto
1324,Niagara,394900,43.638512,-79.400894,#307 - 169 FORT YORK BLVD,Toronto
1325,Toronto,364000,43.640335,-79.424477,#1726 - 38 JOE SHUSTER WAY,Toronto
1326,Harwood,758888,43.670788,-79.476288,2170 ST CLAIR AVE W,Toronto
1327,Downtown,498000,43.665749,-79.385513,#1109 - 5 ST JOSEPH ST,Toronto
1328,Downtown,629900,43.645985,-79.389938,#1902 - 8 MERCER ST,Toronto
1329,Beach Hill,699000,43.674515,-79.319717,317 COXWELL AVE,Toronto
1330,Downtown,568800,43.648029,-79.374069,#305 - 55 FRONT ST E,Toronto
1331,Midtown Toronto,60000,43.711712,-79.399101,2481 A YONGE ST,Toronto
1332,Downtown,634900,43.661385,-79.380608,#1808 - 45 CARLTON ST,Toronto
1333,Downtown,535800,43.640224,-79.39595,#1049 - 10 CAPREOL CRT,Toronto
1334,Downtown,519900,43.642509,-79.377365,#1304 - 33 BAY ST,Toronto
1335,Toronto,299900,43.640209,-79.423943,1115 20 JOE SHUSTER Way,Toronto
1336,The Beach,1548000,43.678608,-79.288513,281 WILLOW AVE,Toronto
1337,Riverdale,379900,43.657913,-79.350067,#611 - 90 BROADVIEW AVE,Toronto
1338,Leslieville,849000,43.670635,-79.336945,135 GALT AVE,Toronto
1339,Downtown,459000,43.655113,-79.384804,#802 - 111 ELIZABETH ST,Toronto
1340,Downtown,412500,43.658798,-79.384392,#607 - 44 GERRARD ST W,Toronto
1341,Leslieville,1098000,43.66621,-79.333565,1447 DUNDAS ST E,Toronto
1342,Downtown,669000,43.638866,-79.398438,#4006 - 85 QUEENS WHARF RD,Toronto
1343,Downtown,485000,43.644783,-79.362793,#403 - 15 MERCHANTS WHARF,Toronto
1344,Downtown,979900,43.642273,-79.372704,#423 - 29 QUEENS QUAY E,Toronto
1345,Downtown,375000,43.663963,-79.383064,#1511 - 25 MAITLAND ST,Toronto
1346,Niagara,375000,43.637432,-79.401039,#523 - 20 BRUYERES MEWS,Toronto
1347,Midtown Toronto,1595000,43.671139,-79.395653,#602 - 4 LOWTHER AVE,Toronto
1348,Downtown,749000,43.665546,-79.387245,#3310 - 1001 BAY ST,Toronto
1349,Downtown,329000,43.640816,-79.395538,#501 - 25 CAPREOL CRT,Toronto
1350,Downtown,589900,43.647224,-79.391098,#2812 - 21 WIDMER ST,Toronto
1351,Downtown,339900,43.660149,-79.360886,#304 - 170 SUMACH ST E,Toronto
1352,Downtown,559900,43.641788,-79.381874,#905 - 14 YORK ST,Toronto
1353,Downtown,469900,43.641422,-79.39959,#605 - 550 FRONT ST W,Toronto
1354,Downtown,389000,43.655956,-79.37291,#604 - 220 GEORGE ST,Toronto
1355,Downtown,329000,43.665546,-79.387245,#316 - 1001 BAY ST,Toronto
1356,Regal Heights,1099000,43.676453,-79.432472,56 ALBERTA AVE,Toronto
1357,Niagara,559000,43.641579,-79.415901,#1043 - 1030 KING ST W,Toronto
1358,Midtown Toronto,1249000,43.72776,-79.389961,236 LAWRENCE AVE E,Toronto
1359,East Danforth,459900,43.685455,-79.313133,#907 - 2055 DANFORTH AVE,Toronto
1360,Downtown,468800,43.669151,-79.387375,#1402 - 21 BALMUTO ST,Toronto
1361,Niagara,329900,43.63673,-79.400505,#606 - 600 FLEET ST,Toronto
1362,Niagara,377399,43.641579,-79.415901,#235 - 1030 KING ST W,Toronto
1363,Downtown,429900,43.639889,-79.390404,#710 - 5 MARINER TERR,Toronto
1364,Downtown,278500,43.652489,-79.389626,#618 - 80 ST PATRICK ST,Toronto
1365,Leslieville,765000,43.666988,-79.327621,110 HILTZ AVE,Toronto
1366,Downtown,599999,43.649246,-79.375755,#502 - 22 LEADER LANE,Toronto
1367,Downtown,399000,43.664845,-79.385933,#304 - 24 WELLESLEY ST,Toronto
1368,Downtown,509000,43.653973,-79.388565,#1910 - 426 UNIVERSITY AVE,Toronto
1369,Downtown,498000,43.645985,-79.389938,#2401 - 8 MERCER ST,Toronto
1370,Niagara,379800,43.635681,-79.398674,#218 - 650 QUEENS QUAY,Toronto
1371,Downtown,675000,43.650082,-79.357971,#417 - 70 DISTILLERY LANE,Toronto
1372,Downtown,798880,43.669643,-79.380608,#4804 - 101 CHARLES ST E,Toronto
1373,Downtown,524900,43.648029,-79.374069,#808 - 55 FRONT ST E,Toronto
1374,Downtown,497000,43.667915,-79.375679,#703 - 500 SHERBOURNE ST,Toronto
1375,Downtown,435000,43.649055,-79.370361,#328 - 109 FRONT ST E,Toronto
1376,Downtown,315000,43.664265,-79.37545,#501 - 40 HOMEWOOD AVE,Toronto
1377,Downtown,439900,43.640526,-79.397102,#636 - 15 ICEBOAT TERR,Toronto
1378,Downtown,389000,43.669609,-79.384773,#1002 - 35 HAYDEN ST,Toronto
1379,Downtown,429900,43.643486,-79.392303,#615 - 352 FRONT ST W,Toronto
1380,Midtown Toronto,3288000,43.677563,-79.380089,27 SCARTH RD,Toronto
1381,Downtown,438000,43.657104,-79.374214,#3805 - 181 DUNDAS ST E,Toronto
1382,Downtown,580000,43.660103,-79.385086,#3711 - 763 BAY ST,Toronto
1383,The Beach,1200000,43.672386,-79.291595,35 DUART PARK RD,Toronto
1384,Midtown Toronto,491900,43.677021,-79.406387,#502 - 377 MADISON AVE,Toronto
1385,Midtown Toronto,999990,43.723293,-79.380356,#11 - 50 HARGRAVE LANE,Toronto
1386,Silverthorn,825000,43.680763,-79.469574,41 HILLARY AVE,Toronto
1387,Lambton Baby Point,486900,43.648071,-79.486664,#307 - 2 OLD MILL DR,Toronto
1388,Midtown Toronto,1299000,43.722866,-79.380157,#15 - 40 HARGRAVE LANE,Toronto
1389,Lambton Baby Point,478800,43.648243,-79.486626,#615 - 1 OLD MILL DR,Toronto
1390,Downsview,159907,43.737915,-79.51136,#506 - 2645 JANE ST,Toronto
1391,Willowdale,482888,43.770878,-79.411964,#1706 - 238 DORIS AVE,Toronto
1392,Newtonbrook,348000,43.783112,-79.415199,#1209 - 5765 YONGE ST,Toronto
1393,Agincourt,939000,43.789047,-79.284752,68 AGINCOURT DR,Toronto
1394,Woburn,599000,43.765667,-79.219574,8 BARNES CRES,Toronto
1395,Old East York,719000,43.689983,-79.307259,19 GATWICK AVE,Toronto
1396,Toronto,849900,43.653225,-79.383186,618 O&#39;CONNOR DR,Toronto
1397,Newtonbrook,1690000,43.780804,-79.419121,41 HENDON AVE,Toronto
1398,Humber Summit,55000,43.749264,-79.559441,#17 A - 2528 FINCH AVE W,Toronto
1399,Tam O'Shanter,533900,43.7897,-79.30526,#2 - 671 HUNTINGWOOD DR,Toronto
1400,Henry Farm,309900,43.774895,-79.345955,#108 - 70 FOREST MANOR RD,Toronto
1401,Woodbine - Lumsden,1150000,43.691368,-79.311615,117 KING EDWARD AVE,Toronto
1402,Humber Bay,419900,43.624374,-79.485542,#2710 - 90 PARK LAWN RD,Toronto
1403,Old East York,265000,43.696163,-79.292953,#2511 - 5 MASSEY SQ,Toronto
1404,Toronto,369000,43.695999,-79.507645,1623 WESTON RD,Toronto
1405,Ionview,717000,43.735332,-79.275482,14 RICHOME CRT,Toronto
1406,Eglinton East,699000,43.739819,-79.248024,17 STRODE DR,Toronto
1407,Rexdale,599000,43.736565,-79.597107,7 ATTILA CRT,Toronto
1408,Rouge,688500,43.805416,-79.186546,7 ROUGE RIVER DR,Toronto
1409,Willowdale,468000,43.760101,-79.408844,#905 - 31 BALES AVE,Toronto
1410,Woburn,338800,43.773685,-79.249619,#709 - 68 GRANGEWAY AVE,Toronto
1411,Weston,485900,43.705288,-79.526894,9 RECTORY RD,Toronto
1412,Willowdale,478000,43.765579,-79.41259,#2109 - 4978 YONGE ST,Toronto
1413,Rexdale,249900,43.758636,-79.58757,#308 - 21 MARKBROOK LANE,Toronto
1414,Golden Mile,359000,43.716156,-79.281998,#221 - 60 MENDELSSOHN ST,Toronto
1415,Nortown,2429000,43.726009,-79.429718,631 ST GERMAIN AVE,Toronto
1416,Old East York,649900,43.693779,-79.322388,75 HOLBORNE AVE,Toronto
1417,Rexdale,669900,43.725483,-79.585327,49 HAWKEDON CRES,Toronto
1418,Jane and Finch,255000,43.764374,-79.49456,#412 - 19 FOUR WINDS DR,Toronto
1419,St. Andrew - Windfields,2388000,43.763935,-79.370956,57 HOPPERTON DR,Toronto
1420,Rexdale,184500,43.73354,-79.592949,#14 - 242 JOHN GARLAND BLVD,Toronto
1421,Newtonbrook,1689000,43.783783,-79.401764,202 PEMBERTON AVE,Toronto
1422,Mimico,659900,43.619488,-79.488205,26 VICTORIA ST,Toronto
1423,Woburn,385000,43.780956,-79.249779,#1604 - 88 CORPORATE DR,Toronto
1424,Highland Creek,859000,43.7897,-79.176453,3528 ELLESMERE RD,Toronto
1425,Steeles,479000,43.815434,-79.325745,#1133 - 25 BAMBURGH CIRC,Toronto
1426,Oakwood Village,659000,43.691177,-79.444824,554 LAUDER AVE,Toronto
1427,Malvern,377500,43.795006,-79.239113,#207 - 1775 MARKHAM RD,Toronto
1428,Don Valley Village,672000,43.788429,-79.355347,102 RUSTY CREST WAY,Toronto
1429,Newtonbrook,395000,43.792667,-79.443939,#310 - 777 STEELES AVE W,Toronto
1430,Leaside,1499000,43.712597,-79.369644,274 RUMSEY RD,Toronto
1431,L'Amoreaux,749888,43.792309,-79.327568,119 CORINTHIAN BLVD,Toronto
1432,Highland Creek,2497000,43.782387,-79.181709,4 HAIDA CRT,Toronto
1433,Bayview Village,314900,43.769611,-79.368416,#3107 - 33 SINGER CRT,Toronto
1434,Midtown Toronto,10000,43.693039,-79.440842,507 OAKWOOD AVE,Toronto
1435,Malvern,475000,43.813889,-79.221359,29 GLANVIL CRES,Toronto
1436,Willowdale,545000,43.757408,-79.406853,#1125 - 5 EVERSON DR,Toronto
1437,Old East York,164900,43.696163,-79.292953,#1406 - 5 MASSEY SQ,Toronto
1438,Malvern,139900,43.805328,-79.22023,#405 - 99 BLACKWELL AVE,Toronto
1439,Don Mills,675000,43.748825,-79.347603,#31 - 1396 DON MILLS RD,Toronto
1440,Highland Creek,869000,43.786201,-79.178551,61 BOBMAR RD,Toronto
1441,Bendale,299900,43.772957,-79.261116,#Th 77 - 83 BOROUGH DR,Toronto
1442,Clairlea,1279900,43.702293,-79.291161,46 B MAYBOURNE AVE,Toronto
1443,Newtonbrook,375800,43.783081,-79.416824,#1107 - 5740 YONGE ST,Toronto
1444,West Hill,730000,43.767239,-79.180832,66 PIPERBROOK CRES,Toronto
1445,Midtown Toronto,349900,43.704834,-79.439888,#1501 - 360 RIDELLE AVE,Toronto
1446,Mimico,429900,43.624485,-79.490479,#725 - 250 MANITOBA ST,Toronto
1447,The Queensway,949900,43.624474,-79.501793,523 C ROYAL YORK RD,Toronto
1448,Jane and Finch,629000,43.744606,-79.503181,52 WATNEY CRES,Toronto
1449,Rockcliffe - Smythe,599000,43.667286,-79.49749,69 BERNICE CRES,Toronto
1450,Newtonbrook,828000,43.803524,-79.377838,77 MINTWOOD DR,Toronto
1451,Willowdale,359000,43.775902,-79.413261,#2606 - 10 NORTHTOWN WAY,Toronto
1452,Bendale,268500,43.774338,-79.252594,#1807 - 61 TOWN CENTRE CRT,Toronto
1453,West Hill,1198000,43.766975,-79.178986,115 A HOMESTEAD RD,Toronto
1454,Jane and Finch,459000,43.751255,-79.528702,#1 - 750 OAKDALE RD,Toronto
1455,Mimico,268000,43.630383,-79.476273,#1007 - 3 MARINE PARADE DR,Toronto
1456,White Haven,749900,43.790119,-79.244278,24 A MASSIE ST,Toronto
1457,Willowdale,455000,43.769829,-79.413467,#1707 - 5168 YONGE ST,Toronto
1458,Willowdale,519500,43.776451,-79.414017,#1829 - 500 DORIS AVE,Toronto
1459,Rexdale,245000,43.74955,-79.58075,#407 - 5 ROWNTREE RD,Toronto
1460,Malvern,125000,43.805328,-79.22023,#310 - 99 BLACKWELL AVE,Toronto
1461,Mimico,675000,43.621376,-79.483429,#Ph 2 - 15 LEGION RD,Toronto
1462,Rexdale,299999,43.744343,-79.587379,#301 - 45 SILVERSTONE DR,Toronto
1463,Rexdale,424999,43.742409,-79.598518,#52 - 1667 ALBION RD,Toronto
1464,Malvern,339000,43.795254,-79.239372,#105 - 1795 MARKHAM RD,Toronto
1465,Milliken,299000,43.806938,-79.290916,#D12 - 63 SILVER STAR BLVD,Toronto
1466,Ben Jungle,795000,43.761955,-79.23864,43 BENLIGHT CRES,Toronto
1467,Dorset Park,269000,43.75235,-79.265923,#514 - 1470 MIDLAND AVE,Toronto
1468,Bendale,435000,43.772877,-79.25396,#1910 - 190 BOROUGH DR,Toronto
1469,Toronto,30000,43.741619,-79.261101,1051 MIDLAND AVE,Toronto
1470,Brookhaven - Amesbury,449900,43.698521,-79.497978,69 STEWART SMITH DR,Toronto
1471,Henry Farm,369888,43.774895,-79.345955,#407 - 70 FOREST MANOR RD,Toronto
1472,Woburn,615000,43.757694,-79.222122,7 VAN ALLAN RD,Toronto
1473,Highland Creek,999000,43.785759,-79.182869,42 CONLINS RD,Toronto
1474,Downsview,399000,43.726418,-79.479942,#615 - 15 JAMES FINLAY WAY,Toronto
1475,The Kingsway,1879000,43.659264,-79.510025,548 PRINCE EDWARD DR N,Toronto
1476,Old East York,184000,43.69614,-79.294983,#3012 - 1 MASSEY SQ,Toronto
1477,Bendale,799000,43.761456,-79.250458,31 MELDAZY DR,Toronto
1478,Don Mills,499900,43.739239,-79.344574,#113 - 1200 DON MILLS RD,Toronto
1479,White Haven,879900,43.789085,-79.251717,7 GLENSTROKE DR,Toronto
1480,Wilson Heights,999000,43.754162,-79.440613,30 ALEXIS BLVD,Toronto
1481,Humber Bay,669000,43.632587,-79.485214,42 STEPHEN DR,Toronto
1482,Morningside,435000,43.788143,-79.207649,#15 - 431 MILITARY TR,Toronto
1483,Nortown,2495000,43.724655,-79.424278,517 CRANBROOKE AVE,Toronto
1484,Downtown,1329900,43.642578,-79.3769,#5002 - 16 HARBOUR ST,Toronto
1485,Downsview,519900,43.750595,-79.464058,#911 - 1060 SHEPPARD AVE W,Toronto
1486,Lansing,675000,43.760303,-79.411621,#2503 - 9 BOGERT AVE,Toronto
1487,Downtown,1149000,43.642273,-79.372704,#808 - 29 QUEENS QUAY E,Toronto
1488,Woodbine Gardens,219000,43.698101,-79.299431,#406 - 4 PARK VISTA DR,Toronto
1489,Willowdale,2150000,43.761501,-79.409882,#Ph18 - 5 SHEPPARD AVE E,Toronto
1490,Mimico,549900,43.624969,-79.478081,#3007 - 59 ANNIE CRAIG DR,Toronto
1491,Willowdale,428800,43.775146,-79.412666,#808 - 880 GRANDVIEW WAY,Toronto
1492,Mimico,399900,43.625542,-79.477242,#1406 - 80 MARINE PARADE DR,Toronto
1493,Downtown,345000,43.643486,-79.392303,#315 - 352 FRONT ST W,Toronto
1494,Downtown,1699990,43.643948,-79.401474,#Ph1421 - 629 KING ST W,Toronto
1495,Alderwood,1148000,43.602165,-79.544388,496 -498 HORNER AVE,Toronto
1496,Midtown Toronto,738000,43.673172,-79.389687,#1303 - 32 DAVENPORT RD,Toronto
1497,Newtonbrook,562000,43.78067,-79.418343,#2519 - 25 GREENVIEW AVE,Toronto
1498,Downtown,389000,43.644455,-79.376534,#2905 - 18 YONGE ST,Toronto
1499,Lansing,629900,43.760303,-79.411621,#3208 - 9 BOGERT AVE,Toronto
1500,Niagara,559000,43.636345,-79.404808,#1604 - 215 FORT YORK BLVD,Toronto
1501,Mimico,349000,43.62381,-79.488022,#2710 - 155 LEGION RD,Toronto
1502,Bridlewood,279800,43.796768,-79.315636,#122 - 5225 FINCH AVE E,Toronto
1503,Downtown,549000,43.641632,-79.38205,#507 - 12 YORK ST,Toronto
1504,Downtown,458900,43.650372,-79.382347,#609 - 70 TEMPERANCE ST,Toronto
1505,Newtonbrook,514900,43.78067,-79.418343,#819 - 25 GREENVIEW AVE,Toronto
1506,Midtown Toronto,2275990,43.685131,-79.410217,#1 - 288 ST CLAIR AVE W,Toronto
1507,Steeles,508888,43.815434,-79.325745,#233 - 25 BAMBURGH CIRC,Toronto
1508,Armdale,366735,43.825054,-79.246819,#40 - 30 IRONSIDE CRES,Toronto
1509,Willowdale,559000,43.769207,-79.412132,#2510 - 33 EMPRESS AVE,Toronto
1510,Willowdale,475000,43.769665,-79.41378,#2301 - 5162 YONGE ST,Toronto
1511,Willowdale,419800,43.777054,-79.41378,#709 - 28 BYNG AVE,Toronto
1512,Willowdale,425000,43.778439,-79.416069,#310 - 5508 YONGE ST,Toronto
1513,Niagara,549000,43.641579,-79.415901,#352 - 1030 KING ST W,Toronto
1514,Willowdale,339000,43.76556,-79.412804,#901 - 4968 YONGE ST,Toronto
1515,Niagara,479000,43.63641,-79.402,#913 - 21 GRAND MAGAZINE ST,Toronto
1516,Mimico,343000,43.62273,-79.483192,#2706 - 2220 LAKESHORE RD,Toronto
1517,Downtown,479999,43.644852,-79.399101,#526 - 560 KING ST W,Toronto
1518,Downtown,449000,43.668785,-79.384766,#1601 - 33 CHARLES ST E,Toronto
1519,Downtown,422000,43.668777,-79.383995,#4505 - 45 CHARLES ST E,Toronto
1520,Downtown,412000,43.643486,-79.392303,#2311 - 352 FRONT ST W,Toronto
1521,Agincourt,168000,43.785206,-79.277573,#B6 - 4227 SHEPPARD AVE E,Toronto
1522,Downsview,379999,43.727539,-79.482857,#110 - 2772 KEELE ST,Toronto
1523,Woburn,325000,43.78167,-79.247215,#2210 - 36 LEE CENTRE DR,Toronto
1524,Downtown,769000,43.650555,-79.357384,#2902 - 390 CHERRY ST,Toronto
1525,Downtown,649000,43.652454,-79.363731,#1306 - 318 KING ST E,Toronto
1526,Islington - City Centre West,329900,43.643925,-79.528885,#405 - 1 Michael Power Pl,Toronto
1527,Islington - City Centre West,859000,43.646122,-79.521828,#707 - 2 Aberfoyle Cres,Toronto
1528,Eringate - Centennial - West Deane,335000,43.644711,-79.588692,##1008 - 420 Mill Rd,Toronto
1529,Islington - City Centre West,349900,43.644661,-79.529335,#514 - 9 Michael Power Pl,Toronto
1530,Fairbank,799000,43.690666,-79.46199,32B Keith Ave,Toronto
1531,Woburn,649000,43.779556,-79.225761,1 Pegasus Tr,Toronto
1532,Birch Cliff,1089900,43.684292,-79.27916,14 Elmview Dr,Toronto
1533,Maple Leaf,499900,43.720539,-79.48439,144 Rory Rd,Toronto
1534,Harwood,419900,43.678665,-79.478302,75 Cayuga Ave,Toronto
1535,Bathurst Manor,999000,43.760948,-79.444893,3 Acton Ave,Toronto
1536,Lambton,639000,43.670361,-79.501076,71 Delemere Ave,Toronto
1537,Willowdale,3588000,43.77668,-79.401146,12 Waring Crt,Toronto
1538,Downtown,363900,43.660629,-79.364532,46 Cole St,Toronto
1539,Malvern,539900,43.802864,-79.214462,3 Burkwood Cres,Toronto
1540,Toronto,559000,43.682991,-79.459412,220 Gilbert Ave,Toronto
1541,Birch Cliff,599900,43.704281,-79.257225,52 Malta St,Toronto
1542,Clairlea,1199000,43.711281,-79.283325,113 Moreau Tr,Toronto
1543,Weston,320000,43.701572,-79.520187,#707 - 1 King St,Toronto
1544,The Westway,824888,43.691151,-79.54287,28 Rowse Cres,Toronto
1545,Harwood,869000,43.676849,-79.482109,52B Hilldale Rd,Toronto
1546,Bendale,549900,43.755604,-79.260536,92 Rushley Dr,Toronto
1547,Bendale,439000,43.77195,-79.261711,#17 - 117 Omni Dr,Toronto
1548,Malvern,518000,43.813629,-79.221588,28 Glanvil Cres,Toronto
1549,Tam O'Shanter,500000,43.783947,-79.298721,36 Bonis Ave,Toronto
1550,Malvern,830000,43.82024,-79.202942,15 Kengate Dr,Toronto
1551,Downtown,430000,43.642509,-79.377365,#4002 - 33 Bay St,Toronto
1552,Malvern,234900,43.807106,-79.227829,#67 - 42 Pinery Tr,Toronto
1553,Agincourt,629900,43.814487,-79.269928,4 Big Red Ave,Toronto
1554,Alderwood,1349999,43.595139,-79.545746,43B Foch Ave,Toronto
1555,Downsview,758800,43.731644,-79.462372,700 Wilson Ave,Toronto
1556,Bendale,728888,43.754463,-79.243851,18 Dignam Crt,Toronto
1557,Downtown,699900,43.657341,-79.362579,383 Shuter St,Toronto
1558,Weston,748800,43.705509,-79.518242,26 JOSEPH ST,Toronto
1559,Mimico,399000,43.624207,-79.488228,165 Legion Road,Toronto
1560,West Hill,1779999,43.763065,-79.196571,8 ADAMS DR,Toronto
1561,Milliken,279800,43.797787,-79.313347,#1007 - 2050 Bridletowne Circ,Toronto
1562,Downtown,714900,43.661793,-79.384506,#3304 - 21 Grenville St,Toronto
1563,Midtown Toronto,419000,43.703773,-79.399658,#1501 - 60 Berwick Ave,Toronto
1564,Downtown,479999,43.652451,-79.388931,#514 - 210 Simcoe St,Toronto
1565,Midtown Toronto,1080000,43.676369,-79.405739,#Ph614 - 380 Macpherson Ave,Toronto
1566,Downtown,334900,43.643486,-79.392303,#912 - 352 Front St,Toronto
1567,Lambton Baby Point,539900,43.648071,-79.486664,#612 - 2 Old Mill Dr,Toronto
1568,Malvern,249990,43.791725,-79.23687,#17G - 6 Rosebank Dr,Toronto
1569,Flemingdon Park,299000,43.711529,-79.322899,#1506 - 60 Pavane Link Way,Toronto
1570,Newtonbrook,1480000,43.788563,-79.426552,182 Patricia Ave,Toronto
1571,Morningside,429900,43.78614,-79.211952,#08 - 341 Military Tr,Toronto
1572,Woburn,349000,43.773827,-79.250023,#2202 - 88 Grangeway Ave,Toronto
1573,Windfields,3388000,43.737522,-79.358696,16 Larkfield Dr,Toronto
1574,Morningside,699900,43.788639,-79.207932,430 Military Tr,Toronto
1575,L'Amoreaux,688000,43.801937,-79.321388,17 Hildenboro Sq,Toronto
1576,Kennedy Park,649900,43.727692,-79.269615,14 Miniot Circ,Toronto
1577,York University Heights,239000,43.762249,-79.500114,#709 - 455 Sentinel Rd,Toronto
1578,Willowdale,1498000,43.774139,-79.427925,26 Yorkview Dr,Toronto
1579,Malvern,318000,43.805099,-79.21196,#18 - 170 Wickson Tr,Toronto
1580,Silverthorn,629000,43.690617,-79.46476,553 Blackthorn Ave,Toronto
1581,Downtown,525900,43.660103,-79.385086,#4012 - 763 Bay St,Toronto
1582,Downtown,1349000,43.641346,-79.372421,#815 - 39 Queens Quay Way,Toronto
1583,Midtown Toronto,789000,43.688499,-79.414642,#308 - 350 Lonsdale Rd,Toronto
1584,Niagara,449900,43.633461,-79.399681,#169 - 28 Stadium Rd,Toronto
1585,Downtown,385000,43.667915,-79.375679,#2504 - 500 Sherbourne St,Toronto
1586,Little Portugal,418000,43.642593,-79.425537,#610 - 1169 Queen St,Toronto
1587,Pape Village,699000,43.68848,-79.347557,187 Gowan Ave,Toronto
1588,Willowdale,1998000,43.767403,-79.421387,119 Park Home Ave,Toronto
1589,Tam O'Shanter - Sullivan,788000,43.772118,-79.309311,20 Shrewsbury Sq,Toronto
1590,Old East York,850000,43.691109,-79.35553,1254 Broadview Ave,Toronto
1591,Humber Summit,649000,43.753605,-79.569298,43 Franel Cres,Toronto
1592,Milliken,329000,43.822525,-79.276451,#807 - 330 Alton Towers Circ,Toronto
1593,Eringate - Centennial - West Deane,799000,43.666061,-79.576218,8 Firestone Rd,Toronto
1594,Don Mills,868880,43.730297,-79.336617,35 B Green Belt Dr,Toronto
1595,Old East York,539900,43.695007,-79.299088,28 Goodwood Park Cres,Toronto
1596,Islington,1250000,43.649994,-79.530228,34 Burnhamthorpe Cres,Toronto
1597,Highland Creek,725000,43.79467,-79.175468,694 Morrish Rd,Toronto
1598,Mimico,305000,43.622883,-79.481972,#4105 - 2200 Lake Shore Blvd,Toronto
1599,Wilson Heights,529900,43.734478,-79.446472,#824 - 525 Wilson Ave,Toronto
1600,O'Connor - Parkview,599000,43.708248,-79.302658,20 Warvet Cres,Toronto
1601,Tam O'Shanter,749800,43.785709,-79.293724,#805 - 168 Bonis Ave,Toronto
1602,Hillcrest Village,390000,43.802334,-79.353668,#68 - 15 Pebble Byway Way,Toronto
1603,Henry Farm,294900,43.774746,-79.336929,#2912 - 275 Yorkland Rd,Toronto
1604,Bayview Village,529000,43.788269,-79.368301,6 Woody Vineway Way,Toronto
1605,Dorset Park,241900,43.750229,-79.268051,#511 - 301 Prudential Dr,Toronto
1606,Eglinton East,185000,43.740406,-79.237946,#411 - 121 Trudelle St,Toronto
1607,Downtown,559800,43.669643,-79.380608,#2702 - 101 Charles St,Toronto
1608,Bayview Village,320000,43.768475,-79.381607,#301 - 650 SHEPPARD AVE E,Toronto
1609,Eatonville,1099000,43.641037,-79.573959,118 Saturn Rd,Toronto
1610,Wexford,799900,43.750195,-79.292679,5 Compton Dr,Toronto
1611,Dorset Park,639900,43.756271,-79.282959,5 Vankirk Rd,Toronto
1612,McGregor Park,625000,43.742405,-79.281387,10 Flora Dr,Toronto
1613,Richview,785000,43.692616,-79.54583,70 Poynter Dr,Toronto
1614,Islington - City Centre West,875000,43.64592,-79.519623,#2302 - 1 Aberfoyle Cres,Toronto
1615,Downtown,419900,43.638477,-79.397987,#1703 - 75 QUEENS WHARF RD E,Toronto
1616,Midtown Toronto,339999,43.709068,-79.393547,#203 - 170 ROEHAMPTON AVE,Toronto
1617,Midtown Toronto,449000,43.699955,-79.387505,#207 - 245 DAVISVILLE AVE,Toronto
1618,Swansea,498000,43.636292,-79.470467,#2005 - 103 THE QUEENSWAY AVE,Toronto
1619,Midtown Toronto,599900,43.670319,-79.394432,#301 - 155 YORKVILLE AVE,Toronto
1620,Wallace Emerson,315000,43.665203,-79.447601,#411 - 812 LANSDOWNE AVE,Toronto
1621,Swansea,250000,43.636173,-79.470757,#3409 - 105 THE QUEENSWAY AVE,Toronto
1622,Swansea,345000,43.636292,-79.470467,#416 - 103 THE QUEENSWAY AVE,Toronto
1623,Downtown,899000,43.64613,-79.375778,#3805 - 8 THE ESPLANADE AVE,Toronto
1624,Parkwoods - Donalda,248800,43.752785,-79.332695,#614 - 18 VALLEY WOODS RD,Toronto
1625,Islington - City Centre West,538000,43.638737,-79.535606,#1949 - 25 VIKING LANE,Toronto
1626,Willowdale,698000,43.764442,-79.408936,#603 - 65 SPRING GARDEN AVE,Toronto
1627,Mimico,305000,43.622883,-79.481972,#4105 - 2200 LAKE SHORE BLVD,Toronto
1628,Islington - City Centre West,549000,43.650017,-79.52639,1803 - 1300 ISLINGTON Avenue,Toronto
1629,Humber Heights - Westmount,419900,43.684998,-79.515526,#1706 - 40 RICHVIEW RD,Toronto
1630,Mimico,469980,43.622883,-79.481972,#3007 - 2200 LAKE SHORE BLVD W,Toronto
1631,Richview,479900,43.677921,-79.556534,#607 - 140 WIDDICOMBE HILL BLVD,Toronto
1632,Humber Heights - Westmount,889000,43.697754,-79.524979,2229 LAWRENCE AVE W,Toronto
1633,Bridlewood,479999,43.793938,-79.318443,#50 - 100 BRIDLETOWNE CIRC,Toronto
1634,Agincourt,272900,43.777565,-79.281006,#820 - 135 VILLAGE GREEN SQ,Toronto
1635,Agincourt,325800,43.778103,-79.281586,#711 - 125 VILLAGE GREEN SQ,Toronto
1636,Milliken,329900,43.824017,-79.2771,#312 - 300 ALTON TOWERS CIRC,Toronto
1637,Hillcrest Village,390000,43.802334,-79.353668,#68 - 15 PEBBLE BYWAY WAY,Toronto
1638,Willowdale,529000,43.756294,-79.406532,#120 - 80 HARRISON GARDEN BLVD,Toronto
1639,Willowdale,548800,43.756294,-79.406532,#1026 - 80 HARRISON GARDEN BLVD,Toronto
1640,Willowdale,599900,43.757233,-79.404686,#1023 - 100 HARRISON GARDEN BLVD,Toronto
1641,Willowdale,459990,43.756668,-79.407768,#Ph02 - 51 HARRISON GARDEN BLVD,Toronto
1642,Henry Farm,269900,43.775208,-79.336426,#1609 - 2015 SHEPPARD AVE E,Toronto
1643,Downtown,1349000,43.641346,-79.372421,#815 - 39 QUEENS QUAY WAY E,Toronto
1644,Flemingdon Park,248500,43.711658,-79.324539,#909 - 5 VICORA LINKWAY WAY,Toronto
1645,Don Valley Village,398000,43.793056,-79.35228,#601 - 1555 FINCH AVE E,Toronto
1646,Flemingdon Park,314900,43.711529,-79.322899,#1110 - 60 PAVANE LINK WAY,Toronto
1647,Lawrence Heights,328888,43.714592,-79.452911,#1817 - 800 LAWRENCE AVE W,Toronto
1648,Toronto,589900,43.761299,-79.351776,#502 -50- 255 DUNCAN MILLS RD,Toronto
1649,White Haven,308000,43.789639,-79.253616,#801 - 4727 SHEPPARD AVE E,Toronto
1650,Willowdale,568000,43.760136,-79.40789,#1905 - 17 Anndale Dr,Toronto
1651,Little Portugal,929000,43.649033,-79.427734,169 Beaconsfield Ave,Toronto
1652,Woburn,349000,43.773827,-79.250023,#2202 - 88 Grangeway Ave,Toronto
1653,Niagara,553000,43.638512,-79.400894,#302 - 169 Fort York Blvd,Toronto
1654,Playter Estates,849000,43.678246,-79.359482,83 Cambridge Ave,Toronto
1655,Windfields,3488000,43.749664,-79.373573,28 COSMIC DR,Toronto
1656,Downsview,499900,43.726799,-79.522179,82 JOSEPH GRIFFITH LANE,Toronto
1657,Kennedy Park,647000,43.723759,-79.270348,17 MARTORINO DR,Toronto
1658,Leslieville,779900,43.669174,-79.317986,#Th7 - 96-104 Coxwell Ave,Toronto
1659,Dorset Park,190000,43.749035,-79.266685,#501 - 101 Prudential Dr,Toronto
1660,Leslieville,1588888,43.664227,-79.326431,1348 QUEEN ST E,Toronto
1661,Mount Dennis,480000,43.690044,-79.494453,39 Victoria Blvd,Toronto
1662,Lansing,558888,43.762424,-79.412827,#1002 - 33 ELMHURST AVE,Toronto
1663,Malvern,499000,43.79504,-79.234375,5688 SHEPPARD AVE E,Toronto
1664,Bendale,589800,43.751591,-79.247688,45 BARRYMORE RD,Toronto
1665,Downtown,499999,43.667976,-79.38855,#1501 - 1121 BAY ST,Toronto
1666,Newtonbrook,1880000,43.793953,-79.409225,977 Lillian St,Toronto
1667,Mount Dennis,350000,43.692898,-79.506203,#104 - 56 SIDNEY BELSEY CRES,Toronto
1668,Silverthorn,624880,43.681507,-79.465294,190 CHAMBERS AVE,Toronto
1669,Beechborough - Greenbrook,699000,43.696888,-79.476875,7 GREENBROOK DR,Toronto
1670,Oakwood Village,1459000,43.680222,-79.440544,206 LAUDER AVE,Toronto
1671,Midtown Toronto,529000,43.68705,-79.433083,185 ATLAS AVE,Toronto
1672,Eringate - Centennial - West Deane,259000,43.639858,-79.584564,#806 - 335 MILL RD,Toronto
1673,Etobicoke West Mall,288000,43.651909,-79.569687,#508 - 551 THE WEST MALL RD,Toronto
1674,Midtown Toronto,799900,43.707485,-79.39328,#1111 - 123 Eglinton Ave,Toronto
1675,Bendale,805000,43.758404,-79.257812,37 Stephenfrank Rd,Toronto
1676,Niagara,475000,43.636345,-79.404808,#502 - 215 Fort York Blvd,Toronto
1677,New Toronto,699000,43.604565,-79.518341,#3 - 300 New St,Toronto
1678,Downtown,410000,43.66592,-79.386963,#2204 - 44 ST JOSEPH ST,Toronto
1679,Downtown,599900,43.659328,-79.382675,#3103 - 386 YONGE ST,Toronto
1680,Downtown,714900,43.647224,-79.391098,#1711 - 21 WIDMER ST,Toronto
1681,Niagara,371999,43.637432,-79.401039,#630 - 20 BRUYERES MEWS,Toronto
1682,Little Italy,188000,43.658806,-79.422653,379 HARBORD ST,Toronto
1683,Little Portugal,1495000,43.645592,-79.428123,97 GLADSTONE AVE,Toronto
1684,Downtown,1288000,43.659328,-79.382675,#4910 - 386 YONGE ST,Toronto
1685,Eglinton East,629900,43.742371,-79.245285,1315 DANFORTH RD,Toronto
1686,The Beach,1099500,43.669735,-79.302055,#207 - 1960 QUEEN ST E,Toronto
1687,Downtown,539900,43.642872,-79.376221,#411 - 12 YONGE ST,Toronto
1688,Downtown,350000,43.652531,-79.373039,#901 - 120 LOMBARD ST,Toronto
1689,Downtown,329000,43.645985,-79.389938,#703 - 8 MERCER ST,Toronto
1690,Downtown,367500,43.645069,-79.390862,#601 - 270 WELLINGTON ST W,Toronto
1691,Upper Beaches,549900,43.685768,-79.291336,2373 GERRARD ST E,Toronto
1692,Davenport,618900,43.670906,-79.449074,#62 - 55 FOUNDRY AVE,Toronto
1693,Swansea,329900,43.636173,-79.470757,105 The Queensway Road,Toronto
1694,Downtown,1380000,43.662857,-79.376274,#Ph 6 - 130 CARLTON ST,Toronto
1695,Downtown,406000,43.645985,-79.389938,#2504 - 8 MERCER ST,Toronto
1696,Downtown,479000,43.645573,-79.398994,#708 - 10 MORRISON ST,Toronto
1697,Niagara,479000,43.637432,-79.401039,#629 - 20 BRUYERES MEWS,Toronto
1698,Downtown,169000,43.662125,-79.366859,401 PARLIAMENT AVE,Toronto
1699,Wallace Emerson,1075000,43.661148,-79.441711,66 EMERSON AVE,Toronto
1700,Downtown,385000,43.659824,-79.362724,#2308 - 225 SACKVILLE ST,Toronto
1701,Riverside,1250000,43.66016,-79.351418,9 KINTYRE AVE,Toronto
1702,Downtown,568888,43.641346,-79.372421,#1019 - 39 QUEENS QUAY E,Toronto
1703,Downtown,729900,43.656361,-79.357277,#211 - 510 KING ST E,Toronto
1704,Swansea,989000,43.648193,-79.479431,325 WINDERMERE AVE,Toronto
1705,Little Portugal,949000,43.649033,-79.427734,169 BEACONSFIELD AVE,Toronto
1706,Niagara,545000,43.636963,-79.404671,#1470 - 209 FORT YORK BLVD,Toronto
1707,Niagara,1924000,43.641808,-79.403,#520 /52- 62/64 NIAGARA ST,Toronto
1708,Downtown,469900,43.659824,-79.362724,#604 - 225 SACKVILLE ST,Toronto
1709,Midtown Toronto,424900,43.706425,-79.39222,#1002 - 83 REDPATH AVE,Toronto
1710,Swansea,499000,43.636173,-79.470757,#3403 - 105 THE QUEENSWAY,Toronto
1711,Downtown,480000,43.645695,-79.376144,#2003 - 1 THE ESPLANADE,Toronto
1712,Midtown Toronto,498000,43.675331,-79.397125,#209 - 170 AVENUE RD,Toronto
1713,Downtown,658000,43.656731,-79.383461,#2401 - 633 BAY ST,Toronto
1714,Davisville,968000,43.705597,-79.397453,#5105 - 2191 YONGE ST,Toronto
1715,Dufferin Grove,1900000,43.654331,-79.427017,476 DOVERCOURT RD,Toronto
1716,Grange Park,325000,43.653053,-79.390884,#423 - 89 MCCAUL ST,Toronto
1717,Niagara,319900,43.63665,-79.405701,#618 - 219 FORT YORK BLVD,Toronto
1718,Downtown,475000,43.667709,-79.386383,# 2407 - 75 ST NICHOLAS ST,Toronto
1719,Niagara,664900,43.643116,-79.405334,#406 - 78 TECUMSETH ST,Toronto
1720,Downtown,464900,43.641346,-79.372421,#1031 - 39 QUEENS QUAY E,Toronto
1721,Downtown,549900,43.638866,-79.398438,#4212 - 85 QUEENS WHARF RD,Toronto
1722,Niagara,489900,43.636963,-79.404671,#278 - 209 FORT YORK BLVD,Toronto
1723,Downtown,419900,43.647663,-79.390419,#1811 - 295 ADELAIDE ST W,Toronto
1724,The Beach,350000,43.670822,-79.297592,2052 QUEEN ST E,Toronto
1725,Little Portugal,379000,43.642963,-79.428223,#1805 - 11 PEEL AVE,Toronto
1726,Downtown,729000,43.669609,-79.384773,#518 - 35 HAYDEN ST,Toronto
1727,East Danforth,569900,43.681171,-79.317039,6 ROSEHEATH AVE,Toronto
1728,West Hill,1238000,43.766975,-79.178986,115 B HOMESTEAD RD,Toronto
1729,Willowdale,348800,43.761196,-79.408951,#900 - 33 SHEPPARD AVE,Toronto
1730,Newtonbrook,529000,43.780006,-79.450439,15 COACH LITEWAY WAY,Toronto
1731,Mimico,375000,43.62381,-79.488022,#2701 - 155 LEGION RD N,Toronto
1732,Bayview Woods - Steeles,1750000,43.802509,-79.390968,23 TARBERT RD,Toronto
1733,Harwood,40000,43.67535,-79.478867,#02 - 155 MCCORMACK ST,Toronto
1734,Guildwood,715000,43.743652,-79.20015,229 CATALINA DR,Toronto
1735,Willowdale,2450000,43.765537,-79.405388,130 SPRING GARDEN AVE,Toronto
1736,Briar Hill,549000,43.702183,-79.444046,14 DANESBURY AVE,Toronto
1737,Toronto,1089000,43.6357,-79.495644,106 BALLACAINE DR,Toronto
1738,Kingsview Village,99900,43.696312,-79.553864,#516 - 340 DIXON RD,Toronto
1739,Wilson Heights,284000,43.749321,-79.437149,#513 - 4200 BATHURST ST,Toronto
1740,Willowdale,999000,43.775955,-79.433769,216 B FINCH AVE,Toronto
1741,Bayview Village,298200,43.765289,-79.382339,#1107 - 3 REAN DR,Toronto
1742,West Hill,599900,43.757496,-79.192497,97 GALLOWAY RD,Toronto
1743,Downsview,235000,43.722858,-79.498878,1375 WILSON AVE,Toronto
1744,Birch Cliff,869000,43.686226,-79.269264,34 WHITE BIRCH RD,Toronto
1745,Mimico,339900,43.625542,-79.477242,#201 - 80 MARINE PARADE DR,Toronto
1746,Rexdale,304900,43.724766,-79.616486,#119 - 700 HUMBERWOOD BLVD,Toronto
1747,Armdale,449000,43.829632,-79.254021,#17 - 501 PASSMORE AVE,Toronto
1748,Jane and Finch,609000,43.754471,-79.522911,37 BLANEY CRES,Toronto
1749,Glen Park,192900,43.705845,-79.466965,#1105 - 50 LOTHERTON PKWY,Toronto
1750,Willowdale,399880,43.757996,-79.409592,#Uph03 - 1 AVONDALE AVE,Toronto
1751,Milliken,459000,43.810703,-79.302322,#737 - 1881 MCNICOLL AVE,Toronto
1752,Bayview Village,309990,43.765186,-79.38472,#409 - 17 BARBERRY PL,Toronto
1753,Nortown,2248800,43.72076,-79.425728,487 GLENGARRY AVE,Toronto
1754,Old East York,239900,43.696827,-79.293411,#504 - 3 MASSEY SQ,Toronto
1755,Agincourt,235000,43.781467,-79.278893,#3 - 50 WEYBRIGHT CRT,Toronto
1756,Bathurst Manor,1098888,43.765511,-79.458313,297 MAXWELL ST,Toronto
1757,Malvern,365000,43.795147,-79.238808,#104 - 1785 MARKHAM RD,Toronto
1758,Glen Park,207777,43.707066,-79.466217,#105 - 200 LOTHERTON PTWY,Toronto
1759,Mount Dennis,549000,43.685081,-79.485382,1021 WESTON RD,Toronto
1760,Malvern,529900,43.791267,-79.234779,#1207 - 29 ROSEBANK DR,Toronto
1761,Mimico,1579000,43.606827,-79.492538,7 DARTMOUTH CRES,Toronto
1762,Willowdale,478000,43.765842,-79.410057,#1918 - 35 HOLLYWOOD AVE,Toronto
1763,Mimico,320000,43.623661,-79.491394,#506 - 190 MANITOBA ST,Toronto
1764,Willowdale,309900,43.76556,-79.412804,#2105 - 4968 YONGE ST,Toronto
1765,Humber Bay,469900,43.624374,-79.485542,#1507 - 90 PARK LAWN RD,Toronto
1766,Rexdale,549900,43.739346,-79.575073,239 TAYSHAM CRES,Toronto
1767,Port Union,699900,43.777721,-79.137276,31 VESSEL CRES,Toronto
1768,Silverthorn,589000,43.692989,-79.474442,2071 KEELE ST,Toronto
1769,Malvern,228000,43.791725,-79.23687,#3 D - 6 ROSEBANK DR,Toronto
1770,Clairlea - Birchmount,634900,43.716999,-79.277588,67 PIDGEON ST,Toronto
1771,West Hill,399000,43.775135,-79.187401,36 AMIENS RD,Toronto
1772,Newtonbrook,339000,43.78434,-79.415443,#307 - 5795 YONGE ST,Toronto
1773,Bendale,305990,43.771385,-79.260765,#2205 - 115 OMNI DR,Toronto
1774,Woburn,155000,43.780998,-79.235863,#Uph02 - 885 PROGRESS AVE,Toronto
1775,West Hill,669900,43.760811,-79.18306,4 DUBARRY AVE,Toronto
1776,Hillcrest Village,1499000,43.803513,-79.351654,18 SHADBERRY DR,Toronto
1777,Mimico,799900,43.608631,-79.498894,70 STRUTHERS ST,Toronto
1778,Humber Bay,457000,43.624374,-79.485542,#2807 - 90 PARK LAWN RD,Toronto
1779,Leaside,1299900,43.711868,-79.3722,673 EGLINTON AVE E,Toronto
1780,Rexdale,569900,43.748493,-79.603745,34 HELMSDALE CRES,Toronto
1781,Humber Bay,370000,43.624374,-79.485542,#2515 - 90 PARK LAWN RD,Toronto
1782,Mimico,319900,43.624207,-79.488228,#2221 - 165 LEGION RD N,Toronto
1783,Don Valley Village,319000,43.791103,-79.357162,#812 - 177 LINUS RD,Toronto
1784,Downsview,199900,43.72578,-79.480759,602 2737 Keele Street,Toronto
1785,Willowdale,445000,43.770878,-79.411964,#209 - 238 DORIS AVE,Toronto
1786,Toronto,329900,43.824078,-79.273773,#104 - 80 ALTON TOWERS CIRC,Toronto
1787,Bendale,293000,43.773403,-79.254951,#1903 - 25 TOWN CENTRE CRT,Toronto
1788,New Toronto,248888,43.601498,-79.510078,#607 - 4 ELSINORE PATH,Toronto
1789,Downtown,469900,43.643948,-79.401474,#1109 - 629 KING ST W,Toronto
1790,Downtown,412900,43.668777,-79.383995,#3705 - 45 CHARLES ST E,Toronto
1791,Downtown,1108800,43.659534,-79.382828,#6016 - 388 YONGE ST,Toronto
1792,Willowdale,565000,43.769665,-79.41378,#812 - 5162 YONGE ST,Toronto
1793,Midtown Toronto,485800,43.672985,-79.387032,808 825 Church Street,Toronto
1794,Mimico,349900,43.624207,-79.488228,#1828 - 165 LEGION RD N,Toronto
1795,Eglinton East,699800,43.742512,-79.244614,12 PRINGDALE GARDEN CIRC,Toronto
1796,Bayview Village,358800,43.766094,-79.385582,#513 - 17 KENASTON GDNS,Toronto
1797,Downtown,422000,43.668777,-79.383995,#3108 - 45 CHARLES ST E,Toronto
1798,Mimico,399900,43.624969,-79.478081,#1510 - 59 ANNIE CRAIG DR,Toronto
1799,Downtown,556000,43.647514,-79.3927,#1706 - 101 PETER ST,Toronto
1800,Wilson Heights,529900,43.734478,-79.446472,#824 - 525 WILSON AVE,Toronto
1801,Downtown,398000,43.647816,-79.396873,#313 - 435 RICHMOND ST W,Toronto
1802,Downtown,495000,43.650372,-79.382347,#2709 - 70 TEMPERANCE ST,Toronto
1803,Old Town,380000,43.65406,-79.369118,#1309 - 320 RICHMOND ST E,Toronto
1804,Downtown,600000,43.641632,-79.38205,#4202 - 12 YORK ST,Toronto
1805,Willowdale,318000,43.766571,-79.392365,#809 - 1 Hycrest Ave,Toronto
1806,Weston,336800,43.701572,-79.520187,#2604 - 1 King St,Toronto
1807,Alderwood,848000,43.610023,-79.530464,260 Valermo Dr,Toronto
1808,Willowdale,789500,43.776798,-79.413834,21 BYNG AVE,Toronto
1809,Islington - City Centre West,314900,43.640293,-79.559761,#2410 - 5 Valhalla Inn Rd,Toronto
1810,Islington - City Centre West,289900,43.609993,-79.55748,#906 - 215 Sherway Gardens Rd,Toronto
1811,Central Waterfront,1588000,43.641346,-79.372421,#1202 - 39 QUEENS QUAY E,Toronto
1812,York Mills,443888,43.749531,-79.407188,#919 - 18 William Carson  Crescent,Toronto
1813,Earlscourt,518888,43.674404,-79.454514,#3 - 108 CALEDONIA PARK RD,Toronto
1814,Willowdale,392888,43.764893,-79.410446,#503 - 18 SPRING GARDEN AVE,Toronto
1815,Willowdale,338000,43.757355,-79.409355,#Lph05 - 18 HARRISON GARDEN BLVD,Toronto
1816,Ionview,385000,43.741142,-79.271408,#21 - 901 KENNEDY RD,Toronto
1817,Tam O'Shanter,458000,43.78149,-79.294304,#121 - 3765 SHEPPARD AVE E,Toronto
1818,Wexford,375000,43.733746,-79.305702,#202 - 1665 VICTORIA PARK AVE,Toronto
1819,Woburn,264900,43.780956,-79.249779,#1710 - 88 CORPORATE DR,Toronto
1820,Dorset Park,172000,43.769417,-79.28241,#406 - 2 GLAMORGAN AVE,Toronto
1821,L'Amoreaux,799000,43.807236,-79.303368,25 Fort Dearborn Dr,Toronto
1822,Mimico,575000,43.608696,-79.498596,64 STRUTHERS ST,Toronto
1823,Rexdale,99900,43.741695,-79.584373,1530 ALBION RD,Toronto
1824,Mimico,614700,43.619488,-79.488205,26 VICTORIA ST,Toronto
1825,Mimico,899000,43.617924,-79.508667,51 OURLAND AVE,Toronto
1826,Dorset Park,399900,43.742672,-79.282539,#2 - 1185 Birchmount Rd,Toronto
1827,Highland Creek,700000,43.795937,-79.179733,175 Calverley Tr,Toronto
1828,Bendale,699900,43.761173,-79.264542,55 MUNSON CRES,Toronto
1829,Agincourt,649900,43.810509,-79.286644,135 Alexmuir Blvd,Toronto
1830,Milliken,1029900,43.819481,-79.274834,20 ALANBULL SQ,Toronto
1831,Bridlewood,1158880,43.801292,-79.328476,54 DEERBROOK TR,Toronto
1832,Agincourt,880000,43.782043,-79.285095,21 COLLINGWOOD ST,Toronto
1833,Ionview,950000,43.737572,-79.2705,170 BERTRAND AVE,Toronto
1834,Islington - City Centre West,317000,43.644081,-79.5289,#504 - 5 MICHAEL POWER PL,Toronto
1835,Mimico,749900,43.628983,-79.477852,#Ph 8 - 2111 LAKE SHORE BLVD W,Toronto
1836,Mimico,749900,43.628983,-79.477852,PH 8 2111 Lake Shore Boulevard W,Toronto
1837,Agincourt,342000,43.777565,-79.281006,# 3323 - 135 VILLAGE GREEN SQ,Toronto
1838,Islington - City Centre West,295000,43.640285,-79.559464,#806 - 1 VALHALLA INN RD,Toronto
1839,Mimico,438000,43.62273,-79.483192,#2709 - 2220 LAKE SHORE BLVD,Toronto
1840,Mimico,449000,43.631355,-79.474609,#1102 - 2045 LAKE SHORE BLVD W,Toronto
1841,Liberty Village,335000,43.638573,-79.41375,#606 - 59 EAST LIBERTY ST,Toronto
1842,Liberty Village,329000,43.638607,-79.411858,#1812 - 51 EAST LIBERTY ST,Toronto
1843,Liberty Village,488800,43.638306,-79.414787,#1003 - 75 EAST LIBERTY ST,Toronto
1844,Bendale,38000,43.773312,-79.258728,#102 - 60 BRIAN HARRISON WAY,Toronto
1845,Highland Creek,1065900,43.791302,-79.158119,#Block1 - 6443 KINGSTON RD,Toronto
1846,Highland Creek,1040900,43.791302,-79.158119,#Block - 6443 KINGSTON RD,Toronto
1847,Bendale,274900,43.773312,-79.258728,#1608 - 60 BRIAN HARRISON WAY,Toronto
1848,Clairlea - Birchmount,730000,43.709938,-79.296143,1163 VICTORIA PARK AVE N,Toronto
1849,Rexdale,35000,43.734581,-79.605942,#105 - 19 WOODBINE DOWNS BLVD,Toronto
1850,Scarborough Junction,166500,43.72599,-79.265015,#332 - 665 KENNEDY RD,Toronto
1851,Scarborough Village,188900,43.744812,-79.214561,#906 - 3380 EGLINTON AVE E,Toronto
1852,Bendale,289900,43.773312,-79.258728,#3802 - 60 BRIAN HARRISON WAY,Toronto
1853,Milliken,319000,43.822525,-79.276451,#Ph109 - 330 ALTON TOWERS CIRC,Toronto
1854,Clairlea - Birchmount,699900,43.711819,-79.265274,73 NORTH WOODROW BLVD,Toronto
1855,Agincourt,229000,43.783657,-79.284416,#1103 - 4091 SHEPPARD AVE E,Toronto
1856,Wynford-Concorde,798050,43.723839,-79.337303,#503 -50- 18 WYNFORD DR,Toronto
1857,Long Branch,150000,43.595627,-79.529289,3436 Lakeshore Boulevard W,Toronto
1858,Wexford - Maryvale,849990,43.725372,-79.299263,Unit 19 4780 EGLINTON AVE,Toronto
1859,Mimico,361900,43.622883,-79.481972,#4502 - 2200 LAKESHORE BLVD W,Toronto
1860,Scarborough Village,199900,43.744297,-79.209541,#134 - 50 Scarborough Golf Clu Rd,Toronto
1861,Liberty Village,319000,43.638607,-79.411858,#303 - 51 EAST LIBERTY ST,Toronto
1862,Midtown Toronto,399000,43.670319,-79.394432,#418 - 155 YORKVILLE AVE,Toronto
1863,Henry Farm,359900,43.774895,-79.345955,#1705 - 70 FOREST MANOR RD,Toronto
1864,Brookhaven,206900,43.697231,-79.490097,#501 - 10 MARTHA EATON WAY,Toronto
1865,Parkwoods - Donalda,79000,43.742146,-79.314606,#2 - 1448 LAWRENCE AVE E,Toronto
1866,Hillcrest Village,394800,43.802334,-79.353668,#66 - 15 PEBBLE BYWAY WAY,Toronto
1867,Islington - City Centre West,395000,43.633957,-79.541298,5415 Dundas Street W,Toronto
1868,Englemount - Lawrence,448000,43.721115,-79.430847,#806 - 2 COVINGTON RD,Toronto
1869,Agincourt,365000,43.777565,-79.281006,#724 - 135 VILLAGE GREEN SQ,Toronto
1870,Rexdale,394900,43.722698,-79.602348,#311 - 840 QUEEN&#39;S PLATE DR,Toronto
1871,Englemount - Lawrence,959000,43.720905,-79.430969,#Ph205 - 8 COVINGTON RD,Toronto
1872,Liberty Village,519500,43.638607,-79.411858,#209 - 51 EAST LIBERTY ST,Toronto
1873,The Queensway,309000,43.623482,-79.516762,#816 - 1040 THE QUEENSWAY AVE,Toronto
1874,Parkdale,1050000,43.635376,-79.440872,Ph 4603 -2045 LAKE SHORE BLVD,Toronto
1875,Willowdale,399000,43.773746,-79.415512,#1808 - 68 CANTERBURY PL N,Toronto
1876,Agincourt,339000,43.778614,-79.281258,#1302 - 151 VILLAGE GREEN SQ,Toronto
1877,Bedford Park,575000,43.725037,-79.415611,#509 - 40 SYLVAN VALLEY WAY,Toronto
1878,Bridlewood,318000,43.798969,-79.320328,#1108 - 3131 BRIDLETOWNE CIRC,Toronto
1879,Henry Farm,496000,43.773529,-79.347641,#21 - 102 GEORGE HENRY BLVD,Toronto
1880,Willowdale,408000,43.757233,-79.404686,#326 - 100 HARRISON GARDEN BLVD,Toronto
1881,Bendale,358000,43.773312,-79.258728,#1804 - 60 BRIAN HARRISON WAY,Toronto
1882,Islington - City Centre West,323800,43.643925,-79.528885,#1906 - 1 MICHAEL POWER PL,Toronto
1883,Bendale,273000,43.773582,-79.258919,#605 - 50 BRIAN HARRISON WAY,Toronto
1884,Willowdale,540000,43.7561,-79.406914,#1012 - 78 HARRISON GARDEN BLVD,Toronto
1885,Bathurst Manor,409900,43.75106,-79.460693,#911 - 1030 SHEPPARD AVE W,Toronto
1886,Toronto,318000,43.826328,-79.273155,#704 - 150 ALTON TOWERS CIRC,Toronto
1887,Islington - City Centre West,219900,43.619194,-79.534035,1466 THE QUEENSWAY AVE,Toronto
1888,Willowdale,629000,43.768574,-79.389618,#520 - 399 SPRING GARDEN AVE,Toronto
1889,Toronto,449900,43.723991,-79.30246,#256 - 1496 VICTORIA PARK AVE,Toronto
1890,Eringate - Centennial - West Deane,345800,43.644711,-79.588692,#907 - 420 MILL RD,Toronto
1891,Eringate - Centennial - West Deane,269900,43.656895,-79.570404,#1208 - 714 THE WEST MALL RD,Toronto
1892,Humber Summit,174900,43.748459,-79.568283,#406 - 2825 ISLINGTON AVE,Toronto
1893,Lawrence Heights,359900,43.714592,-79.452911,#318 - 800 LAWRENCE AVE W,Toronto
1894,York University Heights,335000,43.750637,-79.465103,#610 - 1070 SHEPPARD AVE W,Toronto
1895,Islington - City Centre West,349900,43.638172,-79.536194,#2338 - 35 Viking Lane,Toronto
1896,Brookhaven,184900,43.697231,-79.490097,#706 - 10 Martha Eaton Way,Toronto
1897,Bayview Village,489000,43.765575,-79.386047,#1709 - 18 Kenaston Gdns,Toronto
1898,Willowdale,2998800,43.777824,-79.394302,118 Estelle Ave,Toronto
1899,Willowdale,302000,43.779659,-79.414589,#1803 - 22 Olive Ave,Toronto
1900,Woburn,275000,43.780956,-79.249779,#2819 - 88 Corporate Dr,Toronto
1901,Willowdale,409000,43.769257,-79.411339,#909 - 35 Empress Ave,Toronto
1902,Don Valley Village,1299000,43.785778,-79.365456,53 Cobblestone Dr,Toronto
1903,Bayview Village,359000,43.76498,-79.383522,#1806 - 1 Rean Dr,Toronto
1904,Humberlea,975000,43.729229,-79.534203,9 Isaac Devins Blvd,Toronto
1905,Willowdale,399900,43.776451,-79.414017,#2630 - 500 Doris Ave,Toronto
1906,Thorncliffe Park,190000,43.705597,-79.345993,#119 - 45 Overlea Blvd,Toronto
1907,Milliken,317000,43.822525,-79.276451,#1206 - 330 Alton Towers Circ,Toronto
1908,Niagara,287900,43.636963,-79.404671,#172 - 209 Fort York Blvd,Toronto
1909,Willowdale,299900,43.761154,-79.408836,#912 - 23 Sheppard Ave,Toronto
1910,Little Portugal,338000,43.641697,-79.423431,#1617 - 36 Lisgar St,Toronto
1911,New Toronto,599000,43.602879,-79.517662,99 Seventeenth St,Toronto
1912,Midtown Toronto,319000,43.689022,-79.402077,#804 - 581 Avenue Rd,Toronto
1913,L'Amoreaux,545000,43.810116,-79.313377,#8 - 29 Fundy Bay Blvd,Toronto
1914,Little Italy,69000,43.655296,-79.414032,596 College St,Toronto
1915,Bayview Village,1888000,43.781353,-79.388954,45 Canary Cres,Toronto
1916,Islington,369000,43.644779,-79.531929,#103 - 5101 Dundas St,Toronto
1917,Dorset Park,599000,43.752731,-79.277641,209 Ellendale Dr,Toronto
1918,Wexford - Maryvale,799000,43.763725,-79.311943,1571 Pharmacy Ave,Toronto
1919,Dorset Park,579000,43.755791,-79.28788,1465A Birchmount Rd,Toronto
1920,Earlscourt,99000,43.677418,-79.444275,1201 St Clair Ave,Toronto
1921,Downtown,512000,43.644173,-79.38942,#808 - 300 Front St,Toronto
1922,Niagara,329900,43.634632,-79.40139,#433 - 90 Stadium Rd,Toronto
1923,Woodbine Gardens,1895000,43.705692,-79.294601,1043 Victoria Park Ave,Toronto
1924,Central Waterfront,595900,43.642273,-79.372704,#321 - 29 Queens Quay,Toronto
1925,Niagara,410000,43.637035,-79.402863,#744 - 38 Grand Magazine St,Toronto
1926,Victoria Village,1088000,43.735703,-79.312378,174 Sloane Ave,Toronto
1927,Willowdale,618000,43.769665,-79.41378,#3206 - 5162 Yonge St,Toronto
1928,Humber Heights - Westmount,999888,43.697479,-79.520531,10 Vista Humber Dr,Toronto
1929,St. Andrew - Windfields,4499900,43.749847,-79.386124,216 Owen Blvd,Toronto
1930,Bendale,799900,43.758427,-79.259102,39 Lyon Heights Rd,Toronto
1931,The Danforth,649000,43.684208,-79.307358,123 Oakcrest Ave,Toronto
1932,Downtown,474900,43.640224,-79.39595,#755 - 10 Capreol Crt,Toronto
1933,Little Portugal,309900,43.641697,-79.423431,#1811W - 36 Lisgar St,Toronto
1934,Mimico,899000,43.627769,-79.478523,#908 - 2119 Lake Shore Blvd,Toronto
1935,Midtown Toronto,399000,43.708298,-79.39209,#Ph202 - 212 Eglinton Ave,Toronto
1936,Willowdale,465000,43.769665,-79.41378,#1001 - 5162 Yonge St,Toronto
1937,Dufferin Grove,1599000,43.654137,-79.424477,872 College St,Toronto
1938,Midtown Toronto,449000,43.696033,-79.395668,#2507 - 1815 Yonge St,Toronto
1939,Downtown,427500,43.638477,-79.397987,#2605 - 75 QUEENS WHARF RD,Toronto
1940,Midtown Toronto,149900,43.664047,-79.416756,680 BLOOR ST W,Toronto
1941,Dufferin Grove,1079000,43.65834,-79.425323,161 Concord Ave,Toronto
1942,High Park North,629500,43.653648,-79.467949,#704 - 20 GOTHIC AVE,Toronto
1943,Sherwood Park,489900,43.709553,-79.39827,#205 - 7 Broadway Ave,Toronto
1944,Niagara,309000,43.63715,-79.400604,#1105 - 15 BRUYERES MEWS,Toronto
1945,Downtown,539900,43.64286,-79.38073,#2001 - 65 Bremner Blvd,Toronto
1946,Midtown Toronto,675000,43.705635,-79.398087,#2211 - 2191 YONGE ST,Toronto
1947,Downtown,399000,43.640259,-79.381729,#2504 - 208 QUEENS QUAY W,Toronto
1948,Fashion District,339990,43.642097,-79.401573,#611 - 38 NIAGARA ST,Toronto
1949,Downtown,449500,43.665878,-79.403633,#602 - 736 SPADINA AVE,Toronto
1950,Downtown,353000,43.647514,-79.3927,#3205 - 101 PETER ST,Toronto
1951,Midtown Toronto,498000,43.687923,-79.38916,#902 - 20 AVOCA AVE,Toronto
1952,Downtown,849900,43.650604,-79.390419,11 ST PATRICKS SQ,Toronto
1953,Downtown,380000,43.657272,-79.40509,378 COLLEGE ST,Toronto
1954,The Beach Triangle,699900,43.672482,-79.309364,193 KINGSTON RD,Toronto
1955,Edenbridge - Humber Valley,2495000,43.675282,-79.520859,101 VALECREST DR,Toronto
1956,Downtown,89900,43.659237,-79.382904,#35 - 384 YONGE ST,Toronto
1957,Upper Beaches,598800,43.684193,-79.285645,496 Victoria Park Ave,Toronto
1958,Danforth Village,595000,43.691051,-79.291878,16 ELDON AVE,Toronto
1959,Downtown,588000,43.665749,-79.385513,#605 - 5 ST JOSEPH ST,Toronto
1960,Alderwood,1398000,43.60165,-79.546326,514 HORNER AVE,Toronto
1961,Bayview Village,55000,43.768501,-79.380798,662 SHEPPARD AVE E,Toronto
1962,Parkwoods - Donalda,275000,43.762363,-79.320976,#1002 - 1338 York Mills Rd,Toronto
1963,Dorset Park,599900,43.76022,-79.285583,75 Shropshire Dr,Toronto
1964,Scarborough Junction,995000,43.709301,-79.266144,525 Danforth Rd,Toronto
1965,West Humber Estates,649999,43.727283,-79.58503,10 Joshua Ave,Toronto
1966,Silverthorn,649000,43.693424,-79.471298,91 Lonborough Ave,Toronto
1967,Birch Cliff,839900,43.703812,-79.256386,146 Kennedy Rd,Toronto
1968,Malvern,149900,43.805328,-79.22023,#Ph206 - 99 Blackwell Ave,Toronto
1969,Leslieville,649000,43.673748,-79.327194,70 Glenside Ave,Toronto
1970,Davenport,699000,43.673634,-79.431572,71 Somerset Ave,Toronto
1971,Long Branch,1329000,43.595715,-79.524788,2A Twenty Seventh St,Toronto
1972,Downsview,512900,43.726418,-79.523224,133 Torbarrie Rd,Toronto
1973,New Toronto,749000,43.598137,-79.521706,16 Twenty Second St,Toronto
1974,Kennedy Park,619000,43.723442,-79.273499,48 Roebuck Dr,Toronto
1975,St. Andrew - Windfields,1995000,43.75679,-79.368561,20 Mellowood Dr,Toronto
1976,Central Waterfront,572900,43.641346,-79.372421,#1020 - 39 Queens Quay,Toronto
1977,The Beach,625000,43.674232,-79.307144,#105 - 60 Haslett Ave,Toronto
1978,Midtown Toronto,409900,43.685623,-79.409592,#715 - 6 Parkwood Ave,Toronto
1979,Leslieville,747400,43.667385,-79.334412,#6 - 175 Jones Ave,Toronto
1980,Downtown,357000,43.666752,-79.376236,#3706 - 120 HOMEWOOD AVE,Toronto
1981,High Park North,629500,43.653648,-79.467949,704 20 GOTHIC Avenue,Toronto
1982,Niagara,409900,43.637386,-79.418587,#405 - 5 HANNA AVE,Toronto
1983,Niagara,435000,43.63641,-79.402,#411 - 21 Grand Magazine St,Toronto
1984,Jane and Finch,668800,43.751919,-79.522057,238 Firgrove Cres,Toronto
1985,Downtown,800000,43.639683,-79.39212,#1909 - 35 Mariner Terr,Toronto
1986,The Queensway,998800,43.624474,-79.501793,523 C ROYAL YORK RD,Toronto
1987,Willowdale,359000,43.779987,-79.412735,#201 - 35 Finch Ave,Toronto
1988,The Elms,259900,43.729645,-79.547989,#823 - 28 Tandridge Cres,Toronto
1989,Wilson Heights,60000,43.731609,-79.458794,3616 DUFFERIN ST,Toronto
1990,Downsview,834900,43.733833,-79.461113,23 KATHERINE RD,Toronto
1991,York University Heights,946000,43.749916,-79.503555,12 FULWELL CRES,Toronto
1992,Newtonbrook,1880000,43.793953,-79.409225,977 LILLIAN ST,Toronto
1993,Milliken,868000,43.806877,-79.311211,50 STALEY TERR,Toronto
1994,Islington - City Centre West,405000,43.646942,-79.525818,#1501 - 7 MABELLE AVE,Toronto
1995,Mimico,579000,43.621063,-79.483322,#1206 - 2240 LAKE SHORE BLVD W,Toronto
1996,Wilson Heights,549900,43.734035,-79.447968,#E109 - 555 WILSON AVE W,Toronto
1997,Wilson Heights,549900,43.734035,-79.447968,#E109 - 555 WILSON AVE W,Toronto
1998,Downtown,421995,43.64613,-79.375778,#4308 - 8 THE ESPLANADE AVE,Toronto
1999,Willowdale,359900,43.756294,-79.406532,#1415 - 80 HARRISON GARDEN BLVD,Toronto
2000,Bendale,273900,43.773582,-79.258919,#1910 - 50 BRIAN HARRISON WAY,Toronto
2001,Kennedy Park,789000,43.735638,-79.250687,#Main - 2657 EGLINTON AVE E,Toronto
2002,Parkwoods - Donalda,179900,43.742146,-79.314606,#10 - 1448 LAWRENCE AVE E,Toronto
2003,Rexdale,350900,43.722698,-79.602348,#504 - 840 QUEEN&#39;S PLATE DR,Toronto
2004,Newtonbrook,1950000,43.801323,-79.403679,205 Steeles Ave,Toronto
2005,Roncesvalles Village,735000,43.650043,-79.444771,#112 - 363 SORAUREN AVE W,Toronto
2006,Midtown Toronto,635000,43.708324,-79.392746,#605 - 188 EGLINTON AVE E,Toronto
2007,The Queensway,474900,43.625931,-79.490524,#520 - 245 Dalesford Rd,Toronto
2008,Etobicoke West Mall,279900,43.651909,-79.569687,#1406 - 551 THE WEST MALL RD,Toronto
2009,Golden Mile,2799900,43.733063,-79.28968,939 Warden Ave,Toronto
2010,Islington - City Centre West,223500,43.646942,-79.525818,#708 A - 7 MABELLE AVE,Toronto
2011,Parkwoods - Donalda,338000,43.752785,-79.332695,#513 - 18 VALLEY WOODS RD,Toronto
2012,Woburn,394900,43.780956,-79.249779,#1404 - 88 Corporate Dr,Toronto
2013,Bayview Village,1600,43.766094,-79.385582,211 - 17 KENASTON Gardens,Toronto
2014,Islington - City Centre West,315900,43.640293,-79.559761,#2510 - 5 VALHALLA INN RD,Toronto
2015,Little Portugal,309900,43.641697,-79.423431,#1811W - 36 Lisgar St,Toronto
2016,Midtown Toronto,529000,43.683132,-79.419281,#1603 - 530 ST CLAIR AVE,Toronto
2017,Rouge,298000,43.802887,-79.169403,#808 - 10 Dean Park Rd,Toronto
2018,Downtown,734800,43.669643,-79.380608,#2801 - 101 Charles St,Toronto
2019,Old East York,159000,43.69614,-79.294983,#219 - 1 Massey Sq,Toronto
2020,Bracondale Hill,810000,43.675793,-79.430817,38 Winona Dr,Toronto
2021,Downtown,774800,43.669643,-79.380608,#4404 - 101 Charles St,Toronto
2022,Wexford - Maryvale,618000,43.767246,-79.306763,5 Armitage Dr,Toronto
2023,Brookhaven,189900,43.697231,-79.490097,#201 - 10 Martha Eaton Way,Toronto
2024,Silverstone,409800,43.74144,-79.598236,#32 - 452 Silverstone Dr,Toronto
2025,York University Heights,469900,43.766647,-79.502373,#4 - 375 Cook Rd,Toronto
2026,West Hill,80000,43.765911,-79.19754,##201 - 4062 Lawrence Ave,Toronto
2027,Agincourt,449000,43.799244,-79.282295,#11 - 90 Crockamhill Dr,Toronto
2028,Rexdale,259000,43.733341,-79.593048,#149 - 254 John Garland Blvd,Toronto
2029,Morningside,729999,43.789196,-79.218353,30 Gillbank Cres,Toronto
2030,Belgravia,2798800,43.696499,-79.447227,1728 Eglinton Ave,Toronto
2031,Downtown,924900,43.666897,-79.389038,#1704 - 65 ST MARY ST,Toronto
2032,Downtown,1688000,43.642578,-79.3769,#5201 - 16 HARBOUR ST,Toronto
2033,Downtown,375000,43.667915,-79.375679,#702 - 500 SHERBOURNE ST,Toronto
2034,Midtown Toronto,499000,43.675289,-79.389023,#901 - 980 YONGE ST,Toronto
2035,Midtown Toronto,5250000,43.700211,-79.423698,16 ROSEMARY LANE,Toronto
2036,Toronto,239900,43.640335,-79.424477,#1317 - 38 JOE SHUSTER WAY,Toronto
2037,Downtown,375000,43.65765,-79.376762,#863 - 155 DALHOUSIE ST,Toronto
2038,Lambton Baby Point,399900,43.648071,-79.486664,#728 - 2 OLD MILL DR,Toronto
2039,Nortown,2650000,43.734093,-79.42907,154 DUNBLAINE AVE,Toronto
2040,Eatonville,295000,43.639694,-79.563148,#728 - 2 EVA RD,Toronto
2041,Lansing,9000,43.760517,-79.411743,11 BOGERT AVE,Toronto
2042,Weston,199900,43.698143,-79.513771,#1410 - 1 HICKORY TREE RD,Toronto
2043,Eatonville,149000,43.647232,-79.530617,4986 DUNDAS ST W,Toronto
2044,Eatonville,99000,43.641918,-79.565247,385 THE WEST MALL,Toronto
2045,Willowdale,317000,43.774834,-79.413307,#1016 - 15 NORTHTOWN WAY,Toronto
2046,West Hill,2880000,43.758629,-79.197571,4151 KINGSTON RD,Toronto
2047,Bayview Village,329000,43.767746,-79.370918,#706 - 121 MCMAHON DR,Toronto
2048,Bridlewood,49000,43.796768,-79.315643,5745 FINCH AVE E,Toronto
2049,Ionview,699000,43.738369,-79.273857,99 IONVIEW RD,Toronto
2050,Newtonbrook,1500000,43.779987,-79.418968,18 GREENVIEW AVE,Toronto
2051,Humber Heights - Westmount,848000,43.688129,-79.523537,143 RENAULT CRES,Toronto
2052,Rouge,899900,43.794567,-79.139496,#22 - 67 KIRKDENE DR,Toronto
2053,Mimico,520000,43.630383,-79.476273,#1904 - 3 MARINE PARADE DR,Toronto
2054,Emery,94900,43.749187,-79.542702,#806 - 3390 WESTON RD,Toronto
2055,West Hill,425000,43.764301,-79.198959,139 OVERTURE RD E,Toronto
2056,Bridlewood,658000,43.796352,-79.323875,74 HUNTINGDALE BLVD,Toronto
2057,Etobicoke West Mall,749000,43.644119,-79.571426,36 TUNBRIDGE CRES,Toronto
2058,Bayview Village,329000,43.769569,-79.369514,#1207 - 19 SINGER CRT,Toronto
2059,West Hill,199900,43.76638,-79.197601,#214 - 4064 LAWRENCE AVE,Toronto
2060,Bayview Village,349900,43.769569,-79.369514,#219 - 19 SINGER CRT,Toronto
2061,Wilson Heights,1788000,43.748413,-79.456345,264 REINER RD,Toronto
2062,Humber Heights - Westmount,698800,43.68832,-79.514221,548 B SCARLETT RD,Toronto
2063,Bayview Village,699900,43.769741,-79.369698,#Th05 - 25 SINGER CRT,Toronto
2064,The Queensway,1524000,43.629078,-79.510864,64 EDGECROFT RD,Toronto
2065,Emery,649900,43.74855,-79.532745,#10 - 800 ARROW RD,Toronto
2066,Henry Farm,339000,43.774895,-79.345955,#208 - 70 FOREST MANOR RD,Toronto
2067,Midtown Toronto,799999,43.687363,-79.436615,120 CEDRIC AVE,Toronto
2068,Old East York,235000,43.69614,-79.294983,#1604 - 1 MASSEY SQ,Toronto
2069,Don Valley Village,325000,43.791103,-79.357162,#406 - 177 LINUS RD,Toronto
2070,Glen Park,367777,43.707157,-79.467438,165 LOTHERTON PTWY,Toronto
2071,Old East York,299150,43.696674,-79.329353,1026 COXWELL AVE,Toronto
2072,Scarborough Village,3750000,43.741859,-79.213867,3474 KINGSTON RD,Toronto
2073,Willowdale,530000,43.778126,-79.425117,#B28 - 108 FINCH AVE W,Toronto
2074,Midtown Toronto,469000,43.673172,-79.389687,#308 - 32 DAVENPORT RD,Toronto
2075,Downtown,708000,43.641788,-79.381874,#6605 - 14 YORK ST,Toronto
2076,Earlscourt,399888,43.678635,-79.444672,#502 - 26 NORTON AVE,Toronto
2077,Downtown,108000,43.648415,-79.383224,#4 - 130 KING ST W,Toronto
2078,Downtown,325000,43.668785,-79.384766,#1004 - 33 CHARLES ST E,Toronto
2079,Willowdale,515000,43.776424,-79.41581,#Ph 12 - 5444 Yonge St,Toronto
2080,West Hill,1488000,43.773514,-79.178856,46 Orchard Park Dr,Toronto
2081,L'Amoreaux,1198000,43.793007,-79.300484,22 Harfleur Rd,Toronto
2082,Long Branch,399900,43.594379,-79.532631,#317 - 3531 Lake Shore Blvd,Toronto
2083,Old East York,415000,43.692848,-79.292099,77 Dentonia Park Ave,Toronto
2084,Bridlewood,199900,43.798306,-79.314674,#1004 - 100 Echo Point Pt,Toronto
2085,Silverthorn,649900,43.680458,-79.46653,676 Old Weston Rd,Toronto
2086,Bridle Path,14395000,43.741295,-79.377724,35 Country Lane,Toronto
2087,Dorset Park,239000,43.764439,-79.288757,#839 - 18 Mondeo Dr,Toronto
2088,Agincourt,239700,43.779205,-79.281517,#819 - 181 Village Green Sq,Toronto
2089,Don Valley Village,899900,43.793076,-79.350105,683 Seneca Hill Dr,Toronto
2090,Willowdale,459900,43.765537,-79.413155,#2016 - 155 Beecroft Rd,Toronto
2091,Belgravia,2798800,43.696499,-79.447227,1728 Eglinton Ave,Toronto
2092,Little Portugal,145000,43.649624,-79.433273,1543 DUNDAS ST W,Toronto
2093,Leslieville,999000,43.674004,-79.32235,337 ASHDALE AVE,Toronto
2094,Downtown,379800,43.637386,-79.398201,#2903 - 38 DAN LECKIE WAY,Toronto
2095,Davisville,399000,43.705597,-79.397453,#3612 - 2191 YONGE ST,Toronto
2096,Riverside,1250000,43.66016,-79.351418,9 A KINTYRE AVE,Toronto
2097,Nortown,199000,43.728687,-79.431671,3499 BATHURST ST,Toronto
2098,Midtown Toronto,765000,43.690857,-79.438042,238 CEDRIC AVE,Toronto
2099,Eglinton East,259000,43.735638,-79.246964,1071 DANFORTH RD,Toronto
2100,Downsview,169000,43.737915,-79.51136,#141 - 2645 JANE ST,Toronto
2101,Hillcrest Village,298000,43.799194,-79.368896,5925 LESLIE ST,Toronto
2102,Bendale,263900,43.772751,-79.260788,#701 - 83 BOROUGH DR,Toronto
2103,Downsview,534900,43.727352,-79.511032,67 NEAMES CRES,Toronto
2104,Woodbine Heights,1350000,43.694092,-79.320419,105 HOLBORNE AVE,Toronto
2105,Nortown,3098000,43.732269,-79.428207,96 BANNOCKBURN AVE,Toronto
2106,Lansing,625000,43.760517,-79.411743,#3108 - 11 BOGERT AVE,Toronto
2107,Mimico,949000,43.617924,-79.508667,51 OURLAND AVE,Toronto
2108,St. Andrew - Windfields,7395000,43.754295,-79.387703,12 FIFESHIRE RD,Toronto
2109,High Park North,549000,43.654373,-79.46788,#1908 - 50 Quebec Ave,Toronto
2110,Rockcliffe - Smythe,674900,43.67289,-79.500313,80 EDINBOROUGH CRT,Toronto
2111,Windfields,9998880,43.745796,-79.377312,37 MISTY CRES,Toronto
2112,Rexdale,79900,43.747585,-79.579842,#807 - 40 Panorama Crt,Toronto
2113,Mimico,324500,43.62434,-79.491203,#521 - 200 MANITOBA ST,Toronto
2114,West Hill,618000,43.761448,-79.184669,25 WAGNER DR,Toronto
2115,Downtown,868000,43.660103,-79.385086,#3005 - 763 Bay St,Toronto
2116,Downsview,162500,43.72578,-79.480759,#413 - 2737 KEELE ST,Toronto
2117,Dorset Park,50000,43.75869,-79.288948,1515 Birchmount Rd,Toronto
2118,Agincourt,259000,43.807091,-79.265533,#903 - 2627 MCCOWAN RD,Toronto
2119,Flemingdon Park,299000,43.711529,-79.322899,#1506 - 60 Pavane Link Way,Toronto
2120,Downtown,489000,43.647663,-79.390419,#1706 - 295 ADELAIDE ST W,Toronto
2121,Richview,849000,43.686066,-79.559258,19 TYNEVALE DR,Toronto
2122,Willowdale,315000,43.778786,-79.417908,#109 - 509 BEECROFT RD,Toronto
2123,Downtown,350000,43.640224,-79.39595,#1603 - 10 CAPREOL CRT,Toronto
2124,Eglinton East,95000,43.735638,-79.246964,#2 - 1071 DANFORTH RD,Toronto
2125,Earlscourt,1190000,43.679775,-79.448845,90 EARLSCOURT AVE,Toronto
2126,Agincourt,639000,43.806854,-79.28157,25 NEWDAWN CRES,Toronto
2127,Downtown,569000,43.666752,-79.376236,#3007 - 120 HOMEWOOD AVE,Toronto
2128,Midtown Toronto,2175000,43.685131,-79.410416,1 292 St. Clair Avenue,Toronto
2129,Amesbury,99000,43.705917,-79.488579,#3 - 1575 LAWRENCE AVE,Toronto
2130,Swansea,419900,43.63905,-79.472717,#1401 - 45 SOUTHPORT ST,Toronto
2131,Englemount - Lawrence,2399000,43.725357,-79.443275,151 REGINA AVE,Toronto
2132,Downtown,375000,43.65765,-79.376762,#863 - 155 DALHOUSIE STREET,Toronto
2133,Downtown,515000,43.644173,-79.38942,#1813 - 300 FRONT ST W,Toronto
2134,Mimico,379900,43.624306,-79.480461,#904 - 2175 LAKE SHORE BLVD,Toronto
2135,Nortown,429000,43.739883,-79.424202,#908 - 271 RIDLEY BLVD,Toronto
2136,Leaside,2399000,43.709038,-79.364014,205 RANDOLPH RD,Toronto
2137,Kennedy Park,780000,43.72179,-79.256012,777 DANFORTH RD,Toronto
2138,Downsview,219000,43.72578,-79.480759,#610 - 2737 KEELE ST,Toronto
2139,Malvern,189000,43.794353,-79.237694,#706 - 5580 SHEPPARD AVE,Toronto
2140,Bendale,284900,43.773403,-79.254951,#707 - 25 TOWN CENTRE CRT,Toronto
2141,Newtonbrook,199000,43.780952,-79.415672,5637 YONGE ST,Toronto
2142,Mimico,405999,43.624969,-79.478081,#613 - 59 ANNIE CRAIG DR,Toronto
2143,Jane and Finch,1158000,43.744011,-79.491524,#4819 - 5 SHEPPARD AVE,Toronto
2144,Don Mills,359000,43.732933,-79.346291,#510 - 85 THE DONWAY W,Toronto
2145,Henry Farm,299999,43.774895,-79.345955,#319 - 70 FOREST MANOR RD,Toronto
2146,Woburn,288000,43.773827,-79.250023,#2710 - 88 GRANGEWAY AVE,Toronto
2147,Malvern,599888,43.806599,-79.20974,49 JOHN TABOR TR,Toronto
2148,Toronto,409000,43.761047,-79.410904,#120 - 4750 YONGE ST,Toronto
2149,Long Branch,35000,43.601154,-79.524414,#A117 - 10 CARNATION AVE,Toronto
2150,Newtonbrook,468888,43.784462,-79.445152,23 CANDY COURT WAY,Toronto
2151,Bendale,297900,43.773346,-79.256149,#1406 - 60 TOWN CENTRE CRT,Toronto
2152,Bayview Village,338800,43.767746,-79.370918,#1010 - 121 MCMAHON DR,Toronto
2153,Malvern,469000,43.792038,-79.234344,#510 - 19 ROSEBANK DR,Toronto
2154,Willowdale,585000,43.769665,-79.41378,#1005 - 5162 YONGE ST,Toronto
2155,Newtonbrook,329000,43.781662,-79.414391,#802 - 7 BISHOP AVE,Toronto
2156,Willowdale,393800,43.763969,-79.407013,#2308 - 88 SHEPPARD AVE E,Toronto
2157,Markland Wood,1554900,43.634731,-79.565956,4229 BLOOR ST W,Toronto
2158,Victoria Village,448000,43.729931,-79.328445,#2608 - 7 CONCORDE PL,Toronto
2159,Leaside,1847000,43.718571,-79.375565,#Th 17 - 21 BURKEBROOK PL,Toronto
2160,West Hill,272900,43.768715,-79.188751,#110 - 4434 KINGSTON RD,Toronto
2161,Jane and Finch,49900,43.75193,-79.516251,#2 - 2857 JANE ST,Toronto
2162,Jane and Finch,509000,43.743279,-79.521927,130 LAURA RD,Toronto
2163,Tam O'Shanter,499900,43.7897,-79.30526,#17 - 671 HUNTINGWOOD DR,Toronto
2164,Newtonbrook,392990,43.780464,-79.447006,#2706 - 80 ANTIBES DR,Toronto
2165,Downtown,347900,43.666142,-79.370033,#502 - 15 LA ROSE AVE,Toronto
2166,Humber Summit,549900,43.75555,-79.568619,2919 ISLINGTON AVE,Toronto
2167,Humber Bay,549000,43.624073,-79.484917,#2111 - 88 PARK LAWN RD,Toronto
2168,Don Mills,488000,43.739239,-79.344574,#412 - 1200 DON MILLS RD,Toronto
2169,Toronto,69900,43.741722,-79.261139,1055 MIDLAND AVE,Toronto
2170,New Toronto,1950000,43.601955,-79.524384,1 WHITLAM AVE,Toronto
2171,Willowdale,1568000,43.77507,-79.390251,405 KINGSDALE AVE,Toronto
2172,Newtonbrook,299000,43.795685,-79.422287,#K-09 - 6464 YONGE ST,Toronto
2173,Wexford - Maryvale,1399000,43.740005,-79.295784,66 WAYNE AVE,Toronto
2174,Agincourt,69900,43.788841,-79.262466,4571 SHEPPARD AVE E,Toronto
2175,Agincourt,1658000,43.784622,-79.27005,24 MURRAY AVE,Toronto
2176,Rexdale,299000,43.73069,-79.611,#414 - 6 HUMBERLINE DR,Toronto
2177,Emery,124900,43.749187,-79.542702,#303 - 3390 WESTON RD,Toronto
2178,Willowdale,579000,43.763882,-79.410576,#1807 - 30 GREENFIELD AVE,Toronto
2179,Mimico,918800,43.624969,-79.478081,#3603 - 59 ANNIE CRAIG DR,Toronto
2180,Willowdale,399888,43.760464,-79.410248,#1304 - 2 ANNDALE DR,Toronto
2181,Bayview Village,289999,43.766068,-79.382774,#1513 - 8 REAN DR,Toronto
2182,Midtown Toronto,499900,43.703773,-79.399658,#910 - 60 BERWICK AVE,Toronto
2183,Downtown,389990,43.647663,-79.390419,#405 - 295 ADELAIDE ST W,Toronto
2184,The Beach,849000,43.670216,-79.306679,109 DIXON AVE,Toronto
2185,Downtown,375000,43.65765,-79.376762,# 863 - 155 DALHOUSIE ST,Toronto
2186,Downtown,344900,43.660149,-79.360886,#601 - 170 SUMACH ST,Toronto
2187,Midtown Toronto,7899000,43.669788,-79.391121,#608 - 10 BELLAIR ST,Toronto
2188,Trinity - Bellwoods,2990000,43.650017,-79.406174,81 MARKHAM ST,Toronto
2189,Riverdale,799000,43.676186,-79.343529,613 PAPE AVE,Toronto
2190,The Danforth,649000,43.684208,-79.307358,123 OAKCREST AVE,Toronto
2191,Parkdale,329900,43.642883,-79.430664,#410 - 24 NOBLE ST,Toronto
2192,Downtown,589900,43.652222,-79.370872,#1105 - 105 GEORGE ST,Toronto
2193,Woodbine - Lumsden,170000,43.687359,-79.306374,2360 DANFORTH AVE,Toronto
2194,Midtown Toronto,899900,43.672985,-79.387032,#1707 - 825 CHURCH ST,Toronto
2195,Midtown Toronto,469900,43.670319,-79.394432,#1706 - 155 YORKVILLE AVE,Toronto
2196,Riverdale,549900,43.677757,-79.351578,402 DANFORTH AVE,Toronto
2197,Trinity - Bellwoods,885000,43.647091,-79.407379,5 EUCLID PL,Toronto
2198,Downtown,549000,43.659328,-79.382675,#1413 - 386 YONGE ST,Toronto
2199,Downtown,699000,43.650394,-79.392609,#B326 - 18 BEVERLEY ST,Toronto
2200,Midtown Toronto,549900,43.686676,-79.399445,#922 - 111 ST CLAIR AVE W,Toronto
2201,North Toronto,2088000,43.729858,-79.402557,12 ROSLIN AVE,Toronto
2202,Downtown,699900,43.665749,-79.385513,#1907 - 5 ST JOSEPH ST,Toronto
2203,Leslieville,499000,43.66893,-79.319023,116 RHODES AVE,Toronto
2204,Downtown,465000,43.667709,-79.386383,#311 - 75 ST NICHOLAS ST,Toronto
2205,Downtown,52500,43.655846,-79.389366,522 UNIVERSITY AVE,Toronto
2206,Downtown,424900,43.642567,-79.393463,#3309 - 397 FRONT ST W,Toronto
2207,Downtown,339900,43.647167,-79.397346,#601 - 32 CAMDEN ST,Toronto
2208,Riverdale,1285000,43.669533,-79.349068,89 RIVERDALE AVE,Toronto
2209,Rexdale,149000,43.752876,-79.624969,21 SIGNAL HILL AVE,Toronto
2210,West Hill,849800,43.762257,-79.177025,44 HOMESTEAD RD,Toronto
2211,Humber Bay,569000,43.624073,-79.484917,#2011 - 88 PARK LAWN RD,Toronto
2212,Willowdale,365900,43.775902,-79.413261,#2414 - 10 NORTHTOWN WAY,Toronto
2213,Brookhaven - Amesbury,3450000,43.705173,-79.473534,36 MILFORD AVE,Toronto
2214,Toronto,189000,43.735214,-79.25843,#612 - 915 MIDLAND AVE,Toronto
2215,Downtown,458000,43.659824,-79.362724,#1909 - 225 SACKVILLE ST,Toronto
2216,Downtown,625800,43.646248,-79.394531,#1205 - 25 OXLEY ST,Toronto
2217,Downtown,489900,43.637062,-79.396721,#1027 - 550 QUEENS QUAY,Toronto
2218,Old East York,849000,43.693871,-79.303078,160 BARRINGTON AVE,Toronto
2219,Bendale,848800,43.770111,-79.251701,36 STANWELL DR,Toronto
2220,Niagara,405000,43.641735,-79.41449,#602 - 1000 KING ST W,Toronto
2221,Downsview,560000,43.726364,-79.512314,19 NEAMES CRES,Toronto
2222,Bendale,288000,43.773689,-79.255424,#805 - 70 TOWN CENTRE CRT,Toronto
2223,The Beach,1984095,43.674515,-79.281937,95 NEVILLE PARK BLVD,Toronto
2224,The Junction,1600000,43.664932,-79.45961,2710 DUNDAS ST W,Toronto
2225,Midtown Toronto,2869000,43.713642,-79.418823,186 STRATHALLAN BLVD,Toronto
2226,Willowdale,498800,43.774658,-79.412415,#508 - 88 GRANDVIEW WAY,Toronto
2227,Downtown,669000,43.669456,-79.387474,#1008 - 35 BALMUTO ST,Toronto
2228,Toronto,799000,43.653225,-79.383186,618 O&#39;CONNOR DR,Toronto
2229,Little Portugal,429000,43.642391,-79.424736,#1005 - 68 ABELL ST,Toronto
2230,Newtonbrook,399000,43.781662,-79.414391,#910 - 7 BISHOP AVE,Toronto
2231,Downtown,569000,43.647224,-79.391098,#2304 - 21 WIDMER ST,Toronto
2232,Dorset Park,199900,43.749035,-79.266685,#1608 - 101 PRUDENTIAL DR,Toronto
2233,Downtown,369888,43.638866,-79.398438,#523 - 85 QUEENS WHARF RD,Toronto
2234,Downtown,401500,43.644783,-79.362793,#243 - 15 MERCHANTS WHARF,Toronto
2235,Niagara,399900,43.641579,-79.415901,#623 - 1030 KING ST W,Toronto
2236,The Queensway,340800,43.621746,-79.521469,#519 - 1185 THE QUEENSWAY,Toronto
2237,Midtown Toronto,629000,43.689011,-79.400002,#2 - 105 HEATH ST W,Toronto
2238,Bathurst Manor,999999,43.754963,-79.45652,248 CODSELL AVE,Toronto
2239,Downtown,399000,43.642654,-79.393059,#1509 - 381 FRONT ST W,Toronto
2240,Woodbine Heights,899000,43.685608,-79.313934,2048 DANFORTH AVE,Toronto
2241,White Haven,599000,43.790421,-79.252586,36 GLENSTROKE DR,Toronto
2242,Agincourt,449000,43.799244,-79.282295,#11 - 90 CROCKAMHILL DR,Toronto
2243,Downtown,619000,43.661793,-79.384506,#4909 - 21 GRENVILLE ST,Toronto
2244,Rockcliffe - Smythe,489500,43.6679,-79.496674,41 BERNICE CRES,Toronto
2245,Downtown,558000,43.644173,-79.38942,#3503 - 300 FRONT ST W,Toronto
2246,Danforth Village,479900,43.690968,-79.292603,5 WEYMOUTH AVE,Toronto
2247,Midtown Toronto,1299000,43.671864,-79.393814,#2 B - 36 HAZELTON AVE,Toronto
2248,Golden Mile,609900,43.72538,-79.299232,#1 - 2792 EGLINTON AVE E,Toronto
2249,Downtown,506000,43.638477,-79.397987,#618 - 75 QUEENS WHARF RD,Toronto
2250,Bayview Village,459900,43.76498,-79.383522,#1308 - 1 REAN DR,Toronto
2251,Downtown,2350000,43.663265,-79.371582,179 CARLTON ST,Toronto
2252,Nortown,1488000,43.721424,-79.42041,364 LAWRENCE AVE W,Toronto
2253,Swansea,410000,43.636818,-79.47419,#116 - 1 RIPLEY AVE,Toronto
2254,Humber Summit,599073,43.754013,-79.562782,73 GOLDSBORO RD,Toronto
2255,Earlscourt,99000,43.677418,-79.444275,1201 ST CLAIR AVE W,Toronto
2256,Bayview Village,1050000,43.767426,-79.37751,49 CARACAS RD,Toronto
2257,Wynford-Concorde,580500,43.723839,-79.337303,#619 -62- 18 WYNFORD DR,Toronto
2258,Silverthorn,599000,43.69495,-79.468224,7 COLFAX ST,Toronto
2259,Willowdale,399999,43.757408,-79.406853,#938 - 5 EVERSON DR,Toronto
2260,Milliken,588000,43.801727,-79.302101,129 SILVER SPRINGS BLVD,Toronto
2261,Flemingdon Park,310000,43.711494,-79.330009,#211 - 50 SUNNY GLENWAY WAY,Toronto
2262,L'Amoreaux,545000,43.810116,-79.313377,#8 - 29 FUNDY BAY BLVD,Toronto
2263,Humber Bay Shores,530000,43.626965,-79.478485,#3507 - 16 BROOKERS LANE,Toronto
2264,Rexdale,124900,43.722031,-79.543945,#1502 - 236 ALBION RD,Toronto
2265,Islington - City Centre West,419900,43.609573,-79.557335,#1505 - 205 SHERWAY GARDENS RD,Toronto
2266,Bayview Village,435000,43.769611,-79.368416,#2302 - 33 SINGER CRT,Toronto
2267,Edenbridge - Humber Valley,3475000,43.677654,-79.52076,80 NORTH DR,Toronto
2268,Pelmo Park,517000,43.709682,-79.534584,1 CARDELL AVE N,Toronto
2269,Newtonbrook,1728000,43.790466,-79.401352,106 MAXOME AVE,Toronto
2270,Woburn,599900,43.771046,-79.209915,959 BRIMORTON DR,Toronto
2271,Dorset Park,599900,43.76022,-79.285583,75 SHROPSHIRE DR,Toronto
2272,Riverdale,849900,43.6828,-79.347855,217 BROWNING AVE,Toronto
2273,Toronto,149900,43.747116,-79.436508,4134 BATHURST ST,Toronto
2274,Rexdale,407500,43.727741,-79.577362,#Ph 4 - 80 Esther Lorrie Dr,Toronto
2275,Willowdale,588000,43.760464,-79.410248,#911 - 2 ANNDALE DR,Toronto
2276,Davenport,699000,43.673634,-79.431572,71 SOMERSET AVE,Toronto
2277,Willowdale,369900,43.756668,-79.407768,#809 - 51 HARRISON GARDEN BLVD,Toronto
2278,Midtown Toronto,1348000,43.711784,-79.43515,90 GLEN PARK AVE,Toronto
2279,Scarborough Junction,995000,43.709301,-79.266144,525 DANFORTH RD,Toronto
2280,Willowdale,496000,43.770878,-79.411964,#1209 - 238 DORIS AVE,Toronto
2281,Downtown,474900,43.640224,-79.39595,#755 - 10 CAPREOL CRT,Toronto
2282,Rexdale,285000,43.74955,-79.58075,#203 - 203-5 ROWNTREE RD,Toronto
2283,Mimico,105000,43.615341,-79.492996,170 THE QUEENS WAY,Toronto
2284,Entertainment District,589900,43.641491,-79.382607,#715 - 19 GRAND TRUNK CRES,Toronto
2285,Dorset Park,80000,43.751286,-79.265739,# 201 - 4062 LAWRENCE AVE E,Toronto
2286,Silverstone,409800,43.74144,-79.598236,#32 - 452 SILVERSTONE DR,Toronto
2287,Regal Heights,1300000,43.675892,-79.441948,1593 DUFFERIN ST,Toronto
2288,Highland Creek,2350000,43.797825,-79.169319,133 ZAPH AVE,Toronto
2289,Midtown Toronto,7800000,43.677525,-79.418228,82 WYCHWOOD PARK,Toronto
2290,Rexdale,349900,43.73735,-79.601723,#206 - 101 WESTMORE DR,Toronto
2291,Scarborough Junction,159500,43.72599,-79.265015,#309 - 665 KENNEDY RD,Toronto
2292,Wexford - Maryvale,799000,43.763725,-79.311943,1571 PHARMACY AVE,Toronto
2293,Niagara,329900,43.63665,-79.405701,#2306 - 219 FORT YORK BLVD,Toronto
2294,Niagara,345000,43.643291,-79.404724,#903 - 725 KING ST,Toronto
2295,Downtown,399900,43.639343,-79.399841,#2111 - 170 FORT YORK BLVD,Toronto
2296,Willowdale,439000,43.765579,-79.41259,#2505 - 4978 YONGE ST,Toronto
2297,Milliken,699000,43.811516,-79.280769,9 DANJOHN CRES,Toronto
2298,Downtown,1900000,43.6404,-79.392075,#Ph02 - 10 NAVY WHARF CRT,Toronto
2299,Downtown,384900,43.642654,-79.393059,#901 - 381 FRONT ST W,Toronto
2300,Bayview Village,1888000,43.781353,-79.388954,45 CANARY CRES,Toronto
2301,Pleasant View,379900,43.792374,-79.336693,#102 - 165 CHEROKEE BLVD,Toronto
2302,Trinity - Bellwoods,149900,43.649124,-79.420975,220 OSSINGTON AVE,Toronto
2303,Long Branch,150000,43.595627,-79.529289,3436 LAKE SHORE BLVD W,Toronto
2304,Downtown,415000,43.670547,-79.380585,#807 - 28 TED ROGERS WAY,Toronto
2305,Mimico,1050000,43.631355,-79.474609,#3305 - 2045 LAKE SHORE BLVD W,Toronto
2306,Downtown,725000,43.662407,-79.385941,#3306 - 37 GROSVENOR ST,Toronto
2307,Port Union,89900,43.789452,-79.14077,297 PORT UNION RD,Toronto
2308,Riverdale,779000,43.665936,-79.350891,630 GERRARD ST E,Toronto
2309,Humber Summit,649900,43.757236,-79.568275,42 SEACLIFF BLVD,Toronto
2310,East Danforth,699900,43.682163,-79.322914,659 COXWELL AVE,Toronto
2311,Milliken,619000,43.819019,-79.280113,37 PHALEN CRES,Toronto
2312,Downtown,389900,43.660152,-79.364891,#1906 - 25 COLE ST,Toronto
2313,Toronto,2980000,43.727787,-79.381371,#Ph 9 A - 1 CHEDINGTON PL,Toronto
2314,Midtown Toronto,510000,43.682873,-79.391518,#503 - 1177 YONGE ST,Toronto
2315,New Toronto,599900,43.602974,-79.516861,112 SIXTEENTH ST,Toronto
2316,Downtown,445900,43.659328,-79.382675,#1222 - 386 YONGE ST,Toronto
2317,Bendale,575000,43.747921,-79.254951,35 PENZANCE DR,Toronto
2318,Toronto,399000,43.640209,-79.423943,#912 - 20 JOE SHUSTER WAY,Toronto
2319,Newtonbrook,1798000,43.795513,-79.407936,148 NEWTON DR,Toronto
2320,Black Creek,599000,43.760731,-79.525566,76 WHEATSHEAF CRES,Toronto
2321,Islington - City Centre West,314900,43.640293,-79.559761,#2410 - 5 VALHALLA INN RD,Toronto
2322,Scarborough Village,208000,43.744812,-79.214561,#1802 - 3380 EGLINTON AVE,Toronto
2323,Bayview Village,368800,43.76498,-79.383522,#2012 - 1 REAN DR,Toronto
2324,Port Royal,70000,43.81366,-79.29142,3833 MIDLAND AVE,Toronto
2325,Willowdale,3448000,43.778057,-79.394241,122 ESTELLE AVE,Toronto
2326,Morningside,414000,43.788795,-79.20681,#71 - 441 MILITARY TR,Toronto
2327,Brookhaven - Amesbury,580000,43.698372,-79.49884,8 A TEDDER ST,Toronto
2328,Malvern,478000,43.792263,-79.237587,#406 - 1585 MARKHAM RD,Toronto
2329,Humber Summit,589900,43.755226,-79.562088,104 GOLDSBORO RD,Toronto
2330,Malvern,249900,43.791836,-79.237404,#9 G - 8 ROSEBANK DR,Toronto
2331,Scarborough Junction,25000,43.729729,-79.266891,725 KENNEDY RD,Toronto
2332,Long Branch,415000,43.589939,-79.545006,#505 - 3865 LAKE SHORE BLVD W,Toronto
2333,Highland Creek,939000,43.79401,-79.158142,4046 ELLESMERE RD,Toronto
2334,York University Heights,319900,43.762249,-79.500114,#404 - 455 SENTINEL RD,Toronto
2335,Toronto,729900,43.825722,-79.272591,4 HILLFARM DR,Toronto
2336,Niagara,259900,43.641579,-79.415901,#401 - 1030 KING ST W,Toronto
2337,Church and Wellesley,749500,43.668777,-79.383995,#4201 - 45 CHARLES ST E,Toronto
2338,Henry Farm,498000,43.774895,-79.345955,#2508 - 70 FOREST MANOR RD,Toronto
2339,Willowdale,448000,43.75882,-79.408684,#707 - 28 AVONDALE AVE,Toronto
2340,Humber Bay Shores,313996,43.626965,-79.478485,#2810 - 16 BROOKERS LANE,Toronto
2341,Wexford - Maryvale,749000,43.756016,-79.295982,266 TOWER DR,Toronto
2342,Port Royal,350000,43.81366,-79.29142,#2 - 3833 MIDLAND AVE,Toronto
2343,Steeles,519900,43.814705,-79.325653,#117 - 75 BAMBURGH CIRC,Toronto
2344,York University Heights,550000,43.755066,-79.483932,#10 - 100 ST REGIS CRES S,Toronto
2345,Mimico,399000,43.624969,-79.478081,#1607 - 59 ANNIE CRAIG DR,Toronto
2346,Glen Park,175000,43.705845,-79.466965,#204 - 50 LOTHERTON PTWY,Toronto
2347,Downtown,489000,43.643227,-79.37619,#3310 - 16 YONGE ST,Toronto
2348,Rexdale,659900,43.742077,-79.571907,38 MONTERREY DR,Toronto
2349,Newtonbrook,419800,43.781689,-79.413429,#308 - 8 PEMBERTON AVE,Toronto
2350,Agincourt,279000,43.781467,-79.278893,#12 - 50 WEYBRIGHT CRT,Toronto
2351,Dorset Park,579000,43.755791,-79.28788,1465 A BIRCHMOUNT RD,Toronto
2352,Liberty Village,449900,43.638054,-79.414818,#918 - 65 EAST LIBERTY ST,Toronto
2353,Willowdale,2390000,43.765755,-79.433098,278 BETTY ANN DR N,Toronto
2354,Milliken,1178000,43.824245,-79.291046,52 HIGHBRIDGE PL,Toronto
2355,Toronto,75000,43.613632,-79.537346,#11 - 486 EVANS AVE,Toronto
2356,Steeles,275900,43.815434,-79.325745,#534 - 25 BAMBURGH CIRC,Toronto
2357,Wexford,699000,43.747566,-79.290649,11 ELLINGTON DR,Toronto
2358,Willowdale,488000,43.777355,-79.41275,#Uph 1 - 60 BYNG AVE,Toronto
2359,Downtown,369900,43.655098,-79.375763,#2202 - 64 SHUTER ST,Toronto
2360,New Toronto,799000,43.601395,-79.505333,145 ISLINGTON AVE,Toronto
2361,Islington,369000,43.644779,-79.531929,#103 - 5101 DUNDAS ST W,Toronto
2362,Runnymede,949900,43.659569,-79.481377,593 Annette St,Toronto
2363,Newtonbrook,1798000,43.795513,-79.407936,148 Newton Dr,Toronto
2364,Ionview,649900,43.734638,-79.274521,34 Richome Crt,Toronto
2365,The Beach,1989000,43.675526,-79.300285,264 Lee Ave,Toronto
2366,West Hill,788000,43.772305,-79.193016,3 Pickford Rd,Toronto
2367,Downtown,849000,43.666695,-79.387115,42 IRWIN AVE,Toronto
2368,Willowdale,3788000,43.774734,-79.405685,138 Mckee Ave,Toronto
2369,West Hill,749800,43.772583,-79.193367,8A Pickford Rd,Toronto
2370,Swansea,254900,43.636814,-79.468163,#Th82 - 9 Windermere Ave,Toronto
2371,Mimico,1299888,43.624969,-79.478081,#3902 - 59 Annie Craig Dr,Toronto
2372,Scarborough Village,784900,43.748245,-79.21685,48 Dunelm St,Toronto
2373,Flemingdon Park,214000,43.710075,-79.331192,#2001 - 10 Sunny Glenway Dr,Toronto
2374,Newtonbrook,458800,43.77272,-79.452095,#807 - 10 Torresdale Ave,Toronto
2375,Don Valley Village,315000,43.791817,-79.355553,#2201 - 3300 Don Mills Rd,Toronto
2376,Mimico,329900,43.615078,-79.48938,#609 - 11 Superior Ave,Toronto
2377,Willowdale,289000,43.765453,-79.414017,#2606 - 153 Beecroft Rd,Toronto
2378,Bayview Village,5388000,43.774094,-79.38665,29 Citation Dr,Toronto
2379,Downsview,729900,43.731739,-79.491005,115 Calvington Dr,Toronto
2380,Earlscourt,569900,43.679035,-79.463066,84 Rosethorn Ave,Toronto
2381,The Beach,634900,43.668041,-79.308586,#313 - 1797 Queen St,Toronto
2382,Swansea,999000,43.652039,-79.470833,#703 - 383 Ellis Park Rd,Toronto
2383,Tam O'Shanter,699900,43.776493,-79.293304,21 Earlton Rd,Toronto
2384,Rexdale,785000,43.719715,-79.617767,99 Cinrickbar Dr,Toronto
2385,Willowdale,359900,43.7626,-79.393799,#201 W - 20 Fashion Roseway Dr,Toronto
2386,Kingsview Village,234900,43.69582,-79.556328,#312 - 370 Dixon Rd,Toronto
2387,Willowdale,418000,43.768181,-79.390923,#411 - 21 Clairtrell Rd,Toronto
2388,Carleton Village,600000,43.670776,-79.462044,227 Old Weston Rd,Toronto
2389,Swansea,509000,43.636292,-79.470467,#2305 - 103 The Queensway Ave,Toronto
2390,Bathurst Manor,315000,43.755169,-79.441742,#502 - 650 Sheppard Ave,Toronto
2391,Ionview,224900,43.73008,-79.273392,#902 - 2245 Eglinton Ave,Toronto
2392,Toronto,399000,43.679928,-79.495888,84 Grandville Ave,Toronto
2393,Broadview North,949000,43.684555,-79.35183,1082 Logan Ave,Toronto
2394,Rexdale,634900,43.723648,-79.589729,56 Millview Cres,Toronto
2395,Downtown,449000,43.660149,-79.360886,#2507 - 170 Sumach St,Toronto
2396,Downtown,439000,43.659824,-79.362724,#903 - 225 Sackville St,Toronto
2397,Downtown,575000,43.647224,-79.391098,#4206 - 21 Widmer St,Toronto
2398,Downtown,710000,43.645821,-79.394623,#1211 - 438 King St,Toronto
2399,Downtown,498880,43.650372,-79.382347,#1801 - 70 Temperance St,Toronto
2400,Newtonbrook,278000,43.783081,-79.416824,#1003 - 5740 Yonge St,Toronto
2401,Midtown Toronto,2988888,43.716148,-79.428299,101 Shelborne Ave,Toronto
2402,Kennedy Park,600000,43.723419,-79.258003,157 Linden Ave,Toronto
2403,Willowdale,469888,43.756294,-79.406532,#1619 - 80 Harrison Garden Blvd,Toronto
2404,Morningside,399900,43.78614,-79.211952,#08 - 341 Military Tr,Toronto
2405,Upper Beaches,699000,43.685303,-79.301056,52 Norwood Terr,Toronto
2406,Lambton,795000,43.663177,-79.490776,3 Bradley Ave,Toronto
2407,Milliken,699000,43.811516,-79.280769,9 Danjohn Cres,Toronto
2408,Rexdale,1380000,43.734222,-79.559181,815 Albion Rd,Toronto
2409,Eglinton East,579900,43.744301,-79.235939,14 Adler St,Toronto
2410,Milliken,779888,43.806644,-79.311386,48 Staley Terr,Toronto
2411,Niagara,449000,43.640865,-79.414619,#726 - 1 Shaw St,Toronto
2412,Little Portugal,30000,43.642391,-79.424736,68 Abell St,Toronto
2413,Woburn,679000,43.779228,-79.22168,33 PORTICO DR,Toronto
2414,Newtonbrook,2498000,43.794178,-79.417198,26 Madawaska Ave,Toronto
2415,Willowdale,499900,43.776028,-79.412056,#1718 - 18 Sommerset Way,Toronto
2416,Toronto,699900,43.737328,-79.263283,14 Fitzgibbon Ave,Toronto
2417,South Cedarbrae,649000,43.75074,-79.223907,1 Strandhill Rd,Toronto
2418,Bridlewood,241900,43.79488,-79.313713,#906 - 10 Stonehill Crt,Toronto
2419,Newtonbrook,259900,43.780598,-79.413246,#103 - 29 Pemberton Ave,Toronto
2420,West Hill,254000,43.768364,-79.182182,#415 - 121 Ling Rd,Toronto
2421,Leslieville,1420000,43.667385,-79.334412,#14 - 175 Jones Ave,Toronto
2422,Wallace Emerson,899900,43.659885,-79.440331,370 Margueretta St,Toronto
2423,Rockcliffe - Smythe,794900,43.677685,-79.472687,262 Weston Rd,Toronto
2424,Willowdale,346000,43.776028,-79.412056,#1712 - 18 Sommerset Way,Toronto
2425,Toronto,698000,43.822731,-79.266121,111 Shady Hollow Dr,Toronto
2426,Morningside,349900,43.786888,-79.205353,#197 - 10 Livonia Pl,Toronto
2427,Woodbine - Lumsden,748800,43.689453,-79.31115,62 King Edward Ave,Toronto
2428,Kennedy Park,579900,43.727516,-79.253731,5 Commonwealth Ave,Toronto
2429,Downtown,299999,43.640259,-79.381729,#2301 - 208 Queens Quay,Toronto
2430,Downtown,518000,43.648029,-79.374069,#815 - 55 Front St,Toronto
2431,Wexford,699000,43.755329,-79.302849,3 PRINCEMERE CRES,Toronto
2432,West Hill,379000,43.75787,-79.200203,#12 - 33 Celeste Dr,Toronto
2433,Dorset Park,190000,43.749599,-79.266762,#1010 - 100 PRUDENTIAL DR,Toronto
2434,West Hill,599900,43.76432,-79.187912,30 DANZIG ST,Toronto
2435,Downtown,499900,43.656731,-79.383461,#1705 - 633 BAY ST,Toronto
2436,Downtown,329900,43.654148,-79.390533,#1105 - 152 ST PATRICK ST,Toronto
2437,Downtown,378000,43.669609,-79.384773,#1607 - 35 HAYDEN ST,Toronto
2438,Leslieville,1399000,43.672878,-79.320213,1602 ** GERRARD ST,Toronto
2439,Nortown,1888000,43.724827,-79.423271,505 CRANBROOKE AVE,Toronto
2440,Old East York,699000,43.692997,-79.291451,95 DENTONIA PARK AVE E,Toronto
2441,Old Town,309900,43.653194,-79.368637,#554 - 313 RICHMOND ST E,Toronto
2442,Leslieville,699900,43.673805,-79.329041,351 GREENWOOD AVE,Toronto
2443,New Toronto,699900,43.603195,-79.501167,95 THIRD ST,Toronto
2444,Earlscourt,372000,43.678635,-79.444672,#1010 - 26 NORTON AVE,Toronto
2445,Tam O'Shanter,459800,43.786381,-79.291534,#110 - 188 BONIS AVE,Toronto
2446,Mimico,625000,43.630383,-79.476273,#1002 - 3 MARINE PARADE DR,Toronto
2447,Rexdale,280000,43.74955,-79.58075,#914 - 5 ROWNTREE RD,Toronto
2448,Humber Summit,999900,43.753723,-79.575333,7 HATHOR CRES,Toronto
2449,Jane and Finch,599000,43.742985,-79.523102,23 SNOWOOD CRT,Toronto
2450,Toronto,318000,43.75103,-79.465858,#Lph07 - 55 DE BOERS DR,Toronto
2451,Don Valley Village,679900,43.795135,-79.353607,401 85 Skymark Drive,Toronto
2452,Newtonbrook,699000,43.790558,-79.442062,108 ELISE TERR,Toronto
2453,Eglinton East,249900,43.737576,-79.238251,#306 - 330 MCCOWAN RD,Toronto
2454,Briar Hill - Belgravia,739000,43.70676,-79.443169,354 /356 MARLEE AVE,Toronto
2455,L'Amoreaux,849000,43.794651,-79.302414,105 RAINIER SQ,Toronto
2456,St. Andrew - Windfields,4500000,43.763638,-79.379562,96 NORTHDALE RD,Toronto
2457,Highland Creek,640000,43.795174,-79.180603,85 HALFMOON SQ,Toronto
2458,Bathurst Manor,1340000,43.762512,-79.462944,65 BARKSDALE AVE,Toronto
2459,Midtown Toronto,619800,43.701252,-79.395897,#710 - 23 GLEBE RD,Toronto
2460,Downtown,279000,43.656807,-79.375092,#508 - 159 DUNDAS ST E,Toronto
2461,Brookhaven - Amesbury,749000,43.696663,-79.494972,116 Via Cassia Dr,Toronto
2462,Downtown,335000,43.654587,-79.386658,#2005 - 55 Centre Ave,Toronto
2463,Downtown,608800,43.650372,-79.382347,#1511 - 70 TEMPERANCE ST,Toronto
2464,Downtown,299900,43.641075,-79.393974,#329 - 4K SPADINA AVE,Toronto
2465,Newtonbrook,374500,43.784409,-79.416061,#907 - 5791 YONGE ST,Toronto
2466,Willowdale,428800,43.769981,-79.411751,#602 - 28 EMPRESS AVE,Toronto
2467,Downtown,448800,43.650372,-79.382347,#1007 - 70 TEMPERANCE ST,Toronto
2468,Steeles,388000,43.815434,-79.325745,#1135 - 25 BAMBURGH CIRC,Toronto
2469,Agincourt,68000,43.785206,-79.277573,#B1 - 4227 SHEPPARD AVE,Toronto
2470,Mimico,339000,43.624969,-79.478081,#411 A - 59 ANNIE CRAIG DR,Toronto
2471,Downtown,576000,43.666821,-79.37336,#107 - 171 BLEECKER ST,Toronto
2472,Rexdale,247500,43.75901,-79.588539,#1110 - 10 MARKBROOK LANE,Toronto
2473,Windfields,3998000,43.73727,-79.361427,1 TANVALLEY CRT,Toronto
2474,Etobicoke West Mall,470000,43.649242,-79.566887,79 PERMFIELD PATH,Toronto
2475,Rockcliffe - Smythe,794990,43.667053,-79.503334,178 EILEEN AVE,Toronto
2476,Bendale,397500,43.773251,-79.255272,#3410 - 50 TOWN CENTRE CRT,Toronto
2477,Dorset Park,769000,43.756241,-79.284714,141 CANLISH RD,Toronto
2478,Old East York,169900,43.696163,-79.292953,#707 - 5 MASSEY SQ,Toronto
2479,Wexford,659000,43.756546,-79.301353,15 TARDREE PL,Toronto
2480,Woburn,599900,43.744694,-79.227638,15 FARMBROOK RD,Toronto
2481,Malvern,558888,43.814308,-79.215759,1 ROVINELLI RD,Toronto
2482,Newtonbrook,3149000,43.797127,-79.404976,30 LLOYDMINSTER CRES,Toronto
2483,Newtonbrook,1788000,43.790619,-79.413734,27 TOBRUK CRES,Toronto
2484,Sherwood Park,444500,43.710804,-79.394417,#1104 - 88 BROADWAY AVE,Toronto
2485,Downtown,639900,43.64286,-79.38073,#1408 - 65 BREMNER BLVD,Toronto
2486,Parkdale,1098000,43.635262,-79.426628,11 THORBURN AVE,Toronto
2487,Downtown,45000,43.639725,-79.383247,#4 - 228 Queens Quay,Toronto
2488,Rexdale,749900,43.739414,-79.585983,43 Kendleton Dr,Toronto
2489,Cricket Club,2995000,43.735512,-79.412315,37 FELBRIGG AVE,Toronto
2490,Downtown,374900,43.637386,-79.398201,#716 - 38 DAN LECKIE WAY,Toronto
2491,Leslieville,5995000,43.662285,-79.327087,858 EASTERN AVE,Toronto
2492,Niagara,429900,43.636963,-79.404671,#1073 - 209 FORT YORK BLVD,Toronto
2493,Lawrence Heights,484888,43.714592,-79.452911,#714 - 800 LAWRENCE AVE,Toronto
2494,Willowdale,559000,43.757988,-79.403625,#833 - 120 HARRISON GARDEN BLVD,Toronto
2495,Sunnyside,439900,43.636307,-79.466087,#1707 - 1900 LAKE SHORE BLVD W,Toronto
2496,Oakridge,295800,43.694603,-79.273277,#212 - 3520 Danforth Ave,Toronto
2497,Downtown,499990,43.641788,-79.381874,#2306 - 14 YORK ST,Toronto
2498,Downtown,398000,43.667915,-79.375679,#1111 - 500 SHERBOURNE ST,Toronto
2499,Entertainment District,629900,43.642269,-79.382805,#1710 - 30 GRAND TRUNK CRES,Toronto
2500,Leslieville,299990,43.665165,-79.341537,#221 - 1190 DUNDAS ST E,Toronto
2501,Downtown,399000,43.652817,-79.367737,#1207 - 400 ADELAIDE ST E,Toronto
2502,Willowdale,325000,43.767403,-79.410599,#601 - 188 DORIS AVE,Toronto
2503,Liberty Village,389000,43.638775,-79.41626,#1315 - 150 EAST LIBERTY ST,Toronto
2504,Bayview Village,349500,43.769611,-79.368416,#1501 - 33 SINGER CRT,Toronto
2505,Eringate - Centennial - West Deane,750000,43.665123,-79.562119,17 ANTIOCH DR,Toronto
2506,Willowdale,1100000,43.769489,-79.432037,53 COBDEN ST,Toronto
2507,Eglinton East,629900,43.742146,-79.247414,33 GRAYLEE AVE,Toronto
2508,Bayview Village,309900,43.769611,-79.368416,#3107 - 33 SINGER CRT,Toronto
2509,Silverthorn,649000,43.688412,-79.467247,468 SILVERTHORN AVE,Toronto
2510,Willowdale,839000,43.776329,-79.412376,#1207 - 28 SOMMERSET WAY,Toronto
2511,Woodbine Gardens,639900,43.700798,-79.297798,79 CHAPMAN AVE,Toronto
2512,Bendale,293000,43.773251,-79.255272,#1803 - 50 TOWN CENTRE CRT,Toronto
2513,Old East York,499000,43.687382,-79.339363,108 MARLOW AVE,Toronto
2514,Toronto,729000,43.827942,-79.273911,64 SEAMIST CRES,Toronto
2515,Milliken,499000,43.802181,-79.312622,#42 - 81 BROOKMILL BLVD,Toronto
2516,Cliffcrest,639000,43.723507,-79.238617,76 WILLAMERE DR,Toronto
2517,Humberlea,699999,43.722164,-79.537437,2864 WESTON RD,Toronto
2518,Willowdale,1388000,43.776905,-79.436813,11 MELTON GROVE ST,Toronto
2519,Riverdale,1650000,43.671024,-79.347015,616 LOGAN AVE,Toronto
2520,Glen Park,3250000,43.706696,-79.455482,1067 GLENCAIRN AV,Toronto
2521,Downtown,639000,43.643948,-79.401474,#1419 - 629 KING ST,Toronto
2522,Nortown,2500,43.727039,-79.431366,3415 Bathurst St,Toronto
2523,West Hill,239888,43.775337,-79.179039,"#21,22 - 4630 Kingston Rd",Toronto
2524,Rexdale,324900,43.724766,-79.616486,#2720 - 700 Humberwood Blvd,Toronto
2525,Woburn,299888,43.773685,-79.249619,#202 - 68 Grangeway Ave,Toronto
2526,Agincourt,459900,43.778576,-79.281662,153 Village Green Way,Toronto
2527,Cliffcrest,306000,43.725578,-79.23761,#265 - 60 ANN O&#39;REILLY RD,Toronto
2528,Cliffcrest,423000,43.725578,-79.23761,#1361 - 60 ANN O&#39;REILLY RD,Toronto
2529,Hillcrest Village,383000,43.801662,-79.353928,#117 - 3740 DON MILLS RD,Toronto
2530,Islington - City Centre West,309000,43.646942,-79.525818,#4003 - 7 MABELLE AVE,Toronto
2531,Islington - City Centre West,378500,43.646942,-79.525818,#2402 - 7 MABELLE AVE,Toronto
2532,West Hill,459900,43.763622,-79.197525,166 Celeste Dr,Toronto
2533,Woburn,799900,43.775688,-79.205589,4 PLOVER RD,Toronto
2534,Downtown,899000,43.660767,-79.365654,17 OAK ST,Toronto
2535,Bendale,599000,43.768238,-79.258598,37 DOERR RD,Toronto
2536,Rexdale,699900,43.724163,-79.573708,19 BOLGER PL,Toronto
2537,Rexdale,545000,43.747128,-79.591827,30 Vange Cres,Toronto
2538,Eatonville,899900,43.648071,-79.542839,1 Lochway Crt,Toronto
2539,Rexdale,649900,43.715919,-79.54454,36 Esmond Cres,Toronto
2540,Woburn,799000,43.782238,-79.225121,126 Pegasus Tr,Toronto
2541,Oakridge,849000,43.691143,-79.281982,19 Mansion Ave,Toronto
2542,Lambton,828888,43.663452,-79.490456,560 JANE ST,Toronto
2543,Rustic,750000,43.714989,-79.503326,45 Beckett Ave,Toronto
2544,Oakridge,849000,43.691143,-79.281982,19 Mansion Ave,Toronto
2545,Humber Bay,469800,43.624374,-79.485542,#1006 - 90 PARK LAWN RD,Toronto
2546,Jane and Finch,335000,43.764374,-79.49456,#608 - 19 FOUR WINDS DR,Toronto
2547,Willowdale,285000,43.779793,-79.413956,#1806 - 26 OLIVE AVE,Toronto
2548,Don Valley Village,679900,43.795135,-79.353607,401 85 Skymark Drive,Toronto
2549,Downtown,339000,43.657074,-79.355232,#1206 - 51 TROLLEY CRES,Toronto
2550,Mimico,105000,43.615341,-79.492996,170 THE QUEENS WAY,Toronto
2551,Midtown Toronto,1510000,43.671139,-79.395653,#602 - 4 LOWTHER AVE,Toronto
2552,Downtown,960000,43.659328,-79.382675,#2810 - 386 YONGE ST,Toronto
2553,Downtown,1299000,43.642578,-79.3769,#4202 - 16 HARBOUR ST,Toronto
2554,Downtown,498000,43.649082,-79.392082,#3506 - 318 RICHMOND ST W,Toronto
2555,Niagara,494999,43.636345,-79.404808,#108 - 215 FORT YORK BLVD,Toronto
2556,Trinity - Bellwoods,1988888,43.64777,-79.404457,198 BATHURST ST,Toronto
2557,Downtown,449900,43.65234,-79.398193,#706 - 270 SPADINA AVE,Toronto
2558,Little Portugal,355000,43.641697,-79.423431,#1007 - 36 LISGAR ST,Toronto
2559,Downtown,898000,43.640163,-79.378647,#2814 - 55 HARBOUR SQ,Toronto
2560,Midtown Toronto,450880,43.696835,-79.393997,#1102 - 68 MERTON ST,Toronto
2561,Bendale,799900,43.750801,-79.24028,34 BENDALE BLVD N,Toronto
2562,Silverthorn,659900,43.679874,-79.469025,45 LAVENDER RD,Toronto
2563,Parkdale,1599000,43.635567,-79.441315,2312 LAKE SHORE BLVD W,Toronto
2564,Port Royal,839000,43.817585,-79.289879,31 BECCA HALL TR,Toronto
2565,Tam O'Shanter,388000,43.786736,-79.291008,#808 - 228 BONIS AVE,Toronto
2566,Willowdale,398800,43.765598,-79.410942,#2203 - 23 HOLLYWOOD AVE,Toronto
2567,Downtown,625000,43.669151,-79.387375,#1601 - 21 BALMUTO ST,Toronto
2568,Beach Hill,999000,43.681137,-79.310356,1956 GERRARD ST E,Toronto
2569,Niagara,1998897,43.645416,-79.408264,737 RICHMOND Street West,Toronto
2570,Wallace Emerson,64900,43.659683,-79.437279,1174 BLOOR ST W,Toronto
2571,Humber Summit,549000,43.759605,-79.570328,#6 - 70 PLUNKETT RD,Toronto
2572,West Queen West,149000,43.645443,-79.41169,893 QUEEN ST W,Toronto
2573,Rouge,729000,43.796291,-79.137764,102 BEAVERBROOK CRT,Toronto
2574,Parkdale,1300000,43.640388,-79.438339,1508 QUEEN ST W,Toronto
2575,Downtown,489000,43.659328,-79.382675,#1016 - 386 YONGE ST,Toronto
2576,Downtown,389900,43.65234,-79.398193,#608 - 270 SPADINA AVE,Toronto
2577,Little Italy,849000,43.652946,-79.41256,248 CLAREMONT ST,Toronto
2578,Carleton Village,1490000,43.670361,-79.455589,1928 -30 DAVENPORT RD,Toronto
2579,Downtown,615000,43.644852,-79.399101,#305 - 560 KING ST,Toronto
2580,Mississauga,244000,43.616276,-79.595207,Bloor Street,Toronto
2581,Bayview Village,367000,43.769569,-79.369514,#1218 - 19 SINGER CRT,Toronto
2582,Mississauga,345000,43.616276,-79.595207,Bloor Street,Toronto
2583,Rexdale,318000,43.724766,-79.616486,#220 - 700 HUMBERWOOD BLVD,Toronto
2584,Mississauga,354000,43.616276,-79.595207,Bloor Street,Toronto
2585,Milliken,499000,43.819195,-79.295441,#110 - 3838 MIDLAND AVE,Toronto
2586,Downtown,399666,43.665405,-79.387917,#2511 - 1000  Bay St Street,Toronto
2587,Downtown,449000,43.669594,-79.380577,#2905 - 101 CHARLES ST E,Toronto
2588,Midtown Toronto,384900,43.672554,-79.389572,#604 - 40 Scollard St,Toronto
2589,Thornhill,109900,43.792583,-79.444809,787 STEELS AVE W,Toronto
2590,Rouge,689000,43.805416,-79.186546,7 ROUGE RIVER DR,Toronto
2591,Willowdale,384900,43.757996,-79.409592,#906 - 1 AVONDALE AVE,Toronto
2592,Jane and Finch,129900,43.74036,-79.512222,2721 JANE ST,Toronto
2593,Niagara,749900,43.636234,-79.403122,#2002 - 628 Fleet St,Toronto
2594,Eglinton East,599000,43.742043,-79.250938,131 CITADEL DR,Toronto
2595,Islington - City Centre West,409900,43.638706,-79.535904,#347 - 25 Viking Lane,Toronto
2596,White Haven,814900,43.790401,-79.244568,32 A MASSIE ST,Toronto
2597,Tam O'Shanter - Sullivan,309000,43.776638,-79.323143,#506 - 2721 VICTORIA PARK AVE,Toronto
2598,Willowdale,296000,43.773094,-79.415596,#1803 - 30 CANTERBURY PL,Toronto
2599,Rexdale,649899,43.751724,-79.590424,145 Silverstone Dr,Toronto
2600,Midtown Toronto,749000,43.690628,-79.433762,237 Winnett Ave,Toronto
