Index,AreaName,Price ($),lat,lng,Address,City
2601,St. Andrew - Windfields,3380000,43.753357,-79.384155,10 BERKINDALE DR,Toronto
2602,Swansea,348800,43.636173,-79.470757,#1714 - 105 The Queensway Ave,Toronto
2603,Mississauga,781000,43.616276,-79.595207,Bloor Street,Toronto
2604,Mississauga,292500,43.616276,-79.595207,Bloor Street,Toronto
2605,Brockton Village,1070000,43.648857,-79.433006,101 Sheridan  Avenue,Toronto
2606,Malvern,184900,43.794353,-79.237694,#413 - 5580 SHEPPARD AVE E,Toronto
2607,Rexdale,499900,43.713825,-79.543625,122 ALLENBY AVE,Toronto
2608,Midtown Toronto,929000,43.686466,-79.434563,384 WINONA DR,Toronto
2609,Willowdale,588000,43.772457,-79.445831,87 RED ROBIN WAY,Toronto
2610,Rexdale,788800,43.736721,-79.564117,1038 ALBION RD,Toronto
2611,Willowdale,333800,43.776028,-79.412056,#1612 - 18 SOMMERSET WAY,Toronto
2612,Malvern,125000,43.805328,-79.22023,#101 - 99 BLACKWELL AVE,Toronto
2613,Weston,85000,43.700554,-79.517197,1927 WESTON RD,Toronto
2614,Mimico,323000,43.622883,-79.481972,#716 - 2200 LAKE SHORE BLVD W,Toronto
2615,Lansing,1488000,43.761345,-79.426399,293 BURNETT AVE,Toronto
2616,Humber Summit,999900,43.753723,-79.575333,7 HATHOR CRES,Toronto
2617,Midtown Toronto,1599900,43.692017,-79.384277,235 HEATH ST E,Toronto
2618,Swansea,249500,43.636173,-79.470757,#3108 - 105 THE QUEENSWAY WAY,Toronto
2619,Downtown,469900,43.65234,-79.398193,#Ph11 - 270 SPADINA AVE,Toronto
2620,Downtown,384990,43.643246,-79.40126,#311 - 55 STEWART ST,Toronto
2621,Downtown,420000,43.659237,-79.382904,#90 - 384 YONGE ST S,Toronto
2622,Eglinton East,435000,43.746014,-79.232513,#306 - 21 NELSON ST,Toronto
2623,Palmerston - Little Italy,2795000,43.661678,-79.426277,901 BLOOR ST W,Toronto
2624,Dorset Park,197000,43.769417,-79.28241,#406 - 2 GLAMORGAN AVE,Toronto
2625,Scarborough Village,249900,43.751457,-79.204521,#1109 - 90 DALE AVE,Toronto
2626,Swansea,269900,43.636173,-79.470757,#407 - 105 THE QUEENSWAY AVE,Toronto
2627,Milliken,1278888,43.820484,-79.295128,3880 MIDLAND AVE,Toronto
2628,Downsview,599000,43.728088,-79.523758,207 TORBARRIE RD,Toronto
2629,Downtown,719000,43.667709,-79.386383,#704 - 75 ST NICHOLAS ST,Toronto
2630,Downtown,289900,43.659824,-79.362724,#302 - 225 SACKVILLE ST,Toronto
2631,Downtown,429999,43.644455,-79.376534,#2013 - 18 YONGE ST,Toronto
2632,Downtown,313900,43.65234,-79.398193,#302 - 270 SPADINA AVE,Toronto
2633,Entertainment District,519000,43.642269,-79.382805,#3215 - 30 GRAND TRUNK CRES,Toronto
2634,Mississauga,398500,43.616276,-79.595207,Bloor Street,Toronto
2635,Downtown,399666,43.665302,-79.389091,57  St Joseph  Street,Toronto
2636,Agincourt,389800,43.778069,-79.281731,#3410 - 125 VILLAGE GREEN SQ,Toronto
2637,Milliken,469900,43.811077,-79.279678,#90 - 20 BRIMWOOD BLVD,Toronto
2638,Mississauga,277000,43.616276,-79.595207,Bloor Street,Toronto
2639,Mississauga,221500,43.616276,-79.595207,Bloor Street,Toronto
2640,Humber Summit,159888,43.748459,-79.568283,#312 - 2825 ISLINGTON AVE,Toronto
2641,Bendale,749800,43.745861,-79.255096,42 BONNECHERE CRES,Toronto
2642,Lansing,1350000,43.758835,-79.423065,250 SHEPPARD AVE W,Toronto
2643,Don Valley Village,379000,43.791603,-79.354248,#905 - 3303 DON MILLS RD,Toronto
2644,Henry Farm,488000,43.774952,-79.33548,#Ph10 - 30 HERONS HILL WAY,Toronto
2645,Humberlea,649900,43.716888,-79.536499,60 WALSH AVE N,Toronto
2646,Bayview Village,339900,43.767746,-79.370918,#1715 - 121 MCMAHON DR,Toronto
2647,Jane and Finch,349900,43.764374,-79.49456,#1106 - 19 FOUR WINDS DR,Toronto
2648,Malvern,648888,43.810703,-79.234848,5 LIGHTHALL CRES,Toronto
2649,Don Mills,840000,43.747749,-79.348656,#A210 - 16 MALLARD RD,Toronto
2650,Don Valley Village,799000,43.793545,-79.3675,18 BEETHOVEN CRT,Toronto
2651,Newtonbrook,1578000,43.793461,-79.415253,47 NEWTON DR,Toronto
2652,Downtown,551900,43.65234,-79.398193,#307 - 270 SPADINA AVE,Toronto
2653,Downtown,2290000,43.648827,-79.385551,#5604 - 180 UNIVERSITY AVE,Toronto
2654,Little Italy,1500000,43.651821,-79.41523,41 BEATRICE ST,Toronto
2655,Downtown,499000,43.654732,-79.402016,241 AUGUSTA AVE,Toronto
2656,Playter Estates,2300000,43.677383,-79.358833,794 BROADVIEW AVE,Toronto
2657,Davenport,599000,43.670692,-79.450165,#62 - 50 TURNTABLE CRES,Toronto
2658,Downtown,70000,43.644173,-79.38942,300 FRONT ST W,Toronto
2659,Weston,588888,43.705643,-79.512566,129 Queens Dr,Toronto
2660,Rexdale,699900,43.724163,-79.573708,19 BOLGER PL,Toronto
2661,Humber Bay Shores,264900,43.627769,-79.478523,#304 - 2119 LAKE SHORE BLVD W,Toronto
2662,Humber Summit,159900,43.750095,-79.567474,#914 - 2835 ISLINGTON AVE,Toronto
2663,Flemingdon Park,239900,43.711529,-79.322899,#1709 - 60 PAVANE LINK WAY,Toronto
2664,Englemount - Lawrence,289000,43.722183,-79.432846,#308 - 35 SARANAC BLVD,Toronto
2665,Eglinton West,309900,43.691715,-79.468506,#701 - 2470 EGLINTON AVE W,Toronto
2666,Church and Wellesley,649000,43.667664,-79.380318,#Th78 - 86 GLOUCESTER ST,Toronto
2667,Willowdale,315000,43.757355,-79.409355,#211 - 18 HARRISON GARDEN BLVD,Toronto
2668,Newtonbrook,489888,43.79047,-79.44825,#1607 - 1101 STEELES AVE W,Toronto
2669,Scarborough Village,220000,43.745232,-79.212135,#406 - 3420 EGLINTON AVE E,Toronto
2670,Bayview Village,329900,43.768475,-79.381607,#301 - 650 SHEPPARD AVE E,Toronto
2671,Rockcliffe - Smythe,469900,43.676445,-79.505966,#1401 - 250 SCARLETT RD,Toronto
2672,L'Amoreaux,318000,43.806473,-79.335167,#206 A - 1038 MCNICOLL AVE,Toronto
2673,Agincourt,298888,43.779205,-79.281517,#2921 - 181 VILLAGE GREEN SQ,Toronto
2674,Agincourt,339000,43.778614,-79.281258,#501 - 151 VILLAGE GREEN SQ,Toronto
2675,Kennedy Park,339000,43.725407,-79.251518,#910 - 5 GREYSTONE WALK DR,Toronto
2676,Willowdale,699880,43.764893,-79.410446,#3806 - 18 SPRING GARDEN AVE,Toronto
2677,Toronto,329000,43.824078,-79.273773,#2014 - 80 ALTON TOWERS CIRC,Toronto
2678,Agincourt,369000,43.778069,-79.281731,#710 - 125 VILLAGE GREEN SQ,Toronto
2679,Islington - City Centre West,325000,43.639355,-79.536949,#412 - 5229 DUNDAS ST W,Toronto
2680,Islington - City Centre West,284500,43.643349,-79.558502,#242 B - 364 THE EAST MALL AVE,Toronto
2681,Milliken,188000,43.809711,-79.293976,#309 - 200 SILVER STAR BLVD,Toronto
2682,Rockcliffe - Smythe,519000,43.67659,-79.507599,#911 - 260 SCARLETT RD,Toronto
2683,Humber Bay Shores,515000,43.628979,-79.477852,#1509 - 2111 LAKE SHORE BLVD W,Toronto
2684,Etobicoke West Mall,259000,43.646812,-79.566681,#115 - 451 THE WEST MALL,Toronto
2685,Parkwoods - Donalda,334900,43.752785,-79.332695,#808 - 18 VALLEY WOODS RD,Toronto
2686,Willowdale,318800,43.757355,-79.409355,#1009 - 18 HARRISON GARDEN BLVD,Toronto
2687,Milliken,339000,43.800636,-79.30703,#207 - 25 SILVER SPRINGS BLVD,Toronto
2688,Bendale,279800,43.773582,-79.258919,#1508 - 50 BRIAN HARRISON WAY,Toronto
2689,Wexford - Maryvale,439888,43.748531,-79.286057,#1502 - 1328 BIRCHMOUNT RD,Toronto
2690,Islington - City Centre West,339900,43.64397,-79.528503,#2204 - 3 Michael Power Pl,Toronto
2691,Swansea,799999,43.636528,-79.470863,#119 - 107 THE QUEENSWAY AVE,Toronto
2692,Midtown Toronto,454800,43.670319,-79.394432,#1916 - 155 YORKVILLE AVE,Toronto
2693,Entertainment District,619900,43.641491,-79.382607,#902 - 19 GRAND TRUNK CRES,Toronto
2694,Midtown Toronto,789800,43.708694,-79.394318,#603 - 141 ROEHAMPTON AVE,Toronto
2695,Humber Bay Shores,1088000,43.631355,-79.474609,#4104 - 2045 Lake Shore Blvd,Toronto
2696,Thornhill,349000,43.830166,-79.467117,#2707 - 33 SHORE BREEZE DR,Toronto
2697,Midtown Toronto,2395000,43.673172,-79.389687,#103 - 32 DAVENPORT RD,Toronto
2698,Cliffside,579000,43.712502,-79.246597,2575 KINGSTON RD,Toronto
2699,Bendale,309800,43.772751,-79.260788,#3202 - 83 BOROUGH DR,Toronto
2700,Midtown Toronto,299900,43.672596,-79.388634,#709 - 8 SCOLLARD ST,Toronto
2701,Henry Farm,328800,43.774746,-79.336929,#1706 - 275 YORKLAND RD,Toronto
2702,Downtown,747888,43.668777,-79.383995,#4002 - 45 CHARLES ST,Toronto
2703,Downtown,379800,43.637386,-79.398201,#2903 - 38 DAN LECKIE WAY,Toronto
2704,Midtown Toronto,1549000,43.705547,-79.385895,401 HILLSDALE AVE E,Toronto
2705,Willowdale,659900,43.763882,-79.410576,#1814 - 30 GREENFIELD AVE,Toronto
2706,The Danforth,749000,43.684986,-79.308685,37 IONA AVE,Toronto
2707,Bayview Village,369000,43.765289,-79.382339,#2005 - 3 REAN DR,Toronto
2708,Steeles,358000,43.814705,-79.325653,#727 - 75 BAMBURGH CIRC,Toronto
2709,Downtown,58000,43.665749,-79.385513,#Parkin- 5 ST JOSEPH ST,Toronto
2710,Agincourt,380000,43.807129,-79.26754,#1602 - 5001 FINCH AVE E,Toronto
2711,Henry Farm,374500,43.773922,-79.345726,#413 - 62 FOREST MANOR RD,Toronto
2712,Leaside,1250000,43.718243,-79.376419,#Th19 - 20 BURKEBROOK PL,Toronto
2713,Downtown,1279900,43.643799,-79.399605,#615 - 75 PORTLAND ST,Toronto
2714,Downtown,328000,43.640381,-79.397339,#2512 - 21 ICEBOAT TERR,Toronto
2715,Downtown,499900,43.667709,-79.386383,# 2407 - 75 ST NICHOLAS ST,Toronto
2716,Leslieville,499000,43.658466,-79.339561,528 Eastern Ave,Toronto
2717,Wilson Heights,329900,43.734478,-79.446472,#533 - 525 Wilson Ave,Toronto
2718,Rexdale,279900,43.75901,-79.588539,#201 - 10 MARKBROOK LANE,Toronto
2719,Wilson Heights,1198000,43.745205,-79.440338,16 Erica Ave,Toronto
2720,Midtown Toronto,3649000,43.708195,-79.376076,1715 BAYVIEW AVE,Toronto
2721,Sunnylea,1899000,43.6399,-79.506279,172 HUMBERVALE BLVD,Toronto
2722,Downsview,1285000,43.732979,-79.480469,70 Cuffley Crescent,Toronto
2723,Willowdale,2500000,43.764912,-79.395638,336 SHEPPARD AVE E,Toronto
2724,Scarborough Junction,119900,43.72599,-79.265015,#524 - 665 Kennedy Rd,Toronto
2725,Rouge,329900,43.802887,-79.169403,#816 - 10 DEAN PARK RD,Toronto
2726,Rockcliffe - Smythe,649900,43.676338,-79.504738,120 Clairton Cres,Toronto
2727,Willowdale,489900,43.766205,-79.39006,#610 - 1 CLAIRTRELL RD,Toronto
2728,Alderwood,1148000,43.602165,-79.544388,496 -498 HORNER AVE,Toronto
2729,Leaside,1895000,43.704941,-79.364235,214 SUTHERLAND DR,Toronto
2730,Nortown,2248000,43.72076,-79.425728,487 GLENGARRY AVE,Toronto
2731,Humberlea,849000,43.731441,-79.534714,58 RON ATTWELL ST,Toronto
2732,Downtown,559000,43.661793,-79.384506,#Ph-01 - 21 GRENVILLE ST,Toronto
2733,Midtown Toronto,2850000,43.687328,-79.418327,611 LONSDALE RD,Toronto
2734,Downtown,429000,43.645985,-79.389938,#2912 - 8 MERCER ST,Toronto
2735,Bayview Village,385000,43.766758,-79.382477,#102 - 15 REAN DR,Toronto
2736,Rexdale,359000,43.73069,-79.611,#1002 - 6 HUMBERLINE DR,Toronto
2737,Little Portugal,325990,43.641697,-79.423431,#2006 E - 36 LISGAR ST,Toronto
2738,Toronto,360000,43.640335,-79.424477,#1726 - 38 JOE SHUSTER WAY,Toronto
2739,Downtown,1277000,43.669456,-79.387474,#3703 - 35 Balmuto St,Toronto
2740,Kennedy Park,725000,43.727692,-79.269615,14 Miniot Circ,Toronto
2741,Don Valley Village,1298000,43.790825,-79.345268,201 KINGSLAKE RD,Toronto
2742,Rexdale,139900,43.722031,-79.543945,#1511 - 236 ALBION RD,Toronto
2743,Willowdale,388900,43.777996,-79.415718,#303 - 5500 YONGE ST,Toronto
2744,Downtown,399000,43.640057,-79.393967,#2608 - 15 FORT YORK BLVD,Toronto
2745,Downtown,628000,43.656731,-79.383461,#2401 - 633 BAY ST,Toronto
2746,Danforth Village,778000,43.688488,-79.301041,2584 DANFORTH AVE,Toronto
2747,Downtown,749888,43.668777,-79.383995,#4102 - 45 CHARLES ST,Toronto
2748,Downtown,385000,43.639782,-79.397949,#1041 - 151 DAN LECKIE WAY,Toronto
2749,Bayview Village,304900,43.765186,-79.38472,#409 - 17 BARBERRY PL,Toronto
2750,Humberlea,899900,43.718468,-79.537506,2783 WESTON RD,Toronto
2751,Willowdale,448800,43.773094,-79.415596,#1108 - 30 CANTERBURY PL,Toronto
2752,Jane and Finch,299900,43.754002,-79.514374,#120 - 36 VENETIAN CRES,Toronto
2753,Bridlewood,288000,43.79488,-79.313713,#408 - 10 STONE HILL CRT,Toronto
2754,Malvern,509000,43.808193,-79.209816,15 FRONTIER PKWY,Toronto
2755,Old East York,219000,43.696163,-79.292953,#2216 - 5 MASSEY SQ,Toronto
2756,Silverstone,399999,43.742641,-79.600517,#32 - 433 SILVERSTONE DR,Toronto
2757,Jane and Finch,558000,43.743279,-79.521927,130 LAURA RD,Toronto
2758,Humber Bay,1275000,43.637432,-79.48526,12 RIVER VALLEY CRES,Toronto
2759,Rexdale,649000,43.717667,-79.552467,39 RINGWAY CRES,Toronto
2760,Swansea,395000,43.637009,-79.467133,#16 - 93 THE QUEENSWAY AVE,Toronto
2761,Willowdale,428800,43.775146,-79.412666,#808 - 880 GRANDVIEW WAY,Toronto
2762,Downtown,478000,43.650372,-79.382347,#3309 - 70 TEMPERANCE ST,Toronto
2763,Beach Hill,20000,43.673386,-79.318268,30 EASTWOOD RD,Toronto
2764,Downtown,1095000,43.65765,-79.376762,#701 - 155 DALHOUSIE ST,Toronto
2765,Greenwood - Coxwell,649000,43.670719,-79.326134,38 RICHARD Avenue,Toronto
2766,Downtown,685000,43.667358,-79.377502,#17 - 6 WELLESLEY PL,Toronto
2767,Downtown,1990000,43.657421,-79.40509,376 COLLEGE ST,Toronto
2768,Edenbridge - Humber Valley,5695000,43.665371,-79.517471,5 EDGEHILL RD,Toronto
2769,Brockton Village,719900,43.659225,-79.437096,#2709 - 1 BLOOR ST,Toronto
2770,Downsview,629999,43.734779,-79.510941,14 GILTSPUR DR,Toronto
2771,Willowdale,308000,43.779659,-79.414589,#206 - 22 OLIVE AVE,Toronto
2772,Willowdale,519000,43.76556,-79.412804,#1016 - 4968 YONGE ST,Toronto
2773,Long Branch,1350000,43.591526,-79.539986,78 THIRTY NINTH ST,Toronto
2774,Cliffcrest,679900,43.718128,-79.235306,89 EASTVILLE AVE,Toronto
2775,Eatonville,273000,43.639694,-79.563148,#827 - 2 EVA RD,Toronto
2776,Henry Farm,299900,43.769733,-79.345482,#1102 - 10 Parkway Forest Dr,Toronto
2777,Thornhill,150000,43.791878,-79.44838,1045 STEELES AVE W,Toronto
2778,Leaside,1250000,43.718243,-79.376419,#Th19 - 20 BURKEBROOK PL,Toronto
2779,Dufferin Grove,75000,43.660145,-79.433525,1089 BLOOR ST,Toronto
2780,Tam O'Shanter,498888,43.785709,-79.293724,#1101 - 168 BONIS AVE,Toronto
2781,Brookhaven,799999,43.694416,-79.496788,62 TOUCHSTONE DR,Toronto
2782,Harbord Village,359900,43.658035,-79.401947,9 San Roberto Way,Toronto
2783,Earlscourt,550000,43.679153,-79.457504,69 GILBERT AVE,Toronto
2784,Brookhaven - Amesbury,725000,43.695908,-79.49736,66 MILLENNIUM DR,Toronto
2785,Emery,579900,43.746143,-79.546143,62 WINDHILL CRES,Toronto
2786,The Beach,849000,43.672913,-79.305916,1 HASLETT AVE,Toronto
2787,St. Andrew - Windfields,4500000,43.757694,-79.391495,51 MONTRESSOR DR,Toronto
2788,Downtown,329000,43.664848,-79.37529,#108 - 60 HOMEWOOD AVE,Toronto
2789,Humber Bay,589000,43.632587,-79.485214,42 STEPHEN DR,Toronto
2790,Milliken,230000,43.82214,-79.298508,633 SILVER STAR BLVD,Toronto
2791,Bathurst Manor,998000,43.763023,-79.452744,34 PANNAHILL RD,Toronto
2792,Pleasant View,838888,43.781208,-79.337822,38 ENDSLEIGH CRES,Toronto
2793,Briar Hill - Belgravia,649900,43.695553,-79.458168,36 RONALD AVE,Toronto
2794,Toronto,269000,43.653225,-79.383186,#309 - 100 LEEWARD GLWY,Toronto
2795,Rexdale,318880,43.724766,-79.616486,#2824 - 700 HUMBERWOOD BLVD,Toronto
2796,Black Creek,1200000,43.762085,-79.516373,14 STONG CRT,Toronto
2797,Tam O'Shanter,449900,43.789284,-79.302376,#33 - 2550 BIRCHMOUNT RD,Toronto
2798,Bayview Village,299900,43.766602,-79.382492,#222 - 18 REAN DR,Toronto
2799,Eglinton East,149000,43.739429,-79.237755,2906 EGLINTON AVE,Toronto
2800,Midtown Toronto,749999,43.673889,-79.390732,#312 - 3 MCALPINE ST,Toronto
2801,Highland Creek,749900,43.791893,-79.180328,42 PARADE SQ,Toronto
2802,Rexdale,322000,43.731674,-79.576454,#409 - 80 ESTHER LORRIE DR,Toronto
2803,Brockton Village,749900,43.653545,-79.438675,128 MARGUERETTA ST,Toronto
2804,Rexdale,529900,43.737782,-79.57383,20 LIGHTWOOD DR,Toronto
2805,Don Valley Village,569000,43.790806,-79.358597,133 ROCK FERN WAY,Toronto
2806,Milliken,719000,43.80785,-79.280525,124 CAROLBREEN SQ,Toronto
2807,Englemount - Lawrence,1760000,43.719898,-79.436478,27 BROOKVIEW DR,Toronto
2808,Downtown,355000,43.649055,-79.370361,#529 - 109 FRONT ST E,Toronto
2809,Downtown,470000,43.645695,-79.376144,#1601 - 1 THE ESPLANADE,Toronto
2810,Kingsview Village,224900,43.69582,-79.556328,#604 - 370 DIXON RD,Toronto
2811,Roncesvalles Village,1399900,43.640015,-79.446457,41 RONCESVALLES AVE,Toronto
2812,Davenport,25000,43.670437,-79.449425,#A30 - 10 Turntable Cres,Toronto
2813,Rexdale,229000,43.724556,-79.616455,#2303 - 710 HUMBERWOOD BLVD,Toronto
2814,Agincourt,448000,43.78775,-79.280006,#2 - 2606 MIDLAND AVE,Toronto
2815,Downtown,470000,43.645695,-79.376144,#1609 - 1 THE ESPLANADE,Toronto
2816,Jane and Finch,174000,43.745918,-79.515724,#407 - 5 Frith Rd,Toronto
2817,Midtown Toronto,3149000,43.673679,-79.396523,118 AVENUE RD,Toronto
2818,Downtown,399000,43.643246,-79.40126,#426 - 55 STEWART ST,Toronto
2819,Rouge,439900,43.828579,-79.249146,#6 - 3001 MARKHAM RD,Toronto
2820,Downtown,279000,43.639851,-79.382431,218 QUEENS QUAY W,Toronto
2821,Midtown Toronto,899000,43.687828,-79.433434,209 ATLAS Avenue,Toronto
2822,Little Italy,89000,43.655136,-79.415962,646 College St,Toronto
2823,Willowdale,325000,43.760181,-79.408218,#1708 - 35 BALES AVE,Toronto
2824,Downtown,519000,43.656361,-79.357277,#410 - 510 KING ST E,Toronto
2825,Willowdale,447900,43.778435,-79.41333,#1210 - 18 HOLMES AVE,Toronto
2826,Trinity - Bellwoods,3399999,43.644142,-79.41996,1030 QUEEN ST W,Toronto
2827,Willowdale,549000,43.771309,-79.412926,#1606 - 18 PARKVIEW AVE,Toronto
2828,Agincourt,899000,43.779125,-79.271652,78 MARILAKE DR,Toronto
2829,Midtown Toronto,519000,43.687836,-79.413376,#506 - 60 MONTCLAIR AVE,Toronto
2830,Richview,888000,43.678528,-79.569771,150 Redgrave Dr,Toronto
2831,Woburn,267000,43.780956,-79.249779,#919 - 88 Corporate Dr,Toronto
2832,Steeles,449800,43.815434,-79.325745,#1239 - 25 BAMBURGH CIRC,Toronto
2833,New Toronto,60000,43.601509,-79.501007,2819 LAKE SHORE BLVD W,Toronto
2834,Don Valley Village,328000,43.791103,-79.357162,#203 - 177 LINUS RD,Toronto
2835,O'Connor - Parkview,649000,43.701313,-79.293266,41 DONORA DR,Toronto
2836,Jane and Finch,449000,43.738785,-79.519264,44 JOHN CABOT WAY,Toronto
2837,Rexdale,840000,43.724796,-79.55069,353 -355 ALBION RD,Toronto
2838,Malvern,143000,43.803925,-79.216507,#504 - 8 SILVER BELL GRVE,Toronto
2839,Midtown Toronto,1699000,43.706844,-79.419594,598 ROSELAWN AVE,Toronto
2840,Don Mills,425000,43.73275,-79.345634,#903 - 75 The Donway Way,Toronto
2841,Bendale,799000,43.746422,-79.243446,10 CARSLAKE CRES,Toronto
2842,Mimico,780000,43.618263,-79.508858,414 MELROSE ST,Toronto
2843,Niagara,479900,43.63641,-79.402,#913 - 21 GRAND MAGAZINE ST,Toronto
2844,Bendale,439900,43.773403,-79.254951,#1508 - 25 TOWN CENTRE CRT,Toronto
2845,Downtown,629000,43.64286,-79.38073,#3310 - 65 BREMNER BLVD,Toronto
2846,Midtown Toronto,3995000,43.685169,-79.391342,#401 - 9 JACKES AVE,Toronto
2847,Downtown,609000,43.668777,-79.383995,#1010 - 45 CHARLES ST,Toronto
2848,Agincourt,598000,43.814278,-79.262596,67 Redhead Cres,Toronto
2849,Newtonbrook,949000,43.778324,-79.427597,65 Routliffe Lane,Toronto
2850,Newtonbrook,439888,43.78067,-79.418343,#618 - 25 Greenview Ave,Toronto
2851,Clairlea - Birchmount,659900,43.704426,-79.29393,1021 Victoria Park Ave,Toronto
2852,L'Amoreaux,758000,43.801937,-79.321388,17 Hildenboro Sq,Toronto
2853,Willowdale,294900,43.76556,-79.412804,#2112 - 4968 Yonge St,Toronto
2854,Old East York,699000,43.685673,-79.332558,23 Springdale Blvd,Toronto
2855,Earlscourt,388000,43.678635,-79.444672,#709 - 26 NORTON AVE,Toronto
2856,The Kingsway,729000,43.652515,-79.52037,55 Allanbrooke Dr,Toronto
2857,Malvern,698888,43.814468,-79.222031,11B Maidenhair Lane,Toronto
2858,Little Portugal,399900,43.642391,-79.424736,#917 - 68 ABELL ST,Toronto
2859,Toronto,205000,43.653225,-79.383186,#901 - 5 San Romano Way,Toronto
2860,Trinity - Bellwoods,1198000,43.648449,-79.410301,67 A CLAREMONT ST,Toronto
2861,Agincourt,849900,43.794025,-79.285156,39 Stainforth Dr,Toronto
2862,Willowdale,419888,43.772167,-79.412369,#206 - 260 DORIS AVE,Toronto
2863,Downtown,415000,43.643051,-79.39164,#2209 - 361 FRONT ST W,Toronto
2864,Earlscourt,709000,43.679317,-79.459732,192 PRESCOTT AVE,Toronto
2865,Willowdale,1650000,43.768085,-79.440582,40 Terrace Ave,Toronto
2866,Bayview Village,1050000,43.767426,-79.37751,49 Caracas Rd,Toronto
2867,Rexdale,624913,43.753963,-79.604858,3 ST EMILION WAY,Toronto
2868,Midtown Toronto,469000,43.680965,-79.427734,#401 - 270 RUSHTON RD,Toronto
2869,Newtonbrook,399900,43.780884,-79.412895,#810 - 39 Pemberton Ave,Toronto
2870,Downtown,599000,43.640057,-79.393967,#3610 - 15 FORT YORK BLVD,Toronto
2871,Downtown,368800,43.643051,-79.39164,#806 - 361 FRONT ST W,Toronto
2872,York Mills,429888,43.749531,-79.407188,#919 - 18 William Carson Cres,Toronto
2873,Downtown,349900,43.670547,-79.380585,#410 - 28 TED ROGERS WAY,Toronto
2874,Parkdale,959900,43.634659,-79.436211,108 SPRINGHURST AVE,Toronto
2875,Hillcrest Village,759000,43.810463,-79.353241,110 FRESHMEADOW DR,Toronto
2876,Willowdale,619000,43.773415,-79.412895,#307 - 8 Mckee Ave,Toronto
2877,Long Branch,699900,43.591789,-79.531143,13 Muskoka Ave,Toronto
2878,L'Amoreaux,1080000,43.79533,-79.296883,16 Colinayre Cres,Toronto
2879,Willowdale,259900,43.761196,-79.408951,#2009 - 33 Sheppard Ave,Toronto
2880,Clairlea - Birchmount,714900,43.703144,-79.273476,59 Lily Cup Ave,Toronto
2881,Agincourt,519999,43.778069,-79.281731,#Ph5 - 125 Village Green Sq,Toronto
2882,Grange Park,138000,43.653717,-79.390907,#38 - 109 MCCAUL ST,Toronto
2883,Bridlewood,199900,43.798306,-79.314674,#1004 - 100 Echo Point Pt,Toronto
2884,Malvern,185000,43.809708,-79.221169,#1405 - 400 Mclevin Ave,Toronto
2885,Willowdale,495000,43.761196,-79.408951,#2010 - 33 Sheppard Ave,Toronto
2886,Willowdale,495000,43.768059,-79.41111,#2005 - 18 Hillcrest Ave,Toronto
2887,Liberty Village,649900,43.638573,-79.41375,#2308 - 59 East Liberty St,Toronto
2888,Swansea,639500,43.636818,-79.47419,#509 - 1 Ripley Ave,Toronto
2889,Willowdale,299900,43.779659,-79.414589,#2603 - 22 Olive Ave,Toronto
2890,Mimico,440000,43.622589,-79.482445,#2208 - 2212 Lake Shore Blvd,Toronto
2891,Mimico,299900,43.622883,-79.481972,#805 - 2200 Lakeshore Blvd,Toronto
2892,Trinity - Bellwoods,650000,43.64465,-79.416504,#203 - 1003 Queen St,Toronto
2893,Malvern,524999,43.812542,-79.22226,31 Horseshoe Cres,Toronto
2894,Ionview,435900,43.741142,-79.271408,#37 - 901 Kennedy Rd,Toronto
2895,Rexdale,115000,43.722031,-79.543945,#1207 - 236 Albion Rd,Toronto
2896,Bendale,289900,43.773251,-79.255272,#501 - 50 Town Centre Crt,Toronto
2897,Bayview Village,344900,43.767689,-79.382263,#325 - 27 Rean Dr,Toronto
2898,Islington - City Centre West,1550,43.633572,-79.531036,#1 - 12 Advance Rd,Toronto
2899,Malvern,300900,43.807106,-79.227829,#48 - 42 PINERY TR,Toronto
2900,Willowdale,348800,43.765598,-79.410942,#3509 - 23 HOLLYWOOD AVE,Toronto
2901,Downtown,569900,43.641788,-79.381874,#1205 - 14 YORK ST,Toronto
2902,Downtown,399000,43.659824,-79.362724,#2608 - 225 SACKVILLE ST,Toronto
2903,Steeles,479000,43.815434,-79.325745,#1133 - 25 BAMBURGH CIRC,Toronto
2904,Midtown Toronto,1199000,43.703442,-79.396667,33 HILLSDALE AVE E,Toronto
2905,Niagara,369900,43.634632,-79.40139,#2209 - 90 STADIUM RD,Toronto
2906,Trinity - Bellwoods,1439000,43.648575,-79.416786,232 CRAWFORD ST,Toronto
2907,Steeles,348000,43.812302,-79.321648,#911 - 225 BAMBURGH CIRC,Toronto
2908,Downtown,412900,43.668777,-79.383995,#3105 - 45 Charles St,Toronto
2909,Toronto,799000,43.674515,-79.459373,1706 ST CLAIR AVE W,Toronto
2910,Birch Cliff,799000,43.682991,-79.277542,1251 Kingston Rd,Toronto
2911,Downtown,393000,43.668777,-79.383995,#1206 - 45 CHARLES ST E,Toronto
2912,Downtown,475000,43.645695,-79.376144,#2003 - 1 THE ESPLANADE,Toronto
2913,Downtown,499000,43.648296,-79.392952,#1503 - 125 Peter St,Toronto
2914,Fairbank,787000,43.70034,-79.447899,33 Tommy Douglas Gdns,Toronto
2915,Kingsview Village,224900,43.695709,-79.557632,#1714 - 390 Dixon Rd,Toronto
2916,Bayview Village,2298800,43.783833,-79.381851,25 Woodthrush Crt,Toronto
2917,Downtown,409900,43.641788,-79.381874,#3907 - 14 York St,Toronto
2918,Downtown,317900,43.657074,-79.355232,#320 - 51 Trolley Cres,Toronto
2919,Midtown Toronto,454800,43.670319,-79.394432,#1916 - 155 Yorkville Ave,Toronto
2920,Brookhaven - Amesbury,619900,43.700844,-79.478981,30 Gotham Crt,Toronto
2921,Norseman Heights,959000,43.632889,-79.510719,55 Coney Rd,Toronto
2922,Milliken,469900,43.811054,-79.279671,#46 - 15 Brimwood Blvd,Toronto
2923,Willowdale,30000,43.757996,-79.409592,#44 - 1 Avondale Ave,Toronto
2924,Birch Cliff,499900,43.688511,-79.267746,47 A Valhalla Blvd,Toronto
2925,Downtown,418000,43.648983,-79.365219,#401 - 65 Scadding Ave,Toronto
2926,Midtown Toronto,859900,43.707485,-79.39328,#1111 - 123 Eglinton Ave,Toronto
2927,Midtown Toronto,574990,43.664322,-79.418472,#702 - 11 Christie St,Toronto
2928,Downtown,399000,43.659824,-79.362724,#2608 - 225 Sackville St,Toronto
2929,Rexdale,699900,43.733768,-79.553894,4 Humberland Crt,Toronto
2930,Agincourt,218800,43.783657,-79.284416,#1803 - 4091 Sheppard Ave,Toronto
2931,Lansing,589900,43.760303,-79.411621,#606 - 9 Bogert Ave,Toronto
2932,Rouge,549900,43.807232,-79.173782,194 Braymore Blvd,Toronto
2933,Highland Creek,749900,43.795372,-79.177826,30 Charcoal Dr,Toronto
2934,Rockcliffe - Smythe,599000,43.66959,-79.500107,119 Foxwell St,Toronto
2935,Willowdale,498800,43.761196,-79.408951,#2108 - 33 Sheppard Ave,Toronto
2936,Brockton Village,274900,43.650913,-79.439461,1269 College St,Toronto
2937,Downtown,1299000,43.64613,-79.375778,#4302 - 8 The Esplanade Rd,Toronto
2938,Midtown Toronto,1598800,43.703079,-79.377678,105 Cleveland St,Toronto
2939,Bridle Path,10500000,43.739422,-79.377998,25 The Bridle Path,Toronto
2940,Bayview Village,499000,43.789333,-79.369072,86 Woody Vineway Way,Toronto
2941,The Beach,799000,43.676132,-79.301125,181 Wheeler Ave,Toronto
2942,Downtown,549900,43.665749,-79.385513,#2405 - 5 St Joseph St,Toronto
2943,Leslieville,949900,43.663872,-79.343552,1093 Dundas St,Toronto
2944,Downtown,439800,43.641632,-79.38205,#4205 - 12 York St,Toronto
2945,Lawrence Heights,294000,43.714592,-79.452911,#1421 - 800 Lawrence Ave,Toronto
2946,Midtown Toronto,767000,43.675331,-79.397125,#1607 - 170 Avenue Rd,Toronto
2947,Old East York,699900,43.686562,-79.338753,71 Marlow Ave,Toronto
2948,Milliken,499900,43.800041,-79.315277,#2307 - 2330 Bridletowne Circ,Toronto
2949,Wexford - Maryvale,649900,43.751442,-79.298271,115 Lilian Dr,Toronto
2950,Midtown Toronto,955000,43.68679,-79.413551,#Ph2 - 240 Heath St,Toronto
2951,Runnymede,598000,43.664162,-79.487778,701 Willard Ave,Toronto
2952,Highland Creek,699900,43.791897,-79.180244,44 Parade Sq,Toronto
2953,Toronto,348800,43.640335,-79.424477,#1202 - 38 Joe Shuster Way,Toronto
2954,Downtown,369900,43.645985,-79.389938,#1303 - 8 Mercer St,Toronto
2955,Woburn,349900,43.773685,-79.249619,#1611 - 68 Grangeway Ave,Toronto
2956,Jane and Finch,439900,43.739269,-79.52002,28 Sebastian Cabotway,Toronto
2957,Midtown Toronto,679000,43.686378,-79.415024,#1605 - 260 Heath St,Toronto
2958,Morningside,429900,43.790234,-79.197525,743 Military Tr,Toronto
2959,Scarborough Village,275000,43.743954,-79.212692,#502 - 3233 Eglinton Ave,Toronto
2960,Bendale,295000,43.773251,-79.255272,#3409 - 50 Town Centre Crt,Toronto
2961,Willowdale,334800,43.779987,-79.412735,#703 - 35 Finch Ave,Toronto
2962,Old East York,629000,43.693001,-79.314102,330 Cedarvale Ave,Toronto
2963,Steeles,1080000,43.810154,-79.310905,42 Lapworth Cres,Toronto
2964,Jane and Finch,349000,43.767052,-79.514549,#3 - 380 Driftwood Ave,Toronto
2965,Malvern,449900,43.802094,-79.213951,25 Burkwood Cres,Toronto
2966,Agincourt,129000,43.806137,-79.288139,#D106 - 3278 Midland Ave,Toronto
2967,Bendale,279800,43.773312,-79.258728,#3005 - 60 Brian Harrison Way,Toronto
2968,Agincourt,339000,43.777565,-79.281006,#3917 - 135 Village Green Sq,Toronto
2969,Willowdale,999900,43.773785,-79.441116,12 Muirkirk Rd,Toronto
2970,Emery,102000,43.749187,-79.542702,#704 - 3390 Weston Rd,Toronto
2971,Willowdale,738000,43.766571,-79.392365,#401 - 1 Hycrest Ave,Toronto
2972,Willowdale,459900,43.764893,-79.410446,#1702 - 18 Spring Garden Ave,Toronto
2973,Midtown Toronto,999000,43.711578,-79.407234,19 Birdsall Ave,Toronto
2974,Alderwood,688800,43.60289,-79.554947,23 Dunning Cres,Toronto
2975,Malvern,368000,43.811447,-79.226776,#40 - 30 Wingarden Crt,Toronto
2976,Downtown,700000,43.64764,-79.398697,#Ph27 - 500 Richmond St,Toronto
2977,Sherwood Park,649000,43.709629,-79.397903,#Th5 - 11 Broadway Ave,Toronto
2978,Willowdale,499999,43.778927,-79.417114,#Urg05 - 7 Lorraine Dr,Toronto
2979,Niagara,519900,43.641579,-79.415901,#109 - 1030 King St,Toronto
2980,Downtown,369900,43.663174,-79.377777,#606 - 281 Mutual St,Toronto
2981,Markland Wood,1580000,43.630856,-79.574463,35 Conifer Dr,Toronto
2982,Port Union,1188000,43.782364,-79.165337,18 Bonacres Ave,Toronto
2983,Islington - City Centre West,1988000,43.655499,-79.553024,238 Martin Grove Rd,Toronto
2984,Armdale,125000,43.829632,-79.254021,#40 - 501 Passmore Ave,Toronto
2985,Newtonbrook,2388000,43.781757,-79.411766,60 Pemberton Ave,Toronto
2986,Lawrence Heights,409900,43.717121,-79.441757,#512 - 650 Lawrence Ave,Toronto
2987,Bathurst Manor,1180000,43.761745,-79.459175,126 Shaftesbury St,Toronto
2988,Toronto,599900,43.695759,-79.269356,155 Eastwood Ave,Toronto
2989,Malvern,259000,43.809708,-79.221169,#1002 - 400 Mclevin Ave,Toronto
2990,Rexdale,435000,43.731674,-79.576454,#612 - 80 Esther Lorrie Dr,Toronto
2991,Downtown,484878,43.64048,-79.394966,#541 - 8 Telegram Mews,Toronto
2992,Downtown,469000,43.647022,-79.401855,#708 - 156 Portland St,Toronto
2993,York Mills,1079000,43.744148,-79.403465,#311 - 51 York Mills Rd,Toronto
2994,Old Town,379900,43.653194,-79.368637,#Ph 55 - 313 Richmond St,Toronto
2995,Downtown,448000,43.649246,-79.375755,#439 - 22 Leader Lane,Toronto
2996,Morningside,365000,43.786888,-79.205353,#197 - 10 Livonia Pl,Toronto
2997,Swansea,538800,43.636292,-79.470467,#2605 - 103 The Queensway Ave,Toronto
2998,Little Italy,999900,43.653435,-79.413155,13 Mansfield Ave,Toronto
2999,Downtown,474500,43.647224,-79.391098,#712 - 21 Widmer St,Toronto
3000,North Toronto,2595000,43.731457,-79.394394,178 Roslin Ave,Toronto
3001,Stockyards District,529000,43.675156,-79.469582,105 Weston Rd,Toronto
3002,Islington - City Centre West,399900,43.609261,-79.558998,#2004 - 235 Sherway Gardens Rd,Toronto
3003,Henry Farm,495000,43.774895,-79.345955,#1608 - 70 FOREST MANOR RD,Toronto
3004,Church and Wellesley,244900,43.66708,-79.383156,#1405 - 30 GLOUCESTER ST,Toronto
3005,St. Andrew - Windfields,2398000,43.751247,-79.397919,283 UPPER HIGHLAND CRES,Toronto
3006,Playter Estates,699000,43.678699,-79.360191,3 Ozark Cres,Toronto
3007,Englemount - Lawrence,448000,43.721115,-79.430847,#806 - 2 COVINGTON RD,Toronto
3008,Downtown,399900,43.656525,-79.355331,#534 - 47 Lower River St,Toronto
3009,Bayview Village,439000,43.767937,-79.387955,#1126 - 2885 BAYVIEW AVE,Toronto
3010,Milliken,319000,43.800648,-79.307007,#1709 - 45 SILVER SPRINGS BLVD,Toronto
3011,Downtown,120000,43.656643,-79.383751,66 EDWARD ST,Toronto
3012,Downtown,389900,43.656731,-79.383461,#203 - 633 Bay St,Toronto
3013,Downtown,49000,43.657974,-79.401749,300 College St,Toronto
3014,Bendale,799999,43.753788,-79.249809,30 Medley Cres,Toronto
3015,Mimico,1260000,43.607998,-79.496994,37 B ELMA ST,Toronto
3016,Windfields,2088000,43.739819,-79.358345,9 Cicada Crt,Toronto
3017,Woburn,649000,43.772247,-79.223053,89 Mountland Dr,Toronto
3018,Rexdale,528888,43.723045,-79.603409,22 MARE CRES,Toronto
3019,Downtown,38000,43.642578,-79.3769,16 Harbour St,Toronto
3020,Toronto,749000,43.708004,-79.499847,3 UPWOOD AVE,Toronto
3021,Rexdale,550000,43.716431,-79.572281,45 Brydon Dr,Toronto
3022,Downtown,749000,43.648685,-79.388634,29 NELSON ST,Toronto
3023,Birch Cliff,1119800,43.684292,-79.27916,14 Elmview Dr,Toronto
3024,Alderwood,1299000,43.595139,-79.545746,43B Foch Ave,Toronto
3025,Willowdale,1180000,43.779171,-79.417351,19B Finch Ave,Toronto
3026,Alderwood,1289000,43.606544,-79.54483,463 Valermo Dr,Toronto
3027,Downtown,205000,43.64732,-79.402374,609 Queen St,Toronto
3028,Bendale,769000,43.747349,-79.255836,20 Penzance Dr,Toronto
3029,Rexdale,654000,43.726055,-79.568031,29 Tayrow Rd,Toronto
3030,Mimico,947000,43.621235,-79.49897,28 Algoma St,Toronto
3031,Rouge,899000,43.784172,-79.127228,102 Portwine Dr,Toronto
3032,Downtown,499000,43.663052,-79.386345,#605 - 889 Bay St,Toronto
3033,Humber Summit,799000,43.754292,-79.578156,12 Emily Ave,Toronto
3034,Bendale,569000,43.762436,-79.247223,16 Brantwood Dr,Toronto
3035,The Beach,2189000,43.675526,-79.300285,264 Lee Ave,Toronto
3036,Bendale,599900,43.74881,-79.258537,99 Marcos Blvd,Toronto
3037,Emery,550000,43.746212,-79.540009,199 Habitant Dr,Toronto
3038,Malvern,215999,43.807106,-79.227829,#54 - 42 Pinery Tr,Toronto
3039,Mimico,780000,43.618263,-79.508858,414 Melrose St,Toronto
3040,Milliken,739000,43.811516,-79.280769,9 Danjohn Cres,Toronto
3041,Eatonville,299900,43.640301,-79.562302,#711 - 6 Eva Rd,Toronto
3042,Malvern,529500,43.802151,-79.220016,128 Berner Tr,Toronto
3043,Golden Mile,589000,43.716053,-79.280365,21 Gerigs St,Toronto
3044,Clairlea,589900,43.714607,-79.282372,692 Warden Ave,Toronto
3045,Leslieville,599000,43.666473,-79.328804,105 Alton Ave,Toronto
3046,Rexdale,549900,43.730797,-79.57737,40 Jansusie Rd,Toronto
3047,The Queensway,1499999,43.624435,-79.512314,938 THE QUEENSWAY AVE,Toronto
3048,Hillcrest Village,699900,43.808285,-79.351822,323 CLIFFWOOD RD,Toronto
3049,Armdale,125000,43.829632,-79.254021,#40 - 501 Passmore Ave,Toronto
3050,Bathurst Manor,999900,43.754772,-79.442169,664 Sheppard Ave,Toronto
3051,Newtonbrook,2708,43.79073,-79.417946,#5th Flr - 6075 Yonge St,Toronto
3052,Niagara,646000,43.637432,-79.401039,#Th12 - 20 Bruyeres Mews,Toronto
3053,Downtown,459900,43.642883,-79.380615,#2605 - 55 Bremner Blvd,Toronto
3054,Midtown Toronto,898000,43.672985,-79.387032,#3507 - 825 Church St,Toronto
3055,Toronto,419000,43.653225,-79.383186,#1901 - 20 Minowan Miikan Lane,Toronto
3056,York Mills,398888,43.749531,-79.407188,#820 - 18 William Carson Cres,Toronto
3057,Flemingdon Park,300000,43.719494,-79.337746,#1101 - 797 Don Mills Rd,Toronto
3058,Morningside,345000,43.785278,-79.204994,##52 - 21 Livonia Pl,Toronto
3059,Midtown Toronto,4998000,43.692715,-79.416664,33 VESTA DR,Toronto
3060,Clairlea - Birchmount,579000,43.702419,-79.274368,32 Belanger Cres,Toronto
3061,Downtown,529900,43.660149,-79.360886,#1109 - 170 Sumach St,Toronto
3062,Downsview,495999,43.726528,-79.52282,56 Joseph Griffith Lane,Toronto
3063,Willowdale,368800,43.761196,-79.408951,#2005 - 33 Sheppard Ave,Toronto
3064,Toronto,311900,43.824078,-79.273773,#212 - 80 Alton Towers Circ,Toronto
3065,Woburn,10000,43.78167,-79.247215,36 Lee Centre Dr,Toronto
3066,Willowdale,580000,43.760952,-79.410385,#3B - 4773 Yonge St,Toronto
3067,Downtown,269300,43.663322,-79.376991,#112 - 415 Jarvis St,Toronto
3068,Eglinton East,289900,43.737576,-79.238251,#305 - 330 Mccowan Rd,Toronto
3069,Mount Dennis,549000,43.691414,-79.50309,21 LAXIS AVE,Toronto
3070,Kennedy Park,589900,43.727516,-79.253731,5 Commonwealth Ave,Toronto
3071,Downtown,359900,43.654224,-79.353928,#N910 - 120 Bayview Ave,Toronto
3072,Entertainment District,474800,43.649025,-79.387138,#2206 - 126 Simcoe St,Toronto
3073,Mount Dennis,549000,43.691414,-79.50309,21 LAXIS AVE,Toronto
3074,Newtonbrook,499800,43.780727,-79.419991,#35 - 49 HENDON AVE,Toronto
3075,Kennedy Park,550000,43.722595,-79.254547,42 GRANGER AVE,Toronto
3076,Bayview Village,339000,43.769569,-79.369514,#1505 - 19 SINGER CRT,Toronto
3077,Agincourt,339800,43.807129,-79.26754,#2008 - 5001 Finch Ave,Toronto
3078,Willowdale,379000,43.756668,-79.408623,#308 - 28 Harrison Garden Blvd,Toronto
3079,Wexford - Maryvale,699000,43.753544,-79.310608,2 Robertsfield Cres,Toronto
3080,Eatonville,799000,43.642269,-79.555969,41 Blaketon Rd,Toronto
3081,Willowdale,829000,43.776329,-79.412376,#1516 - 28 SOMMERSET WAY,Toronto
3082,Humber Bay,359000,43.624073,-79.484917,#1103 - 88 PARK LAWN RD,Toronto
3083,Malvern,499000,43.792038,-79.234344,#510 - 19 Rosebank Dr,Toronto
3084,Steeles,624900,43.814575,-79.334763,72 CRAYFORD DR,Toronto
3085,West Hill,499900,43.765007,-79.19281,60 IGNATIUS LANE,Toronto
3086,Toronto,359900,43.653225,-79.383186,9 San Roberto Way,Toronto
3087,Willowdale,638000,43.767403,-79.410599,#1412 - 188 Doris Ave,Toronto
3088,Dorset Park,190000,43.749035,-79.266685,#501 - 101 Prudential Dr,Toronto
3089,Mimico,689000,43.625542,-79.477242,#W L05 - 80 Marine Parade Dr,Toronto
3090,Mimico,464900,43.622589,-79.482445,#3808 - 2212 Lake Shore Blvd,Toronto
3091,Downtown,299900,43.637386,-79.398201,#605 - 38 Dan Leckie Way,Toronto
3092,Rexdale,87900,43.738522,-79.565941,2652 ISLINGTON AVE,Toronto
3093,Humber Bay,1089000,43.624073,-79.484917,#3103 - 88 PARK LAWN RD,Toronto
3094,Rexdale,219900,43.75449,-79.615273,#13 - 32 GOODMARK PL,Toronto
3095,Old Town,490000,43.65406,-79.369118,#Uph13 - 320 RICHMOND ST E,Toronto
3096,Toronto,359900,43.653225,-79.383186,9 San Roberto Way,Toronto
3097,Don Valley Village,319900,43.791103,-79.357162,#812 - 177 LINUS RD E,Toronto
3098,Downtown,369000,43.655956,-79.37291,#604 - 220 GEORGE ST,Toronto
3099,Glen Park,799900,43.708565,-79.468506,27 Eugene St,Toronto
3100,Downtown,574900,43.653973,-79.388565,#3403 - 426 UNIVERSITY AVE,Toronto
3101,Wilson Heights,2800000,43.747173,-79.450569,9 Bowring Walk,Toronto
3102,Jane and Finch,305800,43.740059,-79.509605,#1004 - 1900 Sheppard Ave,Toronto
3103,West Hill,420000,43.767723,-79.174797,#90 - 275 Manse Rd,Toronto
3104,Humber Bay,270000,43.624073,-79.484917,#301 - 88 Park Lawn Rd,Toronto
3105,Niagara,419800,43.637432,-79.401039,#2811 - 20 BRUYERES MEWS,Toronto
3106,Malvern,269900,43.791725,-79.23687,#5A - 6 Rosebank Dr,Toronto
3107,Parkdale,319999,43.635578,-79.441345,#411 - 2167 Lakeshore Blvd,Toronto
3108,Agincourt,608800,43.808712,-79.255737,#15 - 435 Middlefield Rd,Toronto
3109,Downtown,1448000,43.64613,-79.375778,#4605 - 8 The Esplanade St,Toronto
3110,Midtown Toronto,2388000,43.705612,-79.383003,298 Manor Rd,Toronto
3111,Armdale,449900,43.82074,-79.261734,##a4 - 3300 Mcnicoll Ave,Toronto
3112,Willowdale,2787000,43.775288,-79.408012,102 Church Ave,Toronto
3113,Downtown,60000,43.642273,-79.372704,29 Queens Quay,Toronto
3114,Wexford,748000,43.754932,-79.302658,4 Princemere Cres,Toronto
3115,Niagara,5000,43.63966,-79.415771,#2 - 100 Western Battery Rd,Toronto
3116,Wallace Emerson,699000,43.663517,-79.437851,17 Wallace Ave,Toronto
3117,Wallace Emerson,799900,43.663921,-79.446434,55 WARD ST,Toronto
3118,Mimico,419000,43.621613,-79.482918,#2902 - 2230 Lakeshore Blvd,Toronto
3119,Humber Heights - Westmount,698800,43.68832,-79.514221,548 B SCARLETT RD,Toronto
3120,Briar Hill - Belgravia,945000,43.712105,-79.445091,734 Marlee Ave,Toronto
3121,Emery,599000,43.740314,-79.544762,131 ST. LUCIE DR,Toronto
3122,Earlscourt,549900,43.680241,-79.463577,144 Rosethorn Ave,Toronto
3123,Mount Dennis,374000,43.692608,-79.50843,#301 - 74 SIDNEY BELSEY ST,Toronto
3124,Scarborough Village,329999,43.749214,-79.20591,#Th 40 - 3646 KINGSTON RD,Toronto
3125,Willowdale,319900,43.757698,-79.409042,#2509 - 16 HARRISON GARDEN BLVD,Toronto
3126,Willowdale,448800,43.757988,-79.403625,#1030 - 120 HARRISON GARDEN BLVD,Toronto
3127,Willowdale,609000,43.768574,-79.389618,#Th104 - 399 SPRING GARDEN AVE,Toronto
3128,The Queensway,16000,43.623314,-79.516945,#Pkg342 - 1050 THE QUEENSWAY WAY,Toronto
3129,Agincourt,394900,43.778614,-79.281258,#1007 - 151 VILLAGE GREEN SQ,Toronto
3130,Mimico,322800,43.622589,-79.482445,#3005 - 2212 LAKE SHORE BLVD W,Toronto
3131,Eringate - Centennial - West Deane,289000,43.656895,-79.570404,#301 - 714 THE WEST MALL S,Toronto
3132,Islington - City Centre West,299900,43.642925,-79.526726,#312 - 2 FIELDWAY RD,Toronto
3133,Bendale,269000,43.773582,-79.258919,#1606 - 50 BRIAN HARRISON WAY,Toronto
3134,Islington - City Centre West,399900,43.609261,-79.558998,2004 235 Sherway Gardens Road,Toronto
3135,Henry Farm,259900,43.769733,-79.345482,#1409 - 10 PARKWAY FOREST DR,Toronto
3136,Bendale,298000,43.773312,-79.258728,#3602 - 60 BRIAN HARRISON WAY,Toronto
3137,Agincourt,329500,43.777565,-79.281006,#3118 - 135 VILLAGE GREEN SQ,Toronto
3138,Victoria Village,344800,43.723495,-79.303215,#212 - 65 CRANBORNE AVE,Toronto
3139,Bendale,259000,43.773582,-79.258919,#503 - 50 BRIAN HARRISON WAY,Toronto
3140,Downtown,989000,43.64613,-79.375778,#1205 - 8 THE ESPLANADE AVE,Toronto
3141,Midtown Toronto,328888,43.709068,-79.393547,#203 - 170 ROEHAMPTON AVE,Toronto
3142,Emery,499000,43.746689,-79.547523,106 Lanyard Rd,Toronto
3143,Bendale,769900,43.749783,-79.250481,41 Gage Ave,Toronto
3144,Downsview,788800,43.722591,-79.51664,36 Loney Ave,Toronto
3145,Rouge,1199900,43.801319,-79.179985,18 DALI CRES,Toronto
3146,Rustic,775000,43.712666,-79.493423,38 Veerland Dr,Toronto
3147,Midtown Toronto,628800,43.686676,-79.399445,#816 - 111 ST. CLAIR AVE W,Toronto
3148,York University Heights,920000,43.764595,-79.503365,411 MURRAY ROSS PKWY,Toronto
3149,Islington - City Centre West,399900,43.609261,-79.558998,235 Sherway Gardens Road,Toronto
3150,Mimico,309905,43.62001,-79.483086,#905 - 2261 LAKE SHORE BLVD W,Toronto
3151,Newtonbrook,719000,43.788425,-79.390388,#Lph105 - 17 RUDDINGTON DR,Toronto
3152,Humber Bay Shores,525000,43.626965,-79.478485,#3007 - 16 BROOKERS LANE S,Toronto
3153,Agincourt,295000,43.779205,-79.281517,#816 - 181 VILLAGE GREEN SQ W,Toronto
3154,Markland Wood,399900,43.639656,-79.58271,#907 - 820 BURNHAMTHORPE RD,Toronto
3155,Weston,119900,43.700745,-79.517921,1941 WESTON RD,Toronto
3156,Islington - City Centre West,284888,43.609573,-79.557335,#204 - 205 Sherway Gardens Rd,Toronto
3157,Entertainment District,539000,43.641491,-79.382607,#3309 - 19 GRAND TRUNK CRES,Toronto
3158,Humber Bay Shores,1550000,43.631355,-79.474609,#2601 - 2045 LAKE SHORE BLVD W,Toronto
3159,Bayview Village,449900,43.768646,-79.369026,#203 - 72 ESTHER SHINER BLVD,Toronto
3160,Willowdale,399000,43.757988,-79.403625,#1311 - 120 HARRISON GARDEN BLVD,Toronto
3161,Fashion District,590000,43.646156,-79.397179,#Lph 91 - 399 ADELAIDE ST W,Toronto
3162,Islington - City Centre West,343000,43.638172,-79.536194,#1631 - 35 VIKING LANE,Toronto
3163,Willowdale,349000,43.757988,-79.403625,#717 - 120 HARRISON GARDEN BLVD,Toronto
3164,Islington - City Centre West,299000,43.640285,-79.559464,#806 - 1 VALHALLA INN RD,Toronto
3165,Bayview Village,318888,43.768646,-79.369026,#621 - 72 ESTHER SHINER BLVD,Toronto
3166,Roncesvalles Village,650,43.639183,-79.451019,#Gnd Fl- 2217 THE QUEENSWAY WAY,Toronto
3167,Lawrence Heights,420000,43.714592,-79.452911,#Ph2113 - 800 LAWRENCE AVE W,Toronto
3168,Fairbank,599000,43.684696,-79.457497,362 Mcroberts Ave,Toronto
3169,Downtown,327000,43.639095,-79.386475,#201 - 270 QUEENS QUAY W,Toronto
3170,Wexford - Maryvale,649000,43.738956,-79.290405,10 HUGHES PL,Toronto
3171,Carleton Village,699900,43.670303,-79.457619,1988 DAVENPORT RD,Toronto
3172,Swansea,790000,43.64967,-79.476456,131 BERESFORD AVE,Toronto
3173,East Danforth,397500,43.685455,-79.313133,#711 - 2055 DANFORTH AVE,Toronto
3174,Milliken,859000,43.812012,-79.272614,16 BRIDLEY DR,Toronto
3175,Leslieville,989000,43.661396,-79.339134,1010 QUEEN ST E,Toronto
3176,Niagara,539000,43.633461,-79.399681,#172 - 28 STADIUM RD S,Toronto
3177,Downtown,489900,43.650406,-79.392166,#905 - 15 BEVERLEY ST,Toronto
3178,Downtown,329900,43.639343,-79.399841,#1610 - 170 FORT YORK BLVD,Toronto
3179,Woodbine - Lumsden,1100000,43.687271,-79.30703,2328 DANFORTH AVE,Toronto
3180,Downsview,560000,43.726055,-79.513565,126 CHALKFARM DR,Toronto
3181,Toronto,2888800,43.738964,-79.382706,2436 Bayview Ave,Toronto
3182,White Haven,718000,43.790421,-79.252586,36 GLENSTROKE DR,Toronto
3183,Sunnylea,1050000,43.640781,-79.505577,39 SUNNYLEA AVE W,Toronto
3184,Parkwoods - Donalda,1290000,43.76067,-79.340393,28 CAMWOOD CRES,Toronto
3185,Willowdale,399999,43.757408,-79.406853,#938 - 5 EVERSON DR,Toronto
3186,Rexdale,599000,43.736458,-79.584396,22 MASSEYGROVE CRES,Toronto
3187,Jane and Finch,399000,43.751255,-79.528702,#07 - 750 OAKDALE RD,Toronto
3188,C.D. Farquharson,859000,43.786312,-79.259621,76 KEYWORTH TR,Toronto
3189,Downtown,549000,43.647224,-79.391098,#4109 - 21 WIDMER ST,Toronto
3190,Mount Dennis,219000,43.686962,-79.50605,#806 - 85 EMMETT AVE,Toronto
3191,Woodbine - Lumsden,749800,43.693295,-79.313347,238 LUMSDEN AVE,Toronto
3192,Mimico,369000,43.621376,-79.483429,#901 - 15 LEGION RD,Toronto
3193,Wexford - Maryvale,649900,43.75909,-79.309013,133 ELLESMERE RD,Toronto
3194,Downtown,319900,43.668777,-79.383995,#1203 - 45 CHARLES ST E,Toronto
3195,York Mills,8800000,43.743626,-79.391846,75 HIGHLAND CRES,Toronto
3196,Willowdale,1080000,43.775955,-79.433769,216 B FINCH AVE,Toronto
3197,Woburn,429000,43.780869,-79.24852,#Ph305 - 18 LEE CENTRE DR,Toronto
3198,Maple Leaf,1099000,43.71077,-79.477043,11 SPARTA RD,Toronto
3199,Emery,499000,43.746689,-79.547523,106 LANYARD RD,Toronto
3200,Toronto,319900,43.75103,-79.465858,#1203 - 55 DE BOERS DR,Toronto
3201,Hillcrest Village,600000,43.809689,-79.360413,62 THIMBLE BERRYWAY,Toronto
3202,Weston,1999999,43.700535,-79.517494,1935 WESTON RD,Toronto
3203,Jane and Finch,789999,43.743099,-79.518883,64 BREWSTER CRES,Toronto
3204,Etobicoke West Mall,769000,43.64373,-79.572029,617 BURNHAMTHORPE RD,Toronto
3205,Agincourt North,2200000,43.803215,-79.242554,2230 MARKHAM RD,Toronto
3206,New Toronto,252900,43.601498,-79.510078,#607 - 4 ELSINORE PATH,Toronto
3207,Glen Park,180000,43.706429,-79.465775,#710 - 940 CALEDONIA RD S,Toronto
3208,Mount Dennis,799000,43.68869,-79.49939,46 BARTONVILLE AVE W,Toronto
3209,Oakwood Village,799000,43.690025,-79.445328,519 NORTHCLIFFE BLVD,Toronto
3210,Mimico,467000,43.62421,-79.489449,#310 - 300 MANITOBA ST,Toronto
3211,Newtonbrook,1299000,43.782883,-79.436531,406 DREWRY AVE,Toronto
3212,Lambton Baby Point,478800,43.648243,-79.486626,#615 - 1 OLD MILL DR,Toronto
3213,Swansea,1299999,43.649208,-79.475655,78 RUNNYMEDE RD,Toronto
3214,Leslieville,539000,43.66893,-79.319023,116 RHODES AVE,Toronto
3215,Golden Mile,259000,43.722874,-79.289009,#D103 - 69 LEBOVIC AVE,Toronto
3216,Willowdale,1488000,43.780655,-79.40937,387 DUDLEY AVE,Toronto
3217,Downtown,384900,43.643486,-79.392303,#1619 - 352 FRONT ST W,Toronto
3218,Downtown,419800,43.647514,-79.3927,#1015 - 101 PETER ST,Toronto
3219,Highland Creek,749900,43.796749,-79.178284,62 GROVER DR,Toronto
3220,Midtown Toronto,628800,43.686676,-79.399445,#816 - 111 St. Clair Ave,Toronto
3221,Islington - City Centre West,799000,43.635952,-79.557785,11 Rollins Pl,Toronto
3222,Mount Dennis,287000,43.686134,-79.491875,#906 - 3559 Eglinton Ave,Toronto
3223,Midtown Toronto,499000,43.682873,-79.391518,#503 - 1177 YONGE ST,Toronto
3224,Tam O'Shanter - Sullivan,800000,43.776474,-79.311668,80 Highhill Dr,Toronto
3225,Milliken,449900,43.810703,-79.302322,#515 - 1881 Mcnicoll Ave,Toronto
3226,Willowdale,442000,43.760464,-79.410248,#2506 - 2 Anndale Dr,Toronto
3227,Downsview,649000,43.743031,-79.488449,9 Norman Wesley Way,Toronto
3228,Downtown,378800,43.643486,-79.392303,#1801 - 352 FRONT ST W,Toronto
3229,Downtown,520000,43.647224,-79.391098,#904 - 21 Widmer St,Toronto
3230,Agincourt,569000,43.786247,-79.288795,#71 - 10 CARDWELL AVE,Toronto
3231,Rexdale,599000,43.736458,-79.584396,22 Masseygrove Cres,Toronto
3232,Agincourt,330000,43.778069,-79.281731,#1211 - 125 Village Green Sq,Toronto
3233,Riverdale,469000,43.657894,-79.352921,#106 - 625 QUEEN ST E,Toronto
3234,Niagara,519000,43.641579,-79.415901,#538 - 1030 KING ST W,Toronto
3235,Newtonbrook,890000,43.77272,-79.452095,#808 - 10 TORRESDALE AVE,Toronto
3236,Downtown,569800,43.660103,-79.385086,#3511 - 763 BAY ST,Toronto
3237,Birch Cliff,449900,43.700253,-79.26326,47 Highview Ave,Toronto
3238,Downtown,384900,43.643486,-79.392303,#1619 - 352 Front St,Toronto
3239,Willowdale,482000,43.779987,-79.412735,#2310 - 35 Finch Ave,Toronto
3240,Morningside,449000,43.789639,-79.196129,# 819 - 819 MILITARY TR,Toronto
3241,Rexdale,579000,43.733696,-79.599754,24 CHANNING PL,Toronto
3242,Willowdale,359000,43.775902,-79.413261,#2606 - 10 NORTHTOWN WAY,Toronto
3243,Downtown,560000,43.654648,-79.37925,#2903 - 210 Victoria St,Toronto
3244,Woburn,379900,43.780197,-79.250015,#3339 - 68 CORPORATE DR,Toronto
3245,Downtown,339900,43.6395,-79.393425,#2816 - 11 BRUNEL CRT,Toronto
3246,Willowdale,393000,43.773746,-79.415512,#309 - 68 Canterbury Pl,Toronto
3247,Downtown,455000,43.669151,-79.387375,#1402 - 21 BALMUTO ST,Toronto
3248,Davenport,599999,43.670906,-79.449074,#62 - 55 FOUNDRY AVE,Toronto
3249,Oakridge,599900,43.698391,-79.271782,12 MILNE AVE,Toronto
3250,Liberty Village,460000,43.638607,-79.411858,#1404 - 51 EAST LIBERTY ST,Toronto
3251,Downtown,428000,43.64613,-79.375778,#2306 - 8 THE ESPLANADE AVE,Toronto
3252,Midtown Toronto,929000,43.670319,-79.394432,#2108 - 155 Yorkville  Avenue,Toronto
3253,North Toronto,489000,43.704678,-79.389,#511 - 650 MOUNT PLEASANT RD,Toronto
3254,Dovercourt Park,1777000,43.661903,-79.430969,#6 - 40 WESTMORELAND AVE,Toronto
3255,Midtown Toronto,838000,43.670605,-79.390388,#1704 - 80 CUMBERLAND AVE N,Toronto
3256,Midtown Toronto,2175000,43.685131,-79.410416,#1 - 292 ST. CLAIR AVE W,Toronto
3257,Agincourt,349000,43.779205,-79.281517,#1513 - 181 VILLAGE GREEN SQ,Toronto
3258,Trinity - Bellwoods,389900,43.646484,-79.419533,#207 - 109 OSSINGTON AVE,Toronto
3259,Armdale,170000,43.819874,-79.26194,#1 &amp; 2 - 735 MIDDLEFIELD RD,Toronto
3260,Bayview Village,385000,43.767937,-79.387955,#1416 - 2885 BAYVIEW AVE N,Toronto
3261,Midtown Toronto,479000,43.670319,-79.394432,#1120 - 155 YORKVILLE AVE,Toronto
3262,Dufferin Grove,299900,43.660225,-79.428726,#215 - 707 DOVERCOURT RD,Toronto
3263,Agincourt,366500,43.779129,-79.281883,#3022 - 275 VILLAGE GREEN SQ,Toronto
3264,Thorncliffe Park,389000,43.702606,-79.351501,#310 - 1 LEASIDE PARK DR,Toronto
3265,Etobicoke West Mall,299000,43.645687,-79.567093,#101 - 405 THE WEST MALL,Toronto
3266,Henry Farm,428000,43.775208,-79.336426,#2609 - 2015 SHEPPARD AVE E,Toronto
3267,Port Hope,358000,43.960762,-78.323914,#301 - 50 ANN O&#39;REILLY RD,Toronto
3268,Humber Bay Shores,449000,43.626965,-79.478485,#3108 - 16 BROOKERS LANE,Toronto
3269,Milliken,285000,43.824017,-79.2771,#1601 - 300 ALTON TOWERS CIRC,Toronto
3270,Kingsview Village,575000,43.697365,-79.546089,#Ph08 - 2000 ISLINGTON AVE,Toronto
3271,Bayview Village,289000,43.769722,-79.36692,#508 - 2756 OLD LESLIE ST,Toronto
3272,Parkwoods - Donalda,49900,43.74213,-79.31459,#11 - 1448 LAWRENCE AVE E,Toronto
3273,Agincourt,304000,43.779129,-79.281883,#515 - 275 VILLAGE GREEN SQ,Toronto
3274,Port Hope,621000,43.960762,-78.323914,#324 - 55 ANN O&#39;REILLY RD,Toronto
3275,Port Hope,453000,43.960762,-78.323914,#1367 - 60 ANN O&#39;REILLY RD,Toronto
3276,Rockcliffe - Smythe,299900,43.67659,-79.507599,#105 - 260 SCARLETT RD,Toronto
3277,Wexford - Maryvale,468000,43.757233,-79.288803,#103 - 1483 BIRCHMOUNT RD,Toronto
3278,Bayview Village,263000,43.767937,-79.387955,#1111 - 2885 BAYVIEW AVE,Toronto
3279,Milliken,290000,43.824017,-79.2771,#Ph109 - 300 ALTON TOWERS CIRC,Toronto
3280,Henry Farm,299900,43.774952,-79.33548,#2301 - 30 HERONS HILL WAY,Toronto
3281,Rexdale,179900,43.733749,-79.593086,#154 - 252 JOHN GARLAND BLVD,Toronto
3282,Downsview,348888,43.750595,-79.464058,#Ph09 - 1060 SHEPPARD AVE W,Toronto
3283,Lawrence Heights,568888,43.715069,-79.4533,#225 - 36 VIA BAGNATO BLVD,Toronto
3284,Mimico,429900,43.622883,-79.481972,#3304 - 2200 LAKESHORE BLVD W,Toronto
3285,Oakridge,398888,43.694603,-79.273277,#Ph 705 - 3520 DANFORTH AVE,Toronto
3286,Silverthorn,755000,43.687321,-79.468567,263 Kane Ave,Toronto
3287,Islington - City Centre West,349900,43.638172,-79.536194,#743 - 35 VIKING LANE,Toronto
3288,Willowdale,349900,43.757233,-79.404686,#1414 - 100 HARRISON GARDEN BLVD,Toronto
3289,Islington - City Centre West,649900,43.621418,-79.524788,1244 +A THE QUEENSWAY AVE,Toronto
3290,Willowdale,518500,43.757988,-79.403625,#1212 - 120 HARRISON GARDEN BLVD,Toronto
3291,Downtown,482500,43.667915,-79.375679,#703 - 500 SHERBOURNE ST,Toronto
3292,Newtonbrook,1300000,43.78463,-79.438087,423 Connaught Ave,Toronto
3293,Clairlea - Birchmount,599000,43.702419,-79.274368,38 BELANGER CRES,Toronto
3294,Golden Mile,359900,43.716156,-79.281998,#207 - 60 Mendelssohn St,Toronto
3295,St. Lawrence,48900,43.646358,-79.375259,1 SCOTT ST,Toronto
3296,Swansea,348000,43.636173,-79.470757,#1914 - 105 THE QUEENSWAY AVE,Toronto
3297,Niagara,319000,43.63673,-79.400505,#511 - 600 FLEET ST,Toronto
3298,Willowdale,408990,43.771595,-79.412178,#903 - 256 Doris Ave,Toronto
3299,Jane and Finch,548800,43.744633,-79.521751,163 Laura Rd,Toronto
3300,Downtown,438888,43.638866,-79.398438,#4305 - 85 Queens Wharf Rd,Toronto
3301,Midtown Toronto,579000,43.701252,-79.395897,#308 - 23 Glebe Rd,Toronto
3302,Woburn,320000,43.780869,-79.24852,#810 - 18 Lee Centre Dr,Toronto
3303,Downtown,749000,43.646164,-79.375038,#304 - 25 The Esplanade St,Toronto
3304,Downtown,419000,43.670547,-79.380585,#1112 - 28 TED ROGERS WAY,Toronto
3305,New Toronto,1250000,43.599621,-79.502159,93 Fifth St,Toronto
3306,Willowdale,442000,43.760464,-79.410248,#2506 - 2 ANNDALE DR,Toronto
3307,Sunnylea,1749000,43.647602,-79.509544,2983 BLOOR ST W,Toronto
3308,Weston,3880000,43.702057,-79.515335,58 ROSEMOUNT AVE,Toronto
3309,Rexdale,304900,43.724766,-79.616486,#1719 - 700 HUMBERWOOD BLVD,Toronto
3310,Toronto,299900,43.653225,-79.383186,#307 - 150 LEEWARD GLWY,Toronto
3311,Wexford,799000,43.755329,-79.302849,3 PRINCEMERE CRES,Toronto
3312,Woburn,599000,43.775383,-79.219765,69 MILFORD HAVEN DR,Toronto
3313,Morningside,420000,43.788143,-79.207649,#15 - 431 MILITARY TR,Toronto
3314,Old East York,159000,43.688763,-79.348549,1031 PAPE AVE,Toronto
3315,Silverstone,699900,43.745613,-79.600151,389 SILVERSTONE DR,Toronto
3316,Rexdale,599900,43.739582,-79.576431,225 TAYSHAM CRES,Toronto
3317,Downtown,439000,43.66544,-79.383354,#1607 - 22 WELLESLEY ST,Toronto
3318,Downtown,439900,43.650406,-79.392166,#905 - 15 BEVERLEY ST,Toronto
3319,Riverdale,549000,43.657894,-79.352921,#105 - 625 QUEEN ST E,Toronto
3320,Willowdale,368800,43.761196,-79.408951,#2005 - 33 SHEPPARD AVE E,Toronto
3321,Pleasant View,1100000,43.788658,-79.333115,602 VAN HORNE AVE,Toronto
3322,Milliken,1189000,43.816174,-79.31546,216 WINTERMUTE BLVD,Toronto
3323,Morningside,239900,43.786823,-79.19548,#1040 - 100 MORNELLE CRCT,Toronto
3324,Willowdale,339500,43.773746,-79.415512,#1703 - 68 CANTERBURY PL,Toronto
3325,Woodbine Gardens,550000,43.699547,-79.298256,84 HALSEY AVE,Toronto
3326,Agincourt North,2200000,43.803215,-79.242554,2230 Markham Rd,Toronto
3327,Leslieville,315900,43.662354,-79.340912,#Ph09 - 88 COLGATE AVE,Toronto
3328,Mimico,478800,43.628983,-79.477852,#512 - 2111 Lake Shore Blvd,Toronto
3329,Downtown,55000,43.642273,-79.372704,#Parkin- 29 QUEENS QUAY E,Toronto
3330,Islington - City Centre West,399000,43.643925,-79.528885,#903 - 1 Michael Power Pl,Toronto
3331,Humber Heights - Westmount,469888,43.682999,-79.525726,#1502 - 1403 Royal York Rd,Toronto
3332,Rexdale,674900,43.743301,-79.577774,88 Taysham Cres,Toronto
3333,Rexdale,394900,43.740173,-79.593338,#57 - 2014 Martin Grove Rd,Toronto
3334,Eringate - Centennial - West Deane,780000,43.660961,-79.588242,67 Garbutt Cres,Toronto
3335,Mimico,305000,43.622883,-79.481972,#1505 - 2200 Lake Shore Blvd,Toronto
3336,Parkdale,330000,43.635578,-79.441345,2167 Lake Shore Blvd,Toronto
3337,Parkdale,270000,43.635578,-79.441345,2167 Lake Shore Blvd,Toronto
3338,Rexdale,247400,43.758636,-79.58757,#308 - 21 MARKBROOK LANE,Toronto
3339,Humber Bay,389900,43.624374,-79.485542,#2710 - 90 PARK LAWN RD,Toronto
3340,Edenbridge - Humber Valley,1850000,43.658321,-79.518517,5 CANTERBURY CRES,Toronto
3341,Parkdale,118888,43.635517,-79.4412,2901 LAKESHORE BLVD,Toronto
3342,Eatonville,919000,43.640957,-79.554062,16 CRONIN DR,Toronto
3343,Richview,195900,43.680729,-79.568993,#606 - 44 LONGBOURNE DR,Toronto
3344,Humber Heights - Westmount,879900,43.697193,-79.52858,1 B BOWSPRIT AVE,Toronto
3345,Richview,599900,43.682896,-79.573242,64 CLARION RD,Toronto
3346,Rexdale,609900,43.750027,-79.591454,16 NETHERLY DR,Toronto
3347,Rexdale,719700,43.746357,-79.592484,113 MOUNT OLIVE DR,Toronto
3348,Alderwood,818000,43.607735,-79.541702,225 ALDERCREST RD,Toronto
3349,Islington - City Centre West,745000,43.64592,-79.519623,#406 - 1 ABERFOYLE CRES,Toronto
3350,Eatonville,62000,43.648571,-79.528931,4925 DUNDAS ST W,Toronto
3351,Kingsview Village,199900,43.695175,-79.556725,#1601 - 380 DIXON RD,Toronto
3352,Long Branch,899000,43.594166,-79.525467,9 ATHERTON CRES,Toronto
3353,New Toronto,228900,43.601498,-79.510078,#1114 - 4 ELSINORE PATH,Toronto
3354,Milliken,1099000,43.808376,-79.303505,32 PERTHSHIRE ST,Toronto
3355,Agincourt,638000,43.80761,-79.279587,30 MONTEZUMA TR,Toronto
3356,Highland Creek,949000,43.786201,-79.178551,61 BOBMAR RD,Toronto
3357,Bendale,455000,43.773918,-79.25515,21 TOWN CENTRE CRT,Toronto
3358,Cliffcrest,649900,43.73679,-79.2285,30 GLEN MUIR DR,Toronto
3359,Eglinton East,269000,43.737576,-79.238251,#1615 - 330 MCCOWAN RD,Toronto
3360,Woburn,649911,43.749954,-79.222412,25 PEKING RD,Toronto
3361,L'Amoreaux,998000,43.82288,-79.308533,84 NEW FOREST SQ,Toronto
3362,Woburn,270000,43.780956,-79.249779,#2112 - 88 CORPORATE DR,Toronto
3363,Tam O'Shanter,498800,43.786736,-79.291008,#905 - 228 BONIS AVE,Toronto
3364,Bendale,699000,43.763176,-79.257088,15 SANCREST DR,Toronto
3365,Milliken,439000,43.811077,-79.279678,#69 - 20 BRIMWOOD BLVD,Toronto
3366,Rouge,749990,43.820091,-79.207756,57 DARBY CRT,Toronto
3367,Oakridge,299900,43.694603,-79.273277,# 102 - 3520 DANFORTH AVE,Toronto
3368,Toronto,699988,43.824219,-79.264656,50 GREEN SPRING DR,Toronto
3369,Lambton,649900,43.663612,-79.502777,4037A Old Dundas St,Toronto
3370,Fairbank,649900,43.688278,-79.458618,511 Mcroberts Ave,Toronto
3371,Belgravia,899000,43.696625,-79.446663,1712 Eglinton Ave,Toronto
3372,Rockcliffe - Smythe,379900,43.681541,-79.48954,25 GREENDALE AVE,Toronto
3373,Weston,699000,43.705387,-79.525162,74 COULTER AVE,Toronto
3374,Briar Hill - Belgravia,650000,43.695675,-79.462006,72 SNIDER AVE,Toronto
3375,Downtown,599900,43.639782,-79.397949,#901 - 151 Dan Leckie Way,Toronto
3376,Downtown,649900,43.639725,-79.383247,#1811 - 228 Queens Quay,Toronto
3377,Downtown,478000,43.648983,-79.365219,#119 - 65 Scadding Ave,Toronto
3378,Leslieville,569000,43.673187,-79.321358,527 Craven Rd,Toronto
3379,Niagara,399900,43.637432,-79.401039,#1713 - 20 Bruyeres Mews,Toronto
3380,Downtown,395000,43.649246,-79.375755,#527 - 22 Leader Lane,Toronto
3381,Downtown,519000,43.644932,-79.392143,#923 - 36 Blue Jays Way,Toronto
3382,Earlscourt,599900,43.676262,-79.447182,120 Mackay Ave,Toronto
3383,Downtown,168800,43.650963,-79.397903,#261 - 222 Spadina Ave,Toronto
3384,Glen Park,999900,43.70932,-79.442337,796 Glencairn Ave,Toronto
3385,Woburn,388888,43.78167,-79.247215,#Ph 101 - 36 Lee Centre Dr,Toronto
3386,York University Heights,345000,43.751213,-79.464142,#1410 - 1 De Boers Dr,Toronto
3387,Ionview,695000,43.740768,-79.272987,58 Kingsdown Dr,Toronto
3388,Woburn,10000,43.78167,-79.247215,36 Lee Centre Dr,Toronto
3389,Birch Cliff,819900,43.698666,-79.261581,73 Pinegrove Ave,Toronto
3390,Maple Leaf,549900,43.719631,-79.488403,20 Rory Rd,Toronto
3391,Lansing,1388000,43.759163,-79.417168,129 Bogert Ave,Toronto
3392,Newtonbrook,384900,43.783112,-79.415199,#805 - 5765 Yonge St,Toronto
3393,Jane and Finch,125000,43.748493,-79.505875,#103 - 235 Grandravine Dr,Toronto
3394,Humberlea,899000,43.723419,-79.536842,2 Aura Lea Blvd,Toronto
3395,Willowdale,518000,43.767891,-79.411812,#518 - 8 Hillcrest Ave,Toronto
3396,Bendale,699900,43.749359,-79.255096,27 Canzone Dr,Toronto
3397,Agincourt,285000,43.779205,-79.281517,#920 - 181 Village Green Sq,Toronto
3398,Woburn,649900,43.755825,-79.215065,4 Holton Rd,Toronto
3399,Thorncliffe Park,229800,43.704323,-79.348961,#201 - 11 Thorncliffe Park Dr,Toronto
3400,Newtonbrook,1388000,43.783173,-79.430733,12 Theresa Ave,Toronto
3401,Woburn,250000,43.78167,-79.247215,#1508 - 36 Lee Centre Dr,Toronto
3402,Pape Village,699900,43.689499,-79.3424,317 Gowan Ave,Toronto
3403,Islington - City Centre West,608990,43.63802,-79.558617,Gibbs Road,Toronto
3404,Islington - City Centre West,409990,43.63802,-79.558617,Gibbs Road,Toronto
3405,Guildwood,699000,43.74382,-79.202057,8 Bournville Drive,Toronto
3406,Midtown Toronto,1299000,43.686562,-79.397255,#207 - 63 St Clair Ave,Toronto
3407,Downtown,219900,43.638477,-79.397987,#909 - 75 Queens Wharf Rd,Toronto
3408,Leslieville,629900,43.660915,-79.331604,32 Rushbrooke Ave,Toronto
3409,Downtown,372000,43.639851,-79.382431,#604 - 218 Queens Quay,Toronto
3410,The Beach,1095000,43.669979,-79.305237,20 Herbert Ave,Toronto
3411,Downtown,700000,43.645069,-79.390862,#Ph #06 - 270 Wellington St,Toronto
3412,Downtown,1763300,43.643326,-79.399147,#Th01 - 508 Wellington St,Toronto
3413,Highland Creek,849900,43.7883,-79.174713,89 Watson St,Toronto
3414,Malvern,569900,43.811871,-79.215607,29 Greenleaf Terr,Toronto
3415,Woburn,599000,43.759834,-79.243614,31 Benroyal Cres,Toronto
3416,Lawrence Heights,399900,43.715527,-79.451782,#148 - 760 Lawrence Ave,Toronto
3417,Bayview Village,820000,43.769524,-79.375183,#Th2 - 784 Sheppard Ave,Toronto
3418,Willowdale,368900,43.765579,-79.41259,#2201 - 4978 Yonge St,Toronto
3419,Steeles,1049800,43.814758,-79.313339,74 Burnt Bark Dr,Toronto
3420,Malvern,269000,43.810822,-79.223061,#214 - 430 Mclevin Ave,Toronto
3421,Windfields,1958000,43.739819,-79.358345,9 Cicada Crt,Toronto
3422,Malvern,499900,43.81374,-79.216736,100 Pennyhill Dr,Toronto
3423,Newtonbrook,338800,43.794613,-79.427216,#416 - 175 Hilda Ave,Toronto
3424,Willowdale,492000,43.778927,-79.417114,#2212 - 7 Lorraine Dr,Toronto
3425,Bayview Village,259800,43.769569,-79.369514,#202 - 19 Singer Crt,Toronto
3426,West Hill,559900,43.769882,-79.192253,7 Westcroft Dr,Toronto
3427,Palmerston,898000,43.661369,-79.415977,277 Clinton St,Toronto
3428,Downtown,429999,43.638866,-79.398438,#4305 - 85 Queens Wharf Rd,Toronto
3429,Swansea,389900,43.636925,-79.469055,#2101 - 15 Windermere Ave,Toronto
3430,Downtown,479900,43.647224,-79.391098,#2205 - 21 Widmer St,Toronto
3431,Leslieville,817900,43.669174,-79.317986,#Th2 - 96-104 Coxwell Ave,Toronto
3432,Wallace Emerson,1250000,43.665241,-79.445091,168 Lappin Ave,Toronto
3433,Midtown Toronto,379000,43.696804,-79.391914,#849 - 139 Merton St,Toronto
3434,Willowdale,1688000,43.764137,-79.436172,20 Christine Cres,Toronto
3435,Port Union,599900,43.776791,-79.140488,5 Bar Harbour Sq,Toronto
3436,Jane and Finch,199000,43.767372,-79.512451,#501 - 345 Driftwood Ave,Toronto
3437,Woburn,398000,43.773827,-79.250023,#2703 - 88 Grangeway Ave,Toronto
3438,Ionview,829000,43.73698,-79.27227,152 Bertrand Ave,Toronto
3439,Englemount - Lawrence,279000,43.730267,-79.441154,#710 - 130 Neptune Dr,Toronto
3440,Morningside,229000,43.786037,-79.197723,#820 - 3050 Ellesmere Rd,Toronto
3441,Willowdale,328000,43.761154,-79.408836,#2408 - 23 Sheppard Ave,Toronto
3442,Willowdale,372000,43.757153,-79.406555,#360 - 3 Everson Dr,Toronto
3443,Wexford - Maryvale,649000,43.755814,-79.306709,3 Archwood Cres,Toronto
3444,Armdale,374000,43.81329,-79.247902,#17 &amp; 18 - 5320 Finch Ave,Toronto
3445,Jane and Finch,390000,43.743454,-79.515144,#54 - 54 San Marinoway,Toronto
3446,Henry Farm,359900,43.774895,-79.345955,#1905 - 70 Forest Manor Rd,Toronto
3447,Willowdale,649000,43.757233,-79.404686,#Gph2 - 100 Harrison Garden Blvd,Toronto
3448,Rouge,829800,43.808765,-79.187553,34 Antelope Dr,Toronto
3449,Milliken,399800,43.811077,-79.279678,#26 - 20 Brimwood Blvd,Toronto
3450,Lansing,339000,43.765152,-79.412277,#1109 - 4968 Yonge St,Toronto
3451,Lansing,1199000,43.757084,-79.415306,99 Florence Ave,Toronto
3452,Downtown,20000,43.659454,-79.360992,55 Regent Park Blvd,Toronto
3453,Midtown Toronto,1350000,43.68071,-79.431236,832 St Clair Ave,Toronto
3454,Junction Triangle,699000,43.660744,-79.448898,125 Symington Ave,Toronto
3455,Downtown,509000,43.64613,-79.375778,#1512 - 8 The Esplanade Ave,Toronto
3456,Downtown,649800,43.659454,-79.360992,#113 - 55 Regent Park Blvd,Toronto
3457,Leslieville,35,43.671864,-79.323006,1415 Gerrard St,Toronto
3458,Downtown,529000,43.667828,-79.390923,#407 - 110 Charles St,Toronto
3459,Downtown,585900,43.642273,-79.372704,#321 - 29 Queens Quay,Toronto
3460,Downtown,669800,43.659454,-79.360992,#113 - 55 Regent Park Blvd,Toronto
3461,Midtown Toronto,1779000,43.71043,-79.40728,162 Castlefield Ave,Toronto
3462,Downtown,28500,43.670216,-79.381798,##15-P1 - 99 Hayden St,Toronto
3463,Downtown,319500,43.669876,-79.381516,#511 - 88 Charles St,Toronto
3464,Downtown,739000,43.648716,-79.375542,#204 - 30 Wellington St,Toronto
3465,Lansing,1199000,43.757111,-79.415184,97 Florence Ave,Toronto
3466,Downtown,719000,43.669456,-79.387474,#1908 - 35 Balmuto St,Toronto
3467,Midtown Toronto,468000,43.672985,-79.387032,#618 - 825 Church St,Toronto
3468,Brookside,849000,43.83075,-79.235527,29 Dusk Owl Dr,Toronto
3469,Leaside,458000,43.714638,-79.35463,#416 - 35 Brian Peck Cres,Toronto
3470,Agincourt,829900,43.794025,-79.285156,39 Stainforth Dr,Toronto
3471,Steeles,459000,43.815434,-79.325745,#1133 - 25 Bamburgh Circ,Toronto
3472,West Hill,1299000,43.773186,-79.165543,1 Mcmillan Ave,Toronto
3473,Highland Creek,899900,43.78801,-79.171791,20 Camor Crt,Toronto
3474,Willowdale,3398800,43.778057,-79.394241,122 Estelle Ave,Toronto
3475,Wexford - Maryvale,899900,43.752441,-79.312897,2011 Victoria Park Ave,Toronto
3476,Jane and Finch,569900,43.741692,-79.509544,23 Whitbread Cres,Toronto
3477,St. Andrew - Windfields,4580000,43.761257,-79.382507,62 Truman Rd,Toronto
3478,Victoria Village,429900,43.728333,-79.325882,#306 - 75 Wynford Heights Cres,Toronto
3479,Bendale,489000,43.772751,-79.260788,#3511 - 83 Borough Dr,Toronto
3480,Tam O'Shanter,489900,43.784775,-79.294304,102 Bonis Ave,Toronto
3481,Islington - City Centre West,399900,43.609573,-79.557335,#1602 - 205 Sherway Gdns,Toronto
3482,Downtown,610000,43.650372,-79.382347,#4617 - 70 Temperance St,Toronto
3483,Kennedy Park,549900,43.735493,-79.25148,2637 Eglinton Ave,Toronto
3484,Rouge,600000,43.80381,-79.178116,47 Braymore Blvd,Toronto
3485,Tam O'Shanter,398800,43.776508,-79.305168,#91 - 70 CASS AVE,Toronto
3486,C.D. Farquharson,669900,43.785637,-79.257538,31 KEYWORTH TR,Toronto
3487,Golden Mile,489000,43.723034,-79.293663,24 Lebovic Avenue,Toronto
3488,Malvern,380000,43.806725,-79.222084,#G-1 - 31 TAPSCOTT RD,Toronto
3489,Malvern,499000,43.792038,-79.234344,#1609 - 19 ROSEBANK DR,Toronto
3490,Milliken,678000,43.811642,-79.285889,67 KENNALEY CRES,Toronto
3491,Milliken,439800,43.813065,-79.276016,# 86 - 20 BRIMWOOD BLVD,Toronto
3492,Eglinton East,209900,43.740406,-79.237946,#202 - 121 TRUDELLE ST,Toronto
3493,Malvern,269900,43.791725,-79.23687,#5 A - 6 ROSEBANK DR,Toronto
3494,Rexdale,352900,43.724766,-79.616486,#1728 - 700 HUMBERWOOD BLVD,Toronto
3495,Long Branch,120000,43.595394,-79.528358,3409 LAKESHORE BLVD W,Toronto
3496,Humber Bay,419000,43.624073,-79.484917,#212 - 88 PARK LAWN RD,Toronto
3497,New Toronto,119000,43.597408,-79.521187,3214 LAKE SHORE BLVD W,Toronto
3498,Willowdale,439500,43.757988,-79.403625,#1335 - 120 Harrison Garden Blvd,Toronto
3499,Liberty Village,460000,43.638775,-79.41626,#2510 - 150 EAST LIBERTY ST,Toronto
3500,Midtown Toronto,469000,43.686676,-79.399445,#325 - 111 ST CLAIR AVE W,Toronto
3501,Milliken,449000,43.808331,-79.296898,#1 &amp; 2 - 81 MILLIKEN BLVD,Toronto
3502,Parkdale,499000,43.635578,-79.441345,#2605 - 2167 LAKESHORE BLVD,Toronto
3503,Milliken,28000,43.809711,-79.293976,#320 - 200 SILVER STAR BLVD,Toronto
3504,Agincourt,232000,43.783657,-79.284416,#1003 - 4091 SHEPPARD AVE E,Toronto
3505,Lawrence Heights,368000,43.714592,-79.452911,#710 - 800 LAWRENCE AVE W,Toronto
3506,Agincourt,254500,43.779129,-79.281883,#1821 - 275 VILLAGE GREEN SQ,Toronto
3507,Bayview Village,279000,43.769722,-79.36692,#515 - 2756 OLD LESLIE ST,Toronto
3508,Highland Creek,1398800,43.797604,-79.173981,WILLOWLEA DR WILLOWLEA DR,Toronto
3509,Newtonbrook,829000,43.793987,-79.430199,31 GREEN BUSH RD,Toronto
3510,Brookside,799000,43.83075,-79.235527,29 Dusk Owl Dr,Toronto
3511,Newtonbrook,1588000,43.791695,-79.401405,127 Maxome Ave,Toronto
3512,Harwood,389000,43.679291,-79.475693,17 Cayuga Ave,Toronto
3513,Downtown,389900,43.656731,-79.383461,#203 - 633 Bay St,Toronto
3514,Winston Park,829000,43.728584,-79.460335,33 Whitley Ave,Toronto
3515,Rexdale,579900,43.719517,-79.563904,40 Clearbrooke Circ,Toronto
3516,Rexdale,319500,43.731674,-79.576454,#315 - 80 Esther Lorrie Dr,Toronto
3517,Downtown,322800,43.650372,-79.382347,#3004 - 70 Temperance St,Toronto
3518,Milliken,98000,43.823952,-79.302422,#2B27/28 - 4675 Steeles Ave,Toronto
3519,Downtown,396900,43.639851,-79.382431,#1609 - 218 Queens Quay,Toronto
3520,Kingsview Village,849888,43.699989,-79.55825,15 Byworth Blvd,Toronto
3521,Midtown Toronto,129000,43.700562,-79.428612,944 Eglinton Ave,Toronto
3522,Wallace Emerson,1139000,43.664089,-79.445183,899 Lansdowne Ave,Toronto
3523,Willowdale,939000,43.760998,-79.410202,#902&amp;903 - 4789 Yonge St,Toronto
3524,Henry Farm,419000,43.773922,-79.345726,#102 - 62 Forest Manor Rd,Toronto
3525,Dufferin Grove,729000,43.653667,-79.428307,#604 - 130 Rusholme Rd,Toronto
3526,Parkwoods - Donalda,3288000,43.758492,-79.344276,26 Ruden Cres,Toronto
3527,Jane and Finch,150000,43.771133,-79.520821,#122 - 4765 Jane St,Toronto
3528,Midtown Toronto,1879000,43.684799,-79.40802,#13 - 260 Russell Hill Rd,Toronto
3529,Midtown Toronto,360000,43.696033,-79.395668,#1205 - 1815 Yonge St,Toronto
3530,Wexford - Maryvale,49000,43.757442,-79.312546,#62 - 85 Ellesmere Rd,Toronto
3531,Midtown Toronto,849000,43.715843,-79.397987,5 Brynhurst Crt,Toronto
3532,Midtown Toronto,699888,43.705097,-79.397514,#2311 - 2181 Yonge St,Toronto
3533,St. Andrew - Windfields,3820000,43.758949,-79.39373,76 Montressor Dr,Toronto
3534,Rockcliffe - Smythe,149900,43.668438,-79.486603,2532 St Clair Ave,Toronto
3535,Midtown Toronto,30000,43.674908,-79.388542,#29-30 - 909 Yonge St,Toronto
3536,Downtown,998000,43.643845,-79.391823,#1221 - 20 Blue Jays Way,Toronto
3537,Lawrence Heights,338800,43.714592,-79.452911,#1513 - 800 Lawrence Ave,Toronto
3538,Downsview,499000,43.750595,-79.464058,#108 - 1060 Sheppard Ave,Toronto
3539,Downtown,1628800,43.642273,-79.372704,#Th104 - 29 Queens Quay,Toronto
3540,Mimico,428800,43.62273,-79.483192,#3702 - 2220 Lake Shore Blvd,Toronto
3541,Victoria Village,394900,43.726643,-79.328133,#1208 - 133 Wynford Dr,Toronto
3542,Wexford - Maryvale,249000,43.73111,-79.279999,#103 - 2202 Eglinton Ave,Toronto
3543,Downtown,439888,43.667709,-79.386383,#1109 - 75 St Nicholas St,Toronto
3544,Armour Heights,4950000,43.7486,-79.429245,57 Timberlane Dr,Toronto
3545,Midtown Toronto,289900,43.705914,-79.402954,#1-2 - 158 Eglinton Ave,Toronto
3546,Henry Farm,329900,43.768776,-79.345757,#815 - 5 Parkway Forest Dr,Toronto
3547,O'Connor - Parkview,129000,43.705704,-79.311668,2714 St. Clair Ave,Toronto
3548,Willowdale,589000,43.763882,-79.410576,#1507 - 30 Greenfield Ave,Toronto
3549,Dovercourt Park,899999,43.668846,-79.433495,299 Westmoreland Ave,Toronto
3550,Princess Margaret,999999,43.663162,-79.54895,62 Lloyd Manor Rd,Toronto
3551,Willowdale,349000,43.778168,-79.417656,#1103 - 503 Beecroft Rd,Toronto
3552,Mimico,340000,43.625717,-79.477188,#907 - 110 Marine Parade Dr,Toronto
3553,Mimico,450000,43.624306,-79.480461,#1908 - 2175 Lake Shore Blvd,Toronto
3554,Don Valley Village,828000,43.785622,-79.360413,163 Silas Hills Dr,Toronto
3555,York University Heights,500,43.780308,-79.475067,#204 - 312 Dolomite Dr,Toronto
3556,The Beach,849000,43.670418,-79.300262,#301 - 2 Bellefair Ave,Toronto
3557,Midtown Toronto,598000,43.675331,-79.397125,#1603 - 170 Avenue Rd,Toronto
3558,Wallace Emerson,1200000,43.661716,-79.43631,1080 Dufferin St,Toronto
3559,Toronto,55000,43.653225,-79.383186,#2 - 1500 O&#39;connor Dr,Toronto
3560,York University Heights,2000,43.765362,-79.489883,#17 - 1290 Finch Ave,Toronto
3561,Henry Farm,338000,43.774746,-79.336929,#203 - 275 Yorkland Rd,Toronto
3562,Armdale,109900,43.82074,-79.261734,#218 - 3300 Mcnicoll Ave,Toronto
3563,Edenbridge - Humber Valley,399900,43.661823,-79.519699,270 The Kingsway Rd,Toronto
3564,Riverdale,1788000,43.678413,-79.348869,506-508 Danforth Ave,Toronto
3565,Entertainment District,411900,43.641037,-79.383202,#312 - 25 Lower Simcoe St,Toronto
3566,Midtown Toronto,12900000,43.671394,-79.391327,#Ph 1 - 80 Yorkville Ave,Toronto
3567,Midtown Toronto,1299000,43.722866,-79.380157,#3 - 40 Hargrave Lane,Toronto
3568,St. Andrew - Windfields,4280000,43.750565,-79.388824,170 Owen Blvd,Toronto
3569,White Haven,199800,43.791035,-79.239006,#603 - 39 Kimbercroft Crt,Toronto
3570,Toronto,205000,43.653225,-79.383186,#604 - 100 Leeward Glwy,Toronto
3571,Midtown Toronto,978000,43.717461,-79.37886,#417 - 1888 Bayview Ave,Toronto
3572,Rexdale,1400000,43.715015,-79.592422,120 Queens Plate Dr,Toronto
3573,Centennial Park,629500,43.651833,-79.579597,#11 - 520 Renforth Dr,Toronto
3574,Mimico,399900,43.624306,-79.480461,#2708 - 2175 Lake Shore Blvd,Toronto
3575,Newtonbrook,648800,43.788425,-79.390388,#Lph02 - 17 Ruddington Dr,Toronto
3576,Downsview,10,43.727947,-79.475685,#19 Lwr - 951 Wilson Ave,Toronto
3577,Milliken,138000,43.823952,-79.302422,#2C2 2C5 - 4675 Steeles Ave,Toronto
3578,Trinity - Bellwoods,99000,43.655483,-79.411507,539 College St,Toronto
3579,Armdale,300,43.830791,-79.24955,#B-202 - 833 Passmore Ave,Toronto
3580,Armdale,300,43.830791,-79.24955,#F-205 - 865 Passmore Ave,Toronto
3581,Armdale,300,43.830791,-79.24955,#F-102 - 865 Passmore Ave,Toronto
3582,Armdale,220,43.830791,-79.24955,#D-101 - 843 Passmore Ave,Toronto
3583,Midtown Toronto,699850,43.686676,-79.399445,#924 - 111 St Clair Ave,Toronto
3584,Downtown,469900,43.639782,-79.397949,#1015 - 151 Dan Leckie Way,Toronto
3585,St. Andrew - Windfields,2988800,43.76141,-79.38176,70 Truman Rd,Toronto
3586,Newtonbrook,303000,43.784409,-79.416061,#2001 - 5791 Yonge St,Toronto
3587,Harbord Village,879000,43.664246,-79.410103,20 Loretto Lane,Toronto
3588,Liberty Village,350000,43.638607,-79.411858,#1616 - 51 East Liberty St,Toronto
3589,Midtown Toronto,299000,43.671654,-79.3946,55 Avenue Road,Toronto
3590,Downtown,99000,43.659237,-79.382904,#3 - 384 YONGE ST,Toronto
3591,Midtown Toronto,398800,43.672554,-79.389572,#403 - 40 SCOLLARD ST,Toronto
3592,Midtown Toronto,494900,43.669575,-79.391754,#1606 - 102 BLOOR ST W,Toronto
3593,Midtown Toronto,299900,43.704247,-79.411438,430 EGLINTON AVE W,Toronto
3594,Milliken,205900,43.809711,-79.293976,#323 - 200 Silver Star Blvd,Toronto
3595,Riverdale,395000,43.678158,-79.347923,535 DANFORTH AVE,Toronto
3596,Humber Summit,349900,43.766491,-79.536613,#20 - 109 Ormont Dr,Toronto
3597,Downtown,529000,43.669609,-79.384773,#212 - 35 HAYDEN ST,Toronto
3598,Trinity - Bellwoods,69000,43.654827,-79.415947,651 COLLEGE ST,Toronto
3599,Downtown,549000,43.661793,-79.384506,#Ph-Xx - 21 GRENVILLE ST,Toronto
3600,Bathurst Manor,2499000,43.753155,-79.450783,816-818 Sheppard Ave,Toronto
3601,Downtown,374888,43.638866,-79.398438,#623 - 85 QUEENS WHARF RD,Toronto
3602,Bloor West Village,25000,43.650497,-79.47934,2300A Bloor St,Toronto
3603,Old Town,549900,43.653194,-79.368637,#361 - 313 RICHMOND ST E,Toronto
3604,Downtown,995000,43.64016,-79.377655,#1827 - 33 Harbour Square,Toronto
3605,Little Italy,119000,43.652119,-79.407463,#3 rd Fl- 770-772 DUNDAS ST W,Toronto
3606,Downtown,479900,43.641346,-79.372421,#630 - 39 QUEENS QUAY,Toronto
3607,Swansea,419800,43.636925,-79.469055,#2701 - 15 WINDERMERE AVE,Toronto
3608,St. Clair West Village,119000,43.679684,-79.436317,962 St Clair Ave,Toronto
3609,Scarborough Junction,399900,43.720226,-79.26252,553 Kennedy Rd,Toronto
3610,Willowdale,359000,43.767471,-79.41127,#601 - 21 Hillcrest Ave,Toronto
3611,Downtown,566000,43.662407,-79.385941,#3009 - 37 GROSVENOR ST,Toronto
3612,Downtown,149900,43.657616,-79.384956,#1 Funit- 686 BAY ST,Toronto
3613,Rexdale,334900,43.724766,-79.616486,#1727 - 700 Humberwood Blvd,Toronto
3614,Agincourt,369900,43.777565,-79.281006,#424 - 135 Village Green Sq,Toronto
3615,Downtown,435000,43.640381,-79.397339,#4007 - 21 ICEBOAT TERR,Toronto
3616,Downtown,480000,43.647663,-79.390419,#4205 - 295 Adelaide St,Toronto
3617,Riverdale,68000,43.68013,-79.338013,937 DANFORTH AVE,Toronto
3618,Leaside,5400000,43.705471,-79.37487,1557-65 Bayview Ave,Toronto
3619,Long Branch,1699999,43.596199,-79.525291,3335 Lake Shore Blvd,Toronto
3620,Midtown Toronto,4880000,43.699421,-79.419983,1 DEWBOURNE AVE,Toronto
3621,Leaside,5400000,43.705471,-79.37487,1557-65 Bayview Ave,Toronto
3622,Kingsview Village,149900,43.695175,-79.556725,#503 - 380 Dixon Rd,Toronto
3623,Midtown Toronto,1298000,43.668613,-79.397385,#411 - 1 BEDFORD RD,Toronto
3624,Woodbine Gardens,1980000,43.702438,-79.301689,124 Glen Albert Dr,Toronto
3625,Downtown,1137000,43.668823,-79.390465,#201 - 8 SULTAN ST,Toronto
3626,Willowdale,648000,43.778015,-79.416656,#Lph03 - 23 Lorraine Dr,Toronto
3627,Little Portugal,428800,43.642391,-79.424736,#1020 - 68 ABELL ST,Toronto
3628,Midtown Toronto,384900,43.708008,-79.400787,#1608 - 58 Orchard View Blvd,Toronto
3629,York University Heights,199000,43.778461,-79.47509,821 Alness St,Toronto
3630,Don Mills,38880,43.745918,-79.346298,#3 - 1310 DON MILLS RD,Toronto
3631,Agincourt,298888,43.779205,-79.281517,#2818 - 181 Village Green Sq,Toronto
3632,Brookhaven - Amesbury,249900,43.697815,-79.502678,1542 Jane St,Toronto
3633,Woburn,359800,43.780197,-79.250015,#2036 - 68 Corporate Dr,Toronto
3634,Newtonbrook,3290000,43.791107,-79.411491,1000 WILLOWDALE AVE,Toronto
3635,Wexford - Maryvale,70000,43.759335,-79.310913,#3 - 80 Ellesmere Rd,Toronto
3636,Downsview,324900,43.726418,-79.479942,#1019 - 15 James Finlay Way,Toronto
3637,Bendale,357900,43.773689,-79.255424,#1804 - 70 TOWN CENTRE CRT,Toronto
3638,Mimico,629888,43.624306,-79.480461,#2109 - 2175 Lake Shore Blvd,Toronto
3639,Clairville,1500000,43.749554,-79.635956,2136 CODLIN CRES,Toronto
3640,Willowdale,295000,43.766197,-79.390091,#515 - 2 Clairtrell Rd,Toronto
3641,The Queensway,890000,43.624702,-79.499702,37 PENHURST AVE,Toronto
3642,Danforth Village,1349000,43.689312,-79.297142,2766 Danforth Ave,Toronto
3643,Bayview Village,329900,43.76952,-79.36969,#3110 - 29 SINGER CRT,Toronto
3644,Downsview,338000,43.726418,-79.479942,#929 - 15 James Finlay Way,Toronto
3645,Long Branch,89900,43.596786,-79.523476,3282 LAKESHORE BLVD W,Toronto
3646,Islington - City Centre West,359000,43.632565,-79.52552,235 Norseman St,Toronto
3647,Morningside,459000,43.790138,-79.197243,711 MILITARY TR,Toronto
3648,Birch Cliff,1449000,43.681252,-79.279793,183 Courcelette Rd,Toronto
3649,Downtown,560000,43.64613,-79.375778,#1512 - 8 The Esplanade Ave,Toronto
3650,New Toronto,59000,43.601685,-79.50177,2836 Lakeshore Blvd,Toronto
3651,Willowdale,419800,43.771309,-79.412926,#303 - 18 Parkview Ave,Toronto
3652,Clairlea - Birchmount,699000,43.702469,-79.272591,32 LILY CUP AVE,Toronto
3653,Don Mills,430000,43.747917,-79.347809,#C104 - 10 Mallard Rd,Toronto
3654,Financial District,999850,43.649799,-79.38028,#2508 - 325 Bay St,Toronto
3655,Rexdale,255000,43.741695,-79.584373,#90 A - 1530 ALBION RD,Toronto
3656,Downtown,409900,43.640381,-79.397339,#3108 - 21 Iceboat Terr,Toronto
3657,Midtown Toronto,349800,43.668636,-79.396233,#904 - 208 Bloor St,Toronto
3658,Humber Summit,559000,43.770767,-79.541161,#16 - 4801 STEELES AVE W,Toronto
3659,Agincourt,349900,43.784519,-79.288528,#110 - 2351 KENNEDY RD,Toronto
3660,Willowdale,454900,43.769829,-79.413467,#108 - 5168 YONGE ST,Toronto
3661,Downtown,108000,43.650963,-79.397903,#234 - 222 Spadina Ave,Toronto
3662,The Kingsway,439000,43.661209,-79.508301,#413 - 25 EARLINGTON AVE,Toronto
3663,Downtown,776000,43.653049,-79.379082,#64 &amp; 65 - 384 Yonge St,Toronto
3664,Clairlea,1100000,43.70174,-79.28775,300 PHARMACY AVE,Toronto
3665,Old East York,59000,43.693192,-79.342705,346 Donlands Ave,Toronto
3666,Don Mills,279999,43.747749,-79.348656,#A208 - 16 MALLARD RD,Toronto
3667,Armdale,300,43.830791,-79.24955,#F-101 - 865 Passmore Ave,Toronto
3668,Humber Bay,315000,43.624374,-79.485542,#1702 - 90 Park Lawn Rd,Toronto
3669,Armdale,220,43.830791,-79.24955,#E-101 - 855 Passmore Ave,Toronto
3670,Agincourt,160000,43.786839,-79.276924,#G69 - 8 GLEN WATFORD DR,Toronto
3671,Cliffcrest,580000,43.727161,-79.22963,3103 KINGSTON RD,Toronto
3672,Armdale,220,43.830791,-79.24955,#D-104 - 843 Passmore Ave,Toronto
3673,Henry Farm,366800,43.774746,-79.336929,#911 - 275 Yorkland Rd,Toronto
3674,Armdale,220,43.830791,-79.24955,#E-102 - 855 Passmore Ave,Toronto
3675,Silverthorn,639900,43.689663,-79.467239,539 Silverthorn Ave,Toronto
3676,Downtown,369900,43.638477,-79.397987,#2112 - 75 QUEENS WHARF RD,Toronto
3677,Humber Bay,1099000,43.624073,-79.484917,#3107 - 88 PARK LAWN RD,Toronto
3678,Kingsview Village,120000,43.696663,-79.552414,#102 - 320 DIXON RD,Toronto
3679,Downtown,539900,43.641346,-79.372421,#321 - 39 QUEENS QUAY,Toronto
3680,Humber Summit,1750000,43.757229,-79.569908,2958 Islington Ave,Toronto
3681,Bayview Village,229000,43.771111,-79.369843,#306 - 1110 Sheppard Ave,Toronto
3682,Don Mills,19900,43.754169,-79.349495,865 YORK MILLS RD,Toronto
3683,Bloor West Village,189000,43.650421,-79.480957,2340 BLOOR ST,Toronto
3684,Downtown,849900,43.651962,-79.3741,#Th 104 - 77 LOMBARD ST,Toronto
3685,Willowdale,1999900,43.782413,-79.40258,179 FINCH AVE E,Toronto
3686,Downtown,489900,43.637386,-79.398201,#730 - 38 Dan Leckie Way,Toronto
3687,Edenbridge - Humber Valley,4995000,43.668377,-79.532532,433 THE KINGSWAY,Toronto
3688,Downsview,398800,43.727947,-79.475685,#18Upper - 951 Wilson Ave,Toronto
3689,Henry Farm,299800,43.774952,-79.33548,#1505 - 30 Heron&#39;s Hill Way,Toronto
3690,Grange Park,699900,43.65258,-79.39061,#Th9 - 73 MCCAUL ST,Toronto
3691,Willowdale,421000,43.771309,-79.412926,#2505 - 18 PARKVIEW AVE,Toronto
3692,Henry Farm,438000,43.775208,-79.336426,#3210 - 2015 Sheppard Ave,Toronto
3693,Upper Beaches,178000,43.677242,-79.30368,462 KINGSTON RD,Toronto
3694,Steeles,408800,43.814705,-79.325653,#921 - 75 BAMBURGH CIRC,Toronto
3695,Downtown,299999,43.659237,-79.382904,#92 - 384 YONGE ST,Toronto
3696,Rexdale,275000,43.736164,-79.562958,976 -978 ALBION RD,Toronto
3697,Midtown Toronto,69000,43.663864,-79.417923,#Upper - 712 BLOOR ST W,Toronto
3698,Mimico,394000,43.625542,-79.477242,#328 - 80 Marine Parade Dr,Toronto
3699,Midtown Toronto,3995000,43.69799,-79.404449,119 CHAPLIN CRES,Toronto
3700,Old Town,469900,43.65406,-79.369118,#1514 - 320 RICHMOND ST E,Toronto
3701,York University Heights,195000,43.757763,-79.475639,3909 CHESSWOOD DR,Toronto
3702,Rockcliffe - Smythe,700000,43.668415,-79.486679,2534 St Clair Ave,Toronto
3703,Midtown Toronto,5595000,43.695145,-79.416641,14 ARDMORE RD,Toronto
3704,The Beach,1349000,43.670418,-79.300262,#Th4 - 2 Bellefair Ave,Toronto
3705,Downtown,78000,43.648525,-79.361565,411 I/2 PARLIAMENT ST,Toronto
3706,Cliffside,199000,43.704224,-79.252716,2228 KINGSTON RD,Toronto
3707,North Toronto,140000,43.703491,-79.388527,590 MOUNT PLEASANT RD,Toronto
3708,Midtown Toronto,499000,43.674416,-79.389023,#714 - 942 YONGE ST,Toronto
3709,Bayview Village,449990,43.768646,-79.369026,#1908 - 72 ESTHER SHINER BLVD,Toronto
3710,Rexdale,588888,43.736019,-79.600555,#115&amp;116 - 127 Westmore Dr,Toronto
3711,York University Heights,198888,43.781139,-79.492851,#11 -14 - 2901 STEELES AVE W,Toronto
3712,Downtown,335000,43.638866,-79.398438,#3009 - 85 QUEENS WHARF RD,Toronto
3713,Mimico,489000,43.625118,-79.478767,#1005 - 60 ANNIE CRAIG DR,Toronto
3714,Downtown,499000,43.670547,-79.380585,#3907 - 28 Ted Rogers Way,Toronto
3715,Midtown Toronto,3128000,43.671864,-79.393814,#4 C - 36 HAZELTON AVE,Toronto
3716,Little Portugal,349900,43.641697,-79.423431,#1003 E - 36 LISGAR ST,Toronto
3717,Downtown,1998000,43.650143,-79.371605,#608 - 39 JARVIS ST,Toronto
3718,High Park North,379900,43.65572,-79.45649,#507 - 1638 BLOOR ST W,Toronto
3719,Downtown,445000,43.647224,-79.391098,#2905 - 21 WIDMER ST,Toronto
3720,Leslieville,2490000,43.663506,-79.319931,1001 EASTERN AVE,Toronto
3721,Midtown Toronto,699000,43.673172,-79.389687,#1306 - 32 DAVENPORT RD,Toronto
3722,Niagara,536000,43.637207,-79.403572,#1502 - 35 BASTION ST,Toronto
3723,Willowdale,630000,43.761196,-79.408951,#2908 - 33 Sheppard Ave,Toronto
3724,Downtown,669888,43.64613,-79.375778,#908 - 8 THE ESPLANADE AVE,Toronto
3725,Downtown,339000,43.640381,-79.397339,#1102 - 21 Iceboat Terr,Toronto
3726,Downtown,1600000,43.649799,-79.38028,#4703 - 325 BAY ST N,Toronto
3727,Midtown Toronto,1199000,43.727768,-79.389908,238 LAWRENCE AVE E,Toronto
3728,Newtonbrook,359900,43.78017,-79.418251,#309 - 15 GREENVIEW AVE,Toronto
3729,Dovercourt Park,1100000,43.661392,-79.435753,1059 Dufferin St,Toronto
3730,Agincourt,250000,43.788311,-79.268082,#335 - 4438 SHEPPARD AVE E,Toronto
3731,Lambton Baby Point,1280000,43.648243,-79.486626,#1021 - 1 OLD MILL DR,Toronto
3732,Wilson Heights,289000,43.737118,-79.434029,3748 Bathurst St,Toronto
3733,Downtown,488800,43.645641,-79.392952,#3305 - 375 KING ST W,Toronto
3734,Downtown,259900,43.648712,-79.378204,#2705 - 1 KING ST W,Toronto
3735,Downtown,314900,43.657074,-79.355232,#524 - 51 TROLLEY CRES,Toronto
3736,Downtown,338900,43.645641,-79.392952,#3101 - 375 KING ST W,Toronto
3737,Downsview,6000,43.717987,-79.511543,55 Beverly Hills Dr,Toronto
3738,Downtown,1650000,43.669456,-79.387474,#4502 - 35 BALMUTO ST,Toronto
3739,Downtown,1039888,43.642578,-79.3769,#4603 - 16 HARBOUR ST,Toronto
3740,Downtown,239000,43.648712,-79.378204,#2306 - 1 KING ST W,Toronto
3741,Brookhaven - Amesbury,399000,43.709023,-79.47715,1387 Lawrence Ave,Toronto
3742,Rexdale,185000,43.736019,-79.600555,#109 - 127 WESTMORE DR,Toronto
3743,Niagara,289900,43.636963,-79.404671,#472 - 209 Fort York Blvd,Toronto
3744,Golden Mile,3999000,43.724213,-79.283386,116 MANVILLE RD,Toronto
3745,Downtown,664900,43.650372,-79.382347,#1411 - 70 Temperance St,Toronto
3746,York Mills,4850000,43.738846,-79.396927,1 ST MARGARETS DR,Toronto
3747,Bendale,289000,43.773346,-79.256149,#2806 - 60 TOWN CENTRE CRT,Toronto
3748,Eglinton East,20000,43.735878,-79.252121,2620 EGLINTON AVE E,Toronto
3749,Milliken,950000,43.818409,-79.277916,24 HUTCHCROFT AVE,Toronto
3750,Humber Summit,188800,43.749039,-79.559235,#19 - 2524 Finch Ave,Toronto
3751,York University Heights,150000,43.759502,-79.478058,4067 CHESSWOOD DR,Toronto
3752,Victoria Village,324000,43.73098,-79.30584,1646 VICTORIA PARK AVE,Toronto
3753,Rexdale,407500,43.731674,-79.576454,#Ph 4 - 80 Esther Lorrie Dr,Toronto
3754,East Danforth,48000,43.681999,-79.330734,1262 Danforth Ave,Toronto
3755,Leaside,1180000,43.712784,-79.368645,726 EGLINTON AVE E,Toronto
3756,Willowdale,958800,43.776451,-79.414017,#Ph24 - 500 Doris Ave,Toronto
3757,Downtown,563000,43.670547,-79.380585,#3204 - 28 Ted Rogers Way,Toronto
3758,Milliken,48888,43.825432,-79.298477,#B08 - 4779 STEELES AVE E,Toronto
3759,Thornhill,459786,43.830166,-79.467117,#1911 - 33 Shore Breeze Dr,Toronto
3760,Rouge,379900,43.801224,-79.199356,#28 - 1139 MORNINGSIDE AVE,Toronto
3761,Bendale,279900,43.773251,-79.255272,#412 - 50 Town Centre Crt,Toronto
3762,Willowdale,449000,43.774658,-79.412415,#517 - 88 GRANDVIEW WAY,Toronto
3763,Port Union,188000,43.789127,-79.140648,#10 - 285 Port Union Rd,Toronto
3764,Long Branch,145000,43.595699,-79.528984,3426 LAKESHORE BLVD W,Toronto
3765,Armdale,300,43.830791,-79.24955,#F-207 - 865 Passmore Ave,Toronto
3766,Willowdale,409900,43.769829,-79.413467,#2608 - 5168 Yonge St,Toronto
3767,Downtown,1488000,43.641346,-79.372421,#Th 117 - 39 Queens Quay E Way,Toronto
3768,Willowdale,515000,43.765842,-79.410057,#917 - 35 HOLLYWOOD AVE,Toronto
3769,Armdale,220,43.830791,-79.24955,#E-103 - 855 Passmore Ave,Toronto
3770,Agincourt,255000,43.810841,-79.252914,#919 - 100 SCOTTFIELD DR,Toronto
3771,Long Branch,1499000,43.593056,-79.534187,31 Marina Ave,Toronto
3772,Downtown,569900,43.659328,-79.382675,#1017 - 386 YONGE ST,Toronto
3773,The Kingsway,289900,43.661209,-79.508301,#109 - 25 Earlington Ave,Toronto
3774,New Toronto,1495000,43.594883,-79.504204,112 LAKE SHORE DR,Toronto
3775,Swansea,389900,43.636925,-79.469055,#2101 - 15 Windermere Ave,Toronto
3776,Downtown,921000,43.659328,-79.382675,#915 - 386 YONGE ST,Toronto
3777,Oakridge,283000,43.694603,-79.273277,#215 - 3520 DANFORTH AVE,Toronto
3778,Jane and Finch,665000,43.744011,-79.491524,#3220 - 5 Sheppard Ave,Toronto
3779,Leslieville,299900,43.662479,-79.340218,#233 - 201 CARLAW AVE,Toronto
3780,Downtown,869900,43.668777,-79.383995,#4808 - 45 CHARLES ST E,Toronto
3781,Palmerston - Little Italy,82500,43.664452,-79.413788,615 BLOOR ST W,Toronto
3782,Downtown,578800,43.639782,-79.397949,#651 - 151 DAN LECKIE WAY,Toronto
3783,York University Heights,109000,43.77359,-79.472168,59 ALNESS ST,Toronto
3784,Riverdale,679000,43.657894,-79.352921,#104 - 625 QUEEN ST E,Toronto
3785,Downsview,49000,43.72126,-79.511993,#236 - 1700 WILSON AVE,Toronto
3786,Don Valley Village,385500,43.791817,-79.355553,#1703 - 3300 Don Mills Rd,Toronto
3787,Downtown,739900,43.646809,-79.390182,#2303 - 80 JOHN ST,Toronto
3788,Downtown,509000,43.641346,-79.372421,#428 - 39 QUEENS QUAY,Toronto
3789,Bayview Village,414900,43.767406,-79.382858,#410 - 23 REAN DR,Toronto
3790,Downtown,541900,43.647224,-79.391098,#4004 - 21 WIDMER ST,Toronto
3791,Downtown,429000,43.661793,-79.384506,#1403 - 21 GRENVILLE ST,Toronto
3792,Jane and Finch,254900,43.764423,-79.496277,#108 - 25 FOUR WINDS DR,Toronto
3793,Rockcliffe - Smythe,929000,43.669868,-79.486053,27 Castleton Ave,Toronto
3794,Midtown Toronto,4680000,43.675293,-79.400276,176 BEDFORD RD,Toronto
3795,Willowdale,394800,43.771595,-79.412178,#303 - 256 DORIS AVE,Toronto
3796,The Westway,34000,43.696678,-79.543839,235 Dixon Rd,Toronto
3797,Midtown Toronto,5560000,43.722378,-79.385529,16 GLENALLAN RD,Toronto
3798,Downtown,415000,43.669456,-79.387474,#707 - 35 BALMUTO ST,Toronto
3799,Humber Bay,485000,43.624374,-79.485542,#1706 - 90 Park Lawn Rd,Toronto
3800,Swansea,354900,43.636173,-79.470757,#3204 - 105 THE QUEENSWAY,Toronto
3801,Downtown,479000,43.639851,-79.382431,#311 - 218 Queens Quay,Toronto
3802,North Toronto,280000,43.703854,-79.388176,595 MT. PLEASANT RD,Toronto
3803,Henry Farm,449900,43.773922,-79.345726,#909 - 62 FOREST MANOR RD,Toronto
3804,Islington - City Centre West,674900,43.639355,-79.536949,#Ph04 - 5229 Dundas St,Toronto
3805,Dorset Park,82000,43.750603,-79.276802,#11 - 2300 LAWRENCE AVE E,Toronto
3806,Stockyards District,1399000,43.677338,-79.465416,19 ESTORIL TERR,Toronto
3807,Downtown,445000,43.661793,-79.384506,#Ph-Xx - 21 GRENVILLE ST,Toronto
3808,Agincourt,98000,43.788311,-79.268082,#335 - 4438 SHEPPARD AVE E,Toronto
3809,Agincourt,20000,43.788311,-79.268082,#328 - 4438 SHEPPARD AVE E,Toronto
3810,Downtown,35000,43.6395,-79.393425,#Parkin- 11 BRUNEL CRT,Toronto
3811,Parkdale,1099000,43.635445,-79.441032,3775 Lake Shore Blvd,Toronto
3812,Midtown Toronto,611900,43.696835,-79.393997,#805 - 68 MERTON ST,Toronto
3813,Downtown,475000,43.645195,-79.390678,#133 - 250 WELLINGTON ST W,Toronto
3814,Mimico,385000,43.630856,-79.475014,#809 - 88 Palace Pier Crt,Toronto
3815,Eglinton East,399000,43.746014,-79.232513,#328 - 21 NELSON ST,Toronto
3816,Little Portugal,319900,43.641697,-79.423431,#1908 W - 36 LISGAR ST,Toronto
3817,Willowdale,479900,43.763969,-79.407013,#1503 - 88 SHEPPARD AVE E,Toronto
3818,Midtown Toronto,3580000,43.67173,-79.389694,#3102 - 50 Yorkville Ave,Toronto
3819,Thorncliffe Park,69000,43.705597,-79.345993,45 OVERLEA BLVD,Toronto
3820,Bayview Village,889000,43.767746,-79.370918,#Th11 - 121 MCMAHON DR,Toronto
3821,Morningside,199000,43.786037,-79.197723,#Ph18 - 3050 Ellesmere Rd,Toronto
3822,Entertainment District,359900,43.649025,-79.387138,#601 - 126 Simcoe St,Toronto
3823,Malvern,525000,43.792122,-79.235725,#211 - 28 ROSEBANK DR N,Toronto
3824,Mimico,639000,43.624969,-79.478081,#2908 - 59 ANNIE CRAIG DR,Toronto
3825,Midtown Toronto,360000,43.673172,-79.389687,#2601 - 32 DAVENPORT RD,Toronto
3826,Fairbank,950000,43.686459,-79.451279,295 EARLSCOURT AVE,Toronto
3827,Guildwood,2899000,43.734413,-79.209335,115 Sylvan Ave,Toronto
3828,Old East York,238900,43.696827,-79.293411,#706 - 3 MASSEY SQ,Toronto
3829,Downtown,235000,43.648712,-79.378204,#720 - 1 KING ST W,Toronto
3830,Rexdale,299990,43.724766,-79.616486,#1026 - 700 HUMBERWOOD BLVD,Toronto
3831,West Hill,484900,43.769436,-79.188362,#130 - 4470 KINGSTON RD,Toronto
3832,Islington - City Centre West,1299900,43.64753,-79.544487,63 Goswell Rd,Toronto
3833,Little Portugal,265990,43.642391,-79.424736,#1110 - 68 ABELL ST,Toronto
3834,Toronto,2250000,43.727787,-79.381371,#3 D - 1 CHEDINGTON PL,Toronto
3835,Eatonville,49000,43.641918,-79.565247,#5 - 385 THE WEST MALL,Toronto
3836,Edenbridge - Humber Valley,4888000,43.677505,-79.521782,92 NORTH DR,Toronto
3837,Rouge,230000,43.836353,-79.250473,#136 - 3351 MARKHAM RD,Toronto
3838,Trinity - Bellwoods,30000,43.65181,-79.408936,814 Dundas St,Toronto
3839,Wynford-Concorde,295000,43.723839,-79.337303,#602 - 18 WYNFORD DR,Toronto
3840,Dorset Park,5,43.760124,-79.275925,#3 - 260 Nantucket Blvd,Toronto
3841,York University Heights,868888,43.767239,-79.504723,19 BOOT TERR,Toronto
3842,Don Mills,423800,43.730209,-79.332375,#607 - 120 Dallimore Circ,Toronto
3843,Victoria Village,332000,43.724998,-79.328636,#604 - 181 Wynford Dr,Toronto
3844,Dorset Park,119000,43.741192,-79.281723,#302 - 1159 BIRCHMOUNT RD,Toronto
3845,Regal Heights,1995000,43.67487,-79.439171,5 Northcliffe Blvd,Toronto
3846,Rexdale,900000,43.713955,-79.557671,22 -22A REXDALE BLVD,Toronto
3847,Sherwood Park,2575000,43.714428,-79.394653,97A Sherwood Ave,Toronto
3848,Downsview,762900,43.720753,-79.517281,9 June Ave,Toronto
3849,Tam O'Shanter,549000,43.785709,-79.293724,#2102 - 168 BONIS AVE,Toronto
3850,Downsview,1679000,43.729599,-79.5,3 Forthbridge Cres,Toronto
3851,Downsview,289900,43.726418,-79.479942,#917 - 15 JAMES FINLAY WAY,Toronto
3852,Niagara,312000,43.638512,-79.400894,#716 - 169 Fort York Blvd,Toronto
3853,Yorkdale,69000,43.719013,-79.457947,#18 A - 3220 DUFFERIN ST,Toronto
3854,Little Portugal,269500,43.641697,-79.423431,#805 - 36 Lisgar St,Toronto
3855,Bayview Woods - Steeles,1758888,43.793625,-79.39222,2 Centurion Crt,Toronto
3856,Bayview Village,319000,43.769569,-79.369514,#Ph10 - 19 SINGER CRT,Toronto
3857,Newtonbrook,455000,43.78067,-79.418343,#520 - 25 GREENVIEW AVE,Toronto
3858,Edenbridge - Humber Valley,2649000,43.665764,-79.527443,70 Hartfield Rd,Toronto
3859,Bendale,299000,43.773346,-79.256149,#2802 - 60 Town Centre Crt,Toronto
3860,Edenbridge - Humber Valley,2325000,43.660347,-79.523361,46 Wimbleton Rd,Toronto
3861,Bayview Village,539000,43.767937,-79.387955,#621 - 2885 BAYVIEW AVE,Toronto
3862,Highland Creek,999900,43.793736,-79.162827,3 BLUENOSE CRES,Toronto
3863,Midtown Toronto,729900,43.673172,-79.389687,#1105 - 32 Davenport Rd,Toronto
3864,Willowdale,412000,43.769665,-79.41378,#1711 - 5162 Yonge Ave,Toronto
3865,Bridlewood,249000,43.798306,-79.314674,#2109 - 100 ECHO PT,Toronto
3866,Edenbridge - Humber Valley,1695000,43.665733,-79.518074,1 Edgevalley Dr,Toronto
3867,New Toronto,1099000,43.598412,-79.51664,3154 Lake Shore Blvd,Toronto
3868,Willowdale,449900,43.769829,-79.413467,#115 - 5168 YONGE ST,Toronto
3869,Riverside,1550000,43.661396,-79.347633,76 Boulton Ave,Toronto
3870,Glen Park,698000,43.708862,-79.468758,34 Eugene St,Toronto
3871,Scarborough Village,630000,43.741879,-79.213852,2268 Kingston Rd,Toronto
3872,Fairbank,848800,43.704197,-79.442039,166 Marlee Ave,Toronto
3873,Islington - City Centre West,395000,43.633957,-79.541298,#100 - 5415 DUNDAS ST W,Toronto
3874,Willowdale,639000,43.761196,-79.408951,#902 - 33 Sheppard Ave,Toronto
3875,Willowdale,398800,43.761154,-79.408836,#304 - 23 SHEPPARD AVE E,Toronto
3876,Ionview,785000,43.740768,-79.272987,58 Kingsdown Dr,Toronto
3877,Willowdale,1999900,43.782459,-79.402336,181 FINCH AVE E,Toronto
3878,Agincourt,275000,43.778614,-79.281258,#1409 - 151 Village Green Sq,Toronto
3879,The Beach,740000,43.674232,-79.307144,#504 - 60 Haslett Ave,Toronto
3880,Leslieville,809900,43.669174,-79.317986,#Th21 - 96-104 Coxwell Ave,Toronto
3881,Wexford - Maryvale,1599000,43.762917,-79.314003,42 Pachino Blvd,Toronto
3882,Midtown Toronto,1599000,43.718693,-79.426956,92 GLEN RUSH BLVD,Toronto
3883,Rexdale,189900,43.73354,-79.592949,#4 - 242 John Garland Blvd,Toronto
3884,Jane and Finch,149900,43.749435,-79.516846,#253 - 10 EDDYSTONE AVE,Toronto
3885,The Queensway,2640000,43.633003,-79.500664,65 OAKFIELD DR,Toronto
3886,Midtown Toronto,600000,43.705097,-79.397514,#2209 - 2181 Yonge St,Toronto
3887,Ionview,799000,43.733253,-79.273369,18 Corinne Cres,Toronto
3888,Toronto,499900,43.761047,-79.410904,#147 - 4750 YONGE ST,Toronto
3889,Wexford,749900,43.750694,-79.296608,1249 Warden Ave,Toronto
3890,Emery,530000,43.747463,-79.560875,62 Songwood Dr,Toronto
3891,Henry Farm,419500,43.774746,-79.336929,#2609 - 275 Yorkland Rd,Toronto
3892,Midtown Toronto,129000,43.687893,-79.395996,44 St Clair Ave,Toronto
3893,Thornhill,379900,43.830166,-79.467117,#904 - 33 SHORE BREEZE DR,Toronto
3894,Islington - City Centre West,1119000,43.649822,-79.552376,10 Shaver Crt,Toronto
3895,Oakridge,295800,43.694603,-79.273277,#212 - 3520 Danforth Ave,Toronto
3896,Downtown,290000,43.659256,-79.382828,#2 - 382 Yonge St,Toronto
3897,Port Union,1969000,43.776833,-79.157974,140 Colonel Danforth Tr,Toronto
3898,Downtown,419999,43.643486,-79.392303,#1112 - 352 FRONT ST,Toronto
3899,Bayview Village,569000,43.768436,-79.377464,#714 - 701 Sheppard Ave,Toronto
3900,Midtown Toronto,89000,43.706089,-79.39859,#211 - 2200 YONGE ST,Toronto
